{
"type": "FeatureCollection",
"name": "combined_Unconsolidated_Aquifer_Systems_IDNR_Morgan",
"crs": { "type": "name", "properties": { "name": "urn:ogc:def:crs:OGC:1.3:CRS84" } },
"features": [
{ "type": "Feature", "properties": { "fid_1": 189, "aq_system": "Outwash" }, "geometry": { "type": "Polygon", "coordinates": [ [ [ -86.267544742228097, 39.557782032625539 ], [ -86.267879113279989, 39.557724545016356 ], [ -86.268788714008906, 39.557784007419492 ], [ -86.269617294973543, 39.557576078657661 ], [ -86.269828744471525, 39.556932092188362 ], [ -86.269562933813319, 39.555995495874406 ], [ -86.270280898315747, 39.555715140948692 ], [ -86.27170962023078, 39.555719183097423 ], [ -86.272522969829907, 39.555485398113319 ], [ -86.272838097106373, 39.555307262192045 ], [ -86.273331485891987, 39.554688027994139 ], [ -86.276872208041581, 39.5513010293012 ], [ -86.277824099872973, 39.549988864785924 ], [ -86.277893435509043, 39.549422643512166 ], [ -86.278007383208205, 39.54923655747767 ], [ -86.278261364258256, 39.549044183150805 ], [ -86.278859023226588, 39.548884455682774 ], [ -86.280250222722955, 39.548588053027501 ], [ -86.281062277853437, 39.548524998424199 ], [ -86.282004904853167, 39.546860581786284 ], [ -86.282513517383975, 39.545658129159918 ], [ -86.283248621355753, 39.544514131852353 ], [ -86.2835106953288, 39.543950090598116 ], [ -86.285324523930385, 39.5413700082172 ], [ -86.285935864362273, 39.540710171549996 ], [ -86.287744982535571, 39.539268926323381 ], [ -86.288572470459485, 39.538421114902327 ], [ -86.290703125928616, 39.536813460857331 ], [ -86.291293613924481, 39.536284086243022 ], [ -86.291722077101227, 39.535721991278436 ], [ -86.291934228553487, 39.535258359190763 ], [ -86.292034642679511, 39.534725500483866 ], [ -86.292205698645759, 39.532346975585277 ], [ -86.29205577363814, 39.531779568848883 ], [ -86.291256450567019, 39.530406359533828 ], [ -86.291127959600928, 39.529734245198433 ], [ -86.292872844994719, 39.528828701373676 ], [ -86.293614822139048, 39.528296227622199 ], [ -86.29442038411085, 39.52730778582805 ], [ -86.296688444977747, 39.524079246819099 ], [ -86.297576010111541, 39.521991008268103 ], [ -86.298430062379822, 39.520557565067442 ], [ -86.299114466158386, 39.519701199264411 ], [ -86.301191367307894, 39.517671719162486 ], [ -86.303655287116854, 39.516093194967951 ], [ -86.304684762563326, 39.515696793512241 ], [ -86.30741972689998, 39.515071640771339 ], [ -86.308523010547589, 39.514983075372406 ], [ -86.310697832959818, 39.515136387959139 ], [ -86.311960967488133, 39.514966098437888 ], [ -86.314961549279388, 39.513435057247932 ], [ -86.316713996948636, 39.512045876494192 ], [ -86.317596508424913, 39.511512239387493 ], [ -86.319554509619238, 39.510520912507012 ], [ -86.32019870594057, 39.510300137352239 ], [ -86.322065285582568, 39.510045248797809 ], [ -86.322931731133721, 39.509797756092595 ], [ -86.323775319909601, 39.509131762645559 ], [ -86.325170467227636, 39.507428849222514 ], [ -86.32606002706251, 39.506507303425948 ], [ -86.326804055751865, 39.505192127051394 ], [ -86.326996405875008, 39.504259479213253 ], [ -86.326504753719149, 39.503195446467977 ], [ -86.32510348628665, 39.501336742991917 ], [ -86.324132276810829, 39.500227750623573 ], [ -86.323574360226132, 39.499280729644553 ], [ -86.322734723463952, 39.496500526205914 ], [ -86.322084656686158, 39.495003972877157 ], [ -86.320189546361348, 39.489338903957417 ], [ -86.32039436858139, 39.487527263682189 ], [ -86.321818138851512, 39.485040944091033 ], [ -86.322587743320625, 39.483021357451769 ], [ -86.322888348713789, 39.481929862379474 ], [ -86.322901572029224, 39.480973048050004 ], [ -86.322605303789487, 39.478869150719376 ], [ -86.32274988830163, 39.476973441678631 ], [ -86.323023933780675, 39.475923136828094 ], [ -86.323032867435614, 39.475259599048691 ], [ -86.322594932955141, 39.473678130874752 ], [ -86.321871920237939, 39.472429500854119 ], [ -86.320364823021862, 39.471307244873863 ], [ -86.319341305942302, 39.470840819938878 ], [ -86.318590500041523, 39.470345629738034 ], [ -86.316464146173942, 39.469262657581325 ], [ -86.315188725272094, 39.468130614763368 ], [ -86.314475151946667, 39.467801967342069 ], [ -86.314048292423976, 39.467729152056293 ], [ -86.306870876335964, 39.468931572700328 ], [ -86.305757549572164, 39.469118042709098 ], [ -86.302040530956134, 39.469526755781182 ], [ -86.300808616771121, 39.469801956060415 ], [ -86.296505663128059, 39.470148782194173 ], [ -86.295083241882153, 39.470524316408756 ], [ -86.293091169004754, 39.471210961277691 ], [ -86.291379163345468, 39.471773702315751 ], [ -86.289070328657616, 39.472318858531729 ], [ -86.282005765032693, 39.473632804868103 ], [ -86.275902984636573, 39.47409686870877 ], [ -86.273157569628808, 39.474388618110616 ], [ -86.268972127070725, 39.47422378742116 ], [ -86.267022392165529, 39.474369960423772 ], [ -86.264434106648579, 39.474997987400016 ], [ -86.263024994772707, 39.47544718398688 ], [ -86.262282747726744, 39.475577884110614 ], [ -86.261423164150827, 39.475515212860444 ], [ -86.259565280477446, 39.474969092630154 ], [ -86.259305661920479, 39.474759057572157 ], [ -86.258851942592415, 39.474075030565579 ], [ -86.258889002574634, 39.473563100508592 ], [ -86.259913750907316, 39.472930601278371 ], [ -86.260654947876247, 39.472575694532445 ], [ -86.262310042244764, 39.472253722868466 ], [ -86.265393035994578, 39.472066490855198 ], [ -86.271281766317799, 39.472029773749178 ], [ -86.271920458073751, 39.471880814279842 ], [ -86.273204826590771, 39.471324545570432 ], [ -86.275350062075631, 39.470881802123436 ], [ -86.276767381135542, 39.470813626543631 ], [ -86.2785114668239, 39.470519197029368 ], [ -86.28213243712203, 39.470295650870128 ], [ -86.283460571570544, 39.470339943627479 ], [ -86.284166978105574, 39.470172759719993 ], [ -86.287051197123688, 39.469807899274819 ], [ -86.288580997635492, 39.469366804894726 ], [ -86.289116576986572, 39.469134345845781 ], [ -86.290894442257823, 39.468687031304754 ], [ -86.29623556090381, 39.466837520638258 ], [ -86.298009271924954, 39.466447974978934 ], [ -86.300472727236198, 39.466042847307072 ], [ -86.305771876833575, 39.46544685796075 ], [ -86.308621056685041, 39.464627697339004 ], [ -86.31127104899052, 39.463996324016435 ], [ -86.313347379615308, 39.463007641651906 ], [ -86.314985548096047, 39.461621627120117 ], [ -86.316228250502405, 39.460134285736544 ], [ -86.31643890505174, 39.460284768936276 ], [ -86.316840164521864, 39.461289591024332 ], [ -86.317623809445763, 39.462387544112033 ], [ -86.318056276329358, 39.463764974609475 ], [ -86.318008922910792, 39.464102573147542 ], [ -86.317862579728356, 39.464433567512671 ], [ -86.317600357261426, 39.46540874062611 ], [ -86.317102493530427, 39.466310643593829 ], [ -86.316900730287344, 39.466828570233595 ], [ -86.316910092231538, 39.467194740197428 ], [ -86.317077937608289, 39.467570943371165 ], [ -86.317891678369648, 39.467620242923765 ], [ -86.319676738138241, 39.467475944202427 ], [ -86.320791818721759, 39.467587496958501 ], [ -86.321399864377412, 39.46778371036158 ], [ -86.322296214497072, 39.468370060346835 ], [ -86.324653148840696, 39.470717685384322 ], [ -86.325322904184361, 39.471258697437875 ], [ -86.325751507650139, 39.471394230649722 ], [ -86.326808379319758, 39.470739743133471 ], [ -86.327093272651609, 39.470357719271654 ], [ -86.327161275311028, 39.469727470952179 ], [ -86.327034936911787, 39.469531619146728 ], [ -86.326674529998812, 39.468972898830295 ], [ -86.327547339587184, 39.466797185775917 ], [ -86.327835796435735, 39.465450086776357 ], [ -86.327905068184492, 39.464243138434782 ], [ -86.32775296167577, 39.462805156500551 ], [ -86.327725409985931, 39.461630969790576 ], [ -86.327209377591231, 39.458755982457426 ], [ -86.32721760416932, 39.456573528300986 ], [ -86.327010916573244, 39.455418933390028 ], [ -86.327050168462947, 39.453890699668783 ], [ -86.328089233798664, 39.45175382848673 ], [ -86.328937822498474, 39.450411045344403 ], [ -86.329596854200034, 39.448978694928847 ], [ -86.330194517998223, 39.447941101045153 ], [ -86.330685041774984, 39.447265356285079 ], [ -86.331809097784827, 39.446196124522693 ], [ -86.332881204823764, 39.444955540024367 ], [ -86.335460654120482, 39.441733344564653 ], [ -86.336578086716258, 39.440111241504894 ], [ -86.337220503614148, 39.438943407136847 ], [ -86.337711090958905, 39.437735311238264 ], [ -86.337906441411803, 39.436850648279503 ], [ -86.338352266878204, 39.435900194726408 ], [ -86.338741954788574, 39.434459531913078 ], [ -86.339011843645039, 39.432908942551265 ], [ -86.338946526903669, 39.431153854804244 ], [ -86.339009495009734, 39.430918198749119 ], [ -86.339915428999802, 39.431398331041976 ], [ -86.340972840976164, 39.432269748931922 ], [ -86.341970839146796, 39.433328111132873 ], [ -86.342805544692197, 39.434421711478628 ], [ -86.343455190784454, 39.434988539774196 ], [ -86.344338439204606, 39.435622441467608 ], [ -86.34527297690029, 39.436079696379856 ], [ -86.34643637039639, 39.436273980678166 ], [ -86.347423437121549, 39.436309164816862 ], [ -86.347861840310912, 39.436245445526154 ], [ -86.34837623532286, 39.43604288300947 ], [ -86.348970878104794, 39.435675030611328 ], [ -86.349802147000673, 39.434871911712804 ], [ -86.350065861217359, 39.434456976502702 ], [ -86.350473048887963, 39.433053036048634 ], [ -86.350545281538217, 39.432390108944631 ], [ -86.350420641874848, 39.431525384517748 ], [ -86.349775029802174, 39.429891865993724 ], [ -86.348683166824884, 39.427965644647394 ], [ -86.347068598405613, 39.423350928384608 ], [ -86.347157671715195, 39.422291193119392 ], [ -86.347529288070575, 39.421155041638045 ], [ -86.348549935834669, 39.419263552211078 ], [ -86.349107552242117, 39.418614744544804 ], [ -86.34940822827555, 39.418732362237876 ], [ -86.353583684841936, 39.419242661221816 ], [ -86.354226774518267, 39.419251678997462 ], [ -86.355617603066406, 39.419498708511099 ], [ -86.35836316655049, 39.420372803557889 ], [ -86.360984772543247, 39.42169879655021 ], [ -86.362846098818892, 39.422755171502345 ], [ -86.363609514722697, 39.423073585887494 ], [ -86.365660509378813, 39.423479764993196 ], [ -86.367804740192739, 39.423569073365506 ], [ -86.370050652479733, 39.42386285940794 ], [ -86.371676118887024, 39.424545971928069 ], [ -86.372485820928063, 39.425003371876699 ], [ -86.373583957335384, 39.425385958632198 ], [ -86.374819889310473, 39.425487141442076 ], [ -86.375199573792401, 39.425407638279786 ], [ -86.375730465876259, 39.425152856843646 ], [ -86.376272312016411, 39.425040948704996 ], [ -86.37649240078116, 39.42491234002317 ], [ -86.377246220758025, 39.424101676219095 ], [ -86.377903263719645, 39.422476780665498 ], [ -86.377999137152074, 39.4216352718351 ], [ -86.377882477412385, 39.41898606827899 ], [ -86.37772563540689, 39.418315325249154 ], [ -86.377261634318486, 39.417191978877199 ], [ -86.376412973271101, 39.415784879548838 ], [ -86.375881279231479, 39.414611982695696 ], [ -86.375362631738028, 39.413746916090119 ], [ -86.374899810687964, 39.412120691769857 ], [ -86.374952377698676, 39.411516549490827 ], [ -86.375284559760132, 39.41077215219142 ], [ -86.375775212871218, 39.410111373068119 ], [ -86.376490189079547, 39.409345464474733 ], [ -86.377868720643264, 39.408079038650193 ], [ -86.379872807994516, 39.406449944149792 ], [ -86.380904481473337, 39.405419067414279 ], [ -86.381308159019, 39.404916693726122 ], [ -86.38201170928123, 39.403755748242126 ], [ -86.382390234217951, 39.402905066291204 ], [ -86.382220748272857, 39.402211221964038 ], [ -86.380978641991504, 39.400242369071435 ], [ -86.37998298099896, 39.39827552877864 ], [ -86.379317905962679, 39.396067405872422 ], [ -86.378831116006708, 39.394838012056788 ], [ -86.379357502246265, 39.39417192344564 ], [ -86.3803366522407, 39.393387508302538 ], [ -86.381085012901238, 39.392691252819922 ], [ -86.381529425849124, 39.39254260480574 ], [ -86.382339857684443, 39.392495978167126 ], [ -86.385916858676126, 39.392931059052763 ], [ -86.386734634505004, 39.39322737403905 ], [ -86.388906910363616, 39.393711541775545 ], [ -86.389980491031736, 39.394069618844966 ], [ -86.390553304887661, 39.394395163083232 ], [ -86.390807750710991, 39.394607185232495 ], [ -86.391438380003208, 39.395691886230559 ], [ -86.39218090701047, 39.396511735495849 ], [ -86.393064350187572, 39.396930897363006 ], [ -86.394039349519474, 39.397214417350554 ], [ -86.394773976171749, 39.397268040279101 ], [ -86.395140730643533, 39.397186676591026 ], [ -86.396230579507289, 39.396577259171941 ], [ -86.396909749458629, 39.396320532653334 ], [ -86.397214604253577, 39.396058746664295 ], [ -86.397650968208168, 39.395414372065645 ], [ -86.3981833460914, 39.394887042432373 ], [ -86.398683133671881, 39.394000492765478 ], [ -86.398982099275685, 39.393180097803544 ], [ -86.399129345830687, 39.392462972607376 ], [ -86.399027009462273, 39.392093059624436 ], [ -86.398759918437307, 39.391596966118712 ], [ -86.397449012472592, 39.389897747915903 ], [ -86.396516171680346, 39.389042819274671 ], [ -86.395751529991614, 39.387877356521003 ], [ -86.395592160570558, 39.387408754018978 ], [ -86.395589336871112, 39.386669870791209 ], [ -86.395821439405609, 39.386140615122997 ], [ -86.396342666622019, 39.385353487420119 ], [ -86.397613333591877, 39.383947533386106 ], [ -86.398090972143592, 39.383023817005949 ], [ -86.398201473578695, 39.382668218592492 ], [ -86.398196794726829, 39.382103566230768 ], [ -86.397812199166339, 39.380926557513654 ], [ -86.397163520240966, 39.380019020365005 ], [ -86.396285558486738, 39.379167106918111 ], [ -86.396155184108537, 39.37885726349846 ], [ -86.395265416038413, 39.377862011299975 ], [ -86.393066324335791, 39.37568117462186 ], [ -86.392595810626062, 39.37515455505396 ], [ -86.390980715011978, 39.37367211530384 ], [ -86.389268120984354, 39.372362907700932 ], [ -86.388431853925681, 39.371531546162664 ], [ -86.388189770905313, 39.371088130384976 ], [ -86.388152470053498, 39.370526465241298 ], [ -86.387761323125957, 39.369063826870885 ], [ -86.387358219574537, 39.368007646374444 ], [ -86.386810471253099, 39.36707976949743 ], [ -86.385685674198385, 39.365924541214468 ], [ -86.384955374616638, 39.365483749172306 ], [ -86.383888088934313, 39.364594051332979 ], [ -86.383675872025364, 39.36447738713219 ], [ -86.38333546272645, 39.364075396543974 ], [ -86.382433592653967, 39.363474515411312 ], [ -86.380057165160409, 39.362498047856846 ], [ -86.379247674172035, 39.362491729650706 ], [ -86.378184831410394, 39.363012391442936 ], [ -86.377009245464436, 39.363318946092392 ], [ -86.375157396033131, 39.362826989976192 ], [ -86.374551297777458, 39.362573637002185 ], [ -86.373993056107338, 39.362203856201965 ], [ -86.373569286176348, 39.361708633474613 ], [ -86.372089160947027, 39.358360423878153 ], [ -86.371222842255563, 39.357494623163241 ], [ -86.3705276536908, 39.357041219617194 ], [ -86.369862882723112, 39.356991930614036 ], [ -86.36905834135554, 39.357134692792933 ], [ -86.367672906540591, 39.357980853751904 ], [ -86.366195990658539, 39.359161147883036 ], [ -86.365113927145387, 39.359513706710366 ], [ -86.364464042908693, 39.359625918883985 ], [ -86.363901502340099, 39.359624792650727 ], [ -86.362902922165645, 39.359520960509684 ], [ -86.361075075370991, 39.358780951228617 ], [ -86.360840248031138, 39.358771104295322 ], [ -86.360358196703118, 39.358894632461372 ], [ -86.358231498359501, 39.360134232763663 ], [ -86.356267021101061, 39.360915143570473 ], [ -86.352562005866346, 39.362903029596659 ], [ -86.351510610082698, 39.363277519815661 ], [ -86.348797523467638, 39.364016791120292 ], [ -86.348235313875662, 39.364025035899367 ], [ -86.346527615559623, 39.363702153284542 ], [ -86.345841731155105, 39.363503360968053 ], [ -86.345321532274028, 39.363258329541068 ], [ -86.344461097155133, 39.363088803941565 ], [ -86.343299467825418, 39.363101823934969 ], [ -86.342824145875596, 39.36343351877106 ], [ -86.342244421107765, 39.364133586203067 ], [ -86.340828854605476, 39.366523056109294 ], [ -86.339701900022575, 39.367801029860431 ], [ -86.339375755709256, 39.368578398817718 ], [ -86.339220087482133, 39.36937043200809 ], [ -86.339307484524284, 39.371030852172979 ], [ -86.339113809063548, 39.371317131258152 ], [ -86.338572266572427, 39.371795201207497 ], [ -86.337627852051781, 39.372233796256559 ], [ -86.336513682125144, 39.372507629020909 ], [ -86.331965389263331, 39.372979234748392 ], [ -86.330376700038954, 39.373320572006257 ], [ -86.327919768410084, 39.373565016921603 ], [ -86.325199583277822, 39.373529923805052 ], [ -86.324397541637509, 39.373244087072372 ], [ -86.3236794723868, 39.37269061095153 ], [ -86.323312786079072, 39.372106006957651 ], [ -86.323073072430276, 39.370560942998289 ], [ -86.323065680592364, 39.369659281752462 ], [ -86.322793697279451, 39.368493887747647 ], [ -86.322391115659471, 39.367337191901157 ], [ -86.3215118860725, 39.366039286431452 ], [ -86.319929124044577, 39.364921888838417 ], [ -86.318541263115563, 39.364448332957785 ], [ -86.317496496118054, 39.364188978943872 ], [ -86.31632017728603, 39.363762884321112 ], [ -86.315160615801432, 39.363533156677214 ], [ -86.311938763287131, 39.363431259844383 ], [ -86.310902751861363, 39.363704216090881 ], [ -86.310225557552855, 39.364074732321718 ], [ -86.30962065941354, 39.364345603776584 ], [ -86.30690232392277, 39.365821468294484 ], [ -86.305929532933988, 39.366189235071907 ], [ -86.305027626245632, 39.366678722092942 ], [ -86.303201750705881, 39.367417713417289 ], [ -86.301093444033611, 39.368035022003809 ], [ -86.300683001017887, 39.368021458629002 ], [ -86.298719073082509, 39.36735724048544 ], [ -86.297664977136847, 39.366747335278127 ], [ -86.297298376154217, 39.366654630804625 ], [ -86.296987883515584, 39.366694905494704 ], [ -86.295693505862332, 39.366329225910732 ], [ -86.294655763778053, 39.366123644646599 ], [ -86.293092037917532, 39.366015519049874 ], [ -86.2920777393431, 39.366097042942357 ], [ -86.288130148710593, 39.366630463632873 ], [ -86.285408395684811, 39.366765701377389 ], [ -86.283073063972736, 39.366789121558533 ], [ -86.281747829274835, 39.36671924723202 ], [ -86.281154401964997, 39.366489740057283 ], [ -86.27892240489372, 39.36488536212623 ], [ -86.278101060651721, 39.364480826799053 ], [ -86.275327890147125, 39.363598210327787 ], [ -86.274317362938135, 39.36356107326079 ], [ -86.272210548544237, 39.363874845974721 ], [ -86.270289867104111, 39.36448198380576 ], [ -86.268539383394142, 39.3647631101923 ], [ -86.266432227914777, 39.365300770596797 ], [ -86.264677485999172, 39.366139826596616 ], [ -86.264500703046579, 39.366224356444256 ], [ -86.262669996050121, 39.367112477375819 ], [ -86.261532287486986, 39.367705067983657 ], [ -86.260701720293682, 39.367956854229575 ], [ -86.259924530314493, 39.368380346412685 ], [ -86.258594966229737, 39.36884315908501 ], [ -86.257174879467684, 39.370033707316985 ], [ -86.256619095850795, 39.370394323750865 ], [ -86.255203905670527, 39.370598938121553 ], [ -86.253517216217162, 39.370842783246054 ], [ -86.251543987180568, 39.371047978007532 ], [ -86.251517391277289, 39.365459085485917 ], [ -86.251517376888657, 39.365455974921041 ], [ -86.251932951685816, 39.365459233742506 ], [ -86.252637631312822, 39.365464761761977 ], [ -86.254718687844345, 39.365690881177393 ], [ -86.255750576152778, 39.365557423026047 ], [ -86.257314267325242, 39.365509849699059 ], [ -86.261197442626482, 39.364603452296464 ], [ -86.263345841495038, 39.36355639843444 ], [ -86.26575002742463, 39.361898982992813 ], [ -86.268568511293395, 39.360972341967617 ], [ -86.270543449054117, 39.360528404467395 ], [ -86.271931700437094, 39.360304236667574 ], [ -86.273112755730338, 39.360431042444297 ], [ -86.274886881205248, 39.360342234507698 ], [ -86.275876860104148, 39.360182888345165 ], [ -86.2772246709293, 39.359721565945733 ], [ -86.278555303892787, 39.359572575844851 ], [ -86.280404621018093, 39.359694026059458 ], [ -86.282763253307749, 39.359990294154315 ], [ -86.283994895471238, 39.359984991470796 ], [ -86.286129026141822, 39.360472592071901 ], [ -86.287967663243151, 39.360481353161624 ], [ -86.290720164142769, 39.359896426213069 ], [ -86.292757933577448, 39.359195712598371 ], [ -86.293612422158347, 39.358761592877549 ], [ -86.294624327545947, 39.358188299793369 ], [ -86.29958629337537, 39.355830672603247 ], [ -86.300937922102975, 39.354992601771826 ], [ -86.301635374392148, 39.354694685573769 ], [ -86.303193135520388, 39.354397941157998 ], [ -86.304852031814804, 39.354183987079566 ], [ -86.306218414295287, 39.354150159024037 ], [ -86.308294244304577, 39.353824430234887 ], [ -86.309555150091256, 39.353888770547997 ], [ -86.311747406684333, 39.354221398989004 ], [ -86.313666262351703, 39.354727448923043 ], [ -86.31492848583656, 39.355258596530753 ], [ -86.316730559752955, 39.35575210900128 ], [ -86.320022237171258, 39.356338324965158 ], [ -86.325279009913089, 39.355910678203529 ], [ -86.326682138069359, 39.355959956421842 ], [ -86.32847722056168, 39.356241321824058 ], [ -86.331492021191664, 39.356277165130287 ], [ -86.333018275997333, 39.356162796808647 ], [ -86.33433650433048, 39.355926701750818 ], [ -86.338107767271254, 39.355615165915303 ], [ -86.345891892086669, 39.355517294907578 ], [ -86.348203055576249, 39.355205786056963 ], [ -86.350015710479809, 39.355164266608796 ], [ -86.35064285781398, 39.35496111547819 ], [ -86.352202299755163, 39.354599140557667 ], [ -86.35506829785993, 39.353441007868447 ], [ -86.358732428486263, 39.351561493676321 ], [ -86.359368617433802, 39.351149154429088 ], [ -86.360198733833712, 39.350827739841563 ], [ -86.362488208904693, 39.350598297656965 ], [ -86.363755758382652, 39.350611425300279 ], [ -86.366460381365727, 39.350304317241012 ], [ -86.369084050494266, 39.349264750595133 ], [ -86.370491978841983, 39.348880859196591 ], [ -86.372096376265688, 39.348608803810563 ], [ -86.374084183845554, 39.348079939990988 ], [ -86.374728223528166, 39.348182937765287 ], [ -86.375376605437694, 39.348476789521051 ], [ -86.377247891734555, 39.350189527179452 ], [ -86.378477297246278, 39.351542406989068 ], [ -86.37918759088717, 39.352160145254857 ], [ -86.380026876176345, 39.352674281875082 ], [ -86.380594925197684, 39.352845670675549 ], [ -86.381473465580584, 39.352916955687974 ], [ -86.383149038466726, 39.353422947770227 ], [ -86.385061499394681, 39.353754958107601 ], [ -86.38593169475503, 39.353829278597203 ], [ -86.388132045902765, 39.354340196004493 ], [ -86.392115959865109, 39.355661661468851 ], [ -86.393930815493235, 39.356568785938961 ], [ -86.395003892596236, 39.357345508977495 ], [ -86.396530702565258, 39.358682346369605 ], [ -86.397721783687246, 39.360162534875663 ], [ -86.398025169189779, 39.360677256738036 ], [ -86.398303315559687, 39.361978191984548 ], [ -86.398214103339953, 39.363275918851727 ], [ -86.397777095555639, 39.365358484920449 ], [ -86.397789987985206, 39.36605870670482 ], [ -86.397914819791168, 39.366455875290811 ], [ -86.398914737628473, 39.367330509359128 ], [ -86.400047634115879, 39.367762998234859 ], [ -86.40191196882283, 39.368253970395266 ], [ -86.402541755936426, 39.368597202256055 ], [ -86.403805715295391, 39.369464480360875 ], [ -86.404362367016276, 39.370056562333822 ], [ -86.406123728948913, 39.372777358429751 ], [ -86.406643057622148, 39.374044603833099 ], [ -86.407007775391079, 39.375527779254199 ], [ -86.407082338291261, 39.37630716123396 ], [ -86.407401036185263, 39.377198460274933 ], [ -86.407591730346127, 39.378199149593527 ], [ -86.40824688205366, 39.379035231778843 ], [ -86.409230538276333, 39.379886860348748 ], [ -86.409636493260038, 39.380743219913661 ], [ -86.409736118675184, 39.381635783632298 ], [ -86.409548505485887, 39.384058570182063 ], [ -86.409654817371518, 39.385795422584813 ], [ -86.41048089960718, 39.388927333476737 ], [ -86.410724025611685, 39.390164051676898 ], [ -86.411387680846659, 39.391391300609229 ], [ -86.412716518990706, 39.393135500615223 ], [ -86.413579911931762, 39.393893595762933 ], [ -86.4154343365215, 39.394562238047982 ], [ -86.416800569892018, 39.394657525806792 ], [ -86.417433906390272, 39.394775917025477 ], [ -86.419699275701731, 39.394592910513026 ], [ -86.420749915209257, 39.394811626377297 ], [ -86.422211449632044, 39.394806344440092 ], [ -86.423297365576502, 39.394705919037193 ], [ -86.423981613348246, 39.394851368818649 ], [ -86.42500946435274, 39.395162453928769 ], [ -86.425996290042093, 39.395699873451171 ], [ -86.426574014258733, 39.396094637942518 ], [ -86.427123831215567, 39.396641436765634 ], [ -86.427570076008053, 39.396924024866799 ], [ -86.428462413842794, 39.397172540111391 ], [ -86.43040509198066, 39.397887787712577 ], [ -86.431512712513793, 39.398946636743347 ], [ -86.432622790010015, 39.399332328436969 ], [ -86.433392041176148, 39.399802445150428 ], [ -86.434724172560664, 39.400225583012251 ], [ -86.436922368084424, 39.400361620316566 ], [ -86.438049963673635, 39.40034142333014 ], [ -86.438821123182493, 39.400701369001787 ], [ -86.440312496859789, 39.400942728119929 ], [ -86.440748795911333, 39.400907960904021 ], [ -86.441648602545783, 39.400656465796082 ], [ -86.442502195821774, 39.400204115584174 ], [ -86.444914356172745, 39.398043741603843 ], [ -86.446030449846489, 39.396811595932128 ], [ -86.449256748389573, 39.392511894502157 ], [ -86.451130695975266, 39.389610574772341 ], [ -86.451723729786679, 39.388475184066401 ], [ -86.452392680629004, 39.387690815833736 ], [ -86.454847382685742, 39.383869907413633 ], [ -86.455467040397281, 39.381826595442746 ], [ -86.455426288978401, 39.380173344820818 ], [ -86.454978798903468, 39.378201970876987 ], [ -86.454472413307514, 39.376870242579436 ], [ -86.453498753138859, 39.374748649255544 ], [ -86.453408245384438, 39.373580915528173 ], [ -86.453675970320518, 39.372681813961016 ], [ -86.453948522377345, 39.372391839526095 ], [ -86.454728683090764, 39.371877301513706 ], [ -86.457504015624778, 39.369159227272675 ], [ -86.459482766743349, 39.366387030621659 ], [ -86.460156316815414, 39.365675677198674 ], [ -86.461186026949036, 39.364383002365805 ], [ -86.461827782837972, 39.363853034196126 ], [ -86.463459011570919, 39.362837805166187 ], [ -86.464073535952721, 39.36259348455259 ], [ -86.465177592624443, 39.361831012747956 ], [ -86.466375976849292, 39.361301853039322 ], [ -86.467112619189479, 39.361165102778997 ], [ -86.468480641968227, 39.361035820602964 ], [ -86.469028262601711, 39.360910560140134 ], [ -86.470302885538914, 39.360895408868089 ], [ -86.471149669686071, 39.361144006527567 ], [ -86.47217534936091, 39.361189681650785 ], [ -86.473637087802459, 39.361535626174302 ], [ -86.474230096552049, 39.361775216711344 ], [ -86.475567720135558, 39.362660764382305 ], [ -86.476090067582305, 39.363227477430684 ], [ -86.476477935523093, 39.365529599703287 ], [ -86.476648977108908, 39.367611272780245 ], [ -86.476425095726228, 39.370237469963016 ], [ -86.476612947142954, 39.370907665555222 ], [ -86.477179227398139, 39.371597010847189 ], [ -86.477796303048052, 39.371413139257285 ], [ -86.478703951658659, 39.370920307933538 ], [ -86.479300601770305, 39.370262330271942 ], [ -86.479546397909118, 39.370322039104288 ], [ -86.479813573495079, 39.370311542335408 ], [ -86.482050034356988, 39.36970450348506 ], [ -86.483109948200493, 39.369544058929591 ], [ -86.483706957246952, 39.36951712433271 ], [ -86.484857738090838, 39.369578990879873 ], [ -86.485471355754399, 39.369661360318588 ], [ -86.485802092695664, 39.369651703892984 ], [ -86.486390822267381, 39.370506749579462 ], [ -86.487091921585233, 39.37122125190082 ], [ -86.487906571413504, 39.37263135378786 ], [ -86.490216668076869, 39.375286416842691 ], [ -86.490890840423546, 39.375883145872542 ], [ -86.492453602679845, 39.376842313953524 ], [ -86.493661722423752, 39.377698066766882 ], [ -86.494653027691029, 39.378180683968168 ], [ -86.495521837890436, 39.378378847129447 ], [ -86.497862888493486, 39.378743144941325 ], [ -86.499952700091356, 39.378875760364956 ], [ -86.501659899382304, 39.378769862090138 ], [ -86.506673392225423, 39.378887260406998 ], [ -86.508447869317067, 39.378858045902163 ], [ -86.51282770438651, 39.378539882176234 ], [ -86.514378484227137, 39.378260484489829 ], [ -86.515059576305831, 39.377992227898538 ], [ -86.515593412923792, 39.377615409705435 ], [ -86.516041578007105, 39.377046151467937 ], [ -86.51717493387747, 39.375995341417038 ], [ -86.518338315446115, 39.374491465854717 ], [ -86.518654053544182, 39.373956704231531 ], [ -86.518929301345949, 39.373042374523294 ], [ -86.519090728826086, 39.371018910227228 ], [ -86.519491701290875, 39.369897821885857 ], [ -86.52016036691299, 39.368548777147637 ], [ -86.521094181933279, 39.367427638559505 ], [ -86.522489031952134, 39.366325544914297 ], [ -86.523739741830397, 39.365627173871694 ], [ -86.525493299540258, 39.364874656072992 ], [ -86.527199477069146, 39.364284843132587 ], [ -86.529627856036058, 39.363626223450993 ], [ -86.531351195792851, 39.363346798898085 ], [ -86.532662405703519, 39.363366443068621 ], [ -86.534235899076336, 39.363236249453465 ], [ -86.537522750672196, 39.363123550943484 ], [ -86.538799017819713, 39.362985153234305 ], [ -86.539258164449919, 39.362969210891684 ], [ -86.54269771627439, 39.362386948002253 ], [ -86.543496981034878, 39.362318930902369 ], [ -86.545415022181459, 39.362781454220865 ], [ -86.546705331699627, 39.363354200737263 ], [ -86.549163130409752, 39.365142905656526 ], [ -86.550420234935373, 39.365871012941334 ], [ -86.553332245548205, 39.367393400454645 ], [ -86.554926826536331, 39.367988695705407 ], [ -86.556685825043402, 39.368287317979309 ], [ -86.557510432974524, 39.36821332902705 ], [ -86.559542088331852, 39.367569768547291 ], [ -86.560958954663477, 39.36688951562958 ], [ -86.562241731298002, 39.366340847420119 ], [ -86.56408470154669, 39.365134165934613 ], [ -86.565209497047007, 39.364090664366074 ], [ -86.566243970586342, 39.36262390663336 ], [ -86.567031520398302, 39.361743568301513 ], [ -86.570627242772488, 39.358842831452463 ], [ -86.572952372012466, 39.357186055450889 ], [ -86.574430207587724, 39.356317205808047 ], [ -86.575221564836013, 39.35604856856628 ], [ -86.580306361481021, 39.355274574403452 ], [ -86.581918029994583, 39.35522834530051 ], [ -86.582752691785316, 39.35535259216968 ], [ -86.584041200761334, 39.356000656521658 ], [ -86.588608324895588, 39.359919037886215 ], [ -86.590380967636463, 39.361275725767428 ], [ -86.593089360078565, 39.36278648220987 ], [ -86.593497269396195, 39.362885855510505 ], [ -86.594695606003228, 39.36291687367779 ], [ -86.595474825221459, 39.36268979813439 ], [ -86.596292064486747, 39.362035033205999 ], [ -86.597178086501373, 39.36082766831052 ], [ -86.599081763774578, 39.358929091699565 ], [ -86.599524433930029, 39.358376472271537 ], [ -86.600704198353171, 39.357293814966084 ], [ -86.601443856685449, 39.357107420848223 ], [ -86.602807159679614, 39.356969773790482 ], [ -86.603846259022006, 39.356665430383373 ], [ -86.605104779181829, 39.356437733562373 ], [ -86.60661766203232, 39.355854794931282 ], [ -86.608873335798236, 39.354705804596783 ], [ -86.610417031946909, 39.354114601998468 ], [ -86.611570266182639, 39.353712042214134 ], [ -86.614372336323186, 39.353023406097492 ], [ -86.617770773575003, 39.351907804709036 ], [ -86.618850102038621, 39.351389504468223 ], [ -86.621061725500354, 39.349535086758081 ], [ -86.623038195777525, 39.348445526046142 ], [ -86.624949316109891, 39.347658672335655 ], [ -86.627847721403768, 39.346687806774334 ], [ -86.629196412556752, 39.34643908681884 ], [ -86.630815350305269, 39.346154071094723 ], [ -86.630798833382116, 39.347863400686911 ], [ -86.630798667432231, 39.347894937892661 ], [ -86.63078414576546, 39.355202630302657 ], [ -86.630772850859941, 39.369335968955362 ], [ -86.630762449590705, 39.369795484053952 ], [ -86.630789112298757, 39.375247369627559 ], [ -86.630788845292074, 39.375247517556787 ], [ -86.630040366455731, 39.375312909205043 ], [ -86.628984053696684, 39.375751291199649 ], [ -86.626890472727425, 39.377069623254464 ], [ -86.623735827469929, 39.379097601269976 ], [ -86.622476138187238, 39.379778728654031 ], [ -86.621133801815702, 39.380318088563399 ], [ -86.61915608181657, 39.380846909314066 ], [ -86.617618504784659, 39.381335857321069 ], [ -86.616488128519563, 39.381636115866186 ], [ -86.615361081526842, 39.381786040370613 ], [ -86.61321511557297, 39.382353454311954 ], [ -86.611889256138056, 39.383037202889 ], [ -86.61062959748034, 39.383410834847076 ], [ -86.609875330360936, 39.383521689423546 ], [ -86.609086354767129, 39.383891011265426 ], [ -86.608489516898601, 39.384328145673038 ], [ -86.606468143792256, 39.387344344856096 ], [ -86.605070969550383, 39.38897902467432 ], [ -86.604259455087288, 39.38971234159149 ], [ -86.60332558898682, 39.390395721823261 ], [ -86.602815979794642, 39.390714715018461 ], [ -86.601706129422382, 39.391258345078519 ], [ -86.598464951126289, 39.392157059150186 ], [ -86.596476858943291, 39.392421134001125 ], [ -86.593592009166258, 39.392926336976366 ], [ -86.592278092353837, 39.392988328335598 ], [ -86.590563514484586, 39.392892075169357 ], [ -86.589455069430684, 39.392728407764878 ], [ -86.588747512010841, 39.392492829169043 ], [ -86.587752292424113, 39.392280117484781 ], [ -86.586648974040344, 39.391828396375864 ], [ -86.586035170320883, 39.391449748784538 ], [ -86.585462720499848, 39.39130608946013 ], [ -86.585077645682333, 39.391532411066983 ], [ -86.584760959325209, 39.391852717417812 ], [ -86.5844235518571, 39.392494034430094 ], [ -86.584211919175885, 39.393425446178433 ], [ -86.58429768349967, 39.39532392752789 ], [ -86.584059570775949, 39.396399100575167 ], [ -86.580719033858045, 39.40001830578754 ], [ -86.579545476054236, 39.401691959848506 ], [ -86.579196610785871, 39.402433884619761 ], [ -86.578165709813746, 39.4055817367503 ], [ -86.578028938423699, 39.407337137313846 ], [ -86.578144205301086, 39.412256438818837 ], [ -86.57782553710706, 39.413873444817668 ], [ -86.577670692924968, 39.414302668175267 ], [ -86.577392163045957, 39.414720439120337 ], [ -86.575914330327862, 39.415945423304933 ], [ -86.574849602485784, 39.416433305684045 ], [ -86.571420501379734, 39.417485981521416 ], [ -86.570725989300811, 39.417477147572328 ], [ -86.569612479441602, 39.417628887987263 ], [ -86.568524287242113, 39.417684384987297 ], [ -86.567260681110781, 39.417905817488567 ], [ -86.565708011740796, 39.418072883748557 ], [ -86.564048621855818, 39.418079719062831 ], [ -86.563021276187072, 39.417857880534051 ], [ -86.561620734023805, 39.418052695570474 ], [ -86.560109922727932, 39.417769386752866 ], [ -86.559291738805925, 39.417311441073402 ], [ -86.558819103811359, 39.416873628371249 ], [ -86.558422784469514, 39.416003799038734 ], [ -86.557963814694048, 39.414397525842503 ], [ -86.557162835170885, 39.413260455283925 ], [ -86.556521528836996, 39.412631703636457 ], [ -86.556021300407494, 39.411874739806855 ], [ -86.554205620729704, 39.409898022377057 ], [ -86.553375372569562, 39.409438688241295 ], [ -86.552097326605207, 39.408964013492088 ], [ -86.551285000302286, 39.408857556967789 ], [ -86.549593158097167, 39.409104732663245 ], [ -86.547119710737078, 39.40849043706033 ], [ -86.545796731708549, 39.408475303779355 ], [ -86.545131077424742, 39.408648436319694 ], [ -86.544039998987458, 39.409560178792191 ], [ -86.543632341607946, 39.410161520022122 ], [ -86.543461550101796, 39.41135590364015 ], [ -86.543758812356685, 39.412908246237059 ], [ -86.544485181519974, 39.414211766058244 ], [ -86.544702217244051, 39.414460981865844 ], [ -86.544643944544291, 39.414998630607393 ], [ -86.544463494902402, 39.415327339364843 ], [ -86.543574383457326, 39.415836061567923 ], [ -86.540985523690523, 39.416039088362901 ], [ -86.539545838872428, 39.416382818561807 ], [ -86.539313140943335, 39.416549632419787 ], [ -86.539178300811344, 39.416797963608964 ], [ -86.539083826704342, 39.41724464298116 ], [ -86.539126321408787, 39.417722191204284 ], [ -86.538980225919175, 39.418147430494642 ], [ -86.538808475762266, 39.418385438269453 ], [ -86.538431070933598, 39.418651802861383 ], [ -86.537980600996093, 39.41883273441583 ], [ -86.53700235225331, 39.419048799550971 ], [ -86.535801572272689, 39.419185064224585 ], [ -86.535183501048181, 39.419089185570314 ], [ -86.533927288064831, 39.419167637645621 ], [ -86.53309519284791, 39.419371872911277 ], [ -86.532333599983062, 39.419920391450212 ], [ -86.530645776341217, 39.42203819941605 ], [ -86.52938893159282, 39.422993849773938 ], [ -86.528763012786669, 39.423353498606957 ], [ -86.525884574033, 39.424527301695576 ], [ -86.523099467854607, 39.425200225297054 ], [ -86.521634010320369, 39.425416040065578 ], [ -86.520275979212855, 39.425499188733738 ], [ -86.519128037574063, 39.425444510228637 ], [ -86.517106030948327, 39.425100467095142 ], [ -86.513590679253667, 39.423738422802565 ], [ -86.512429146069451, 39.423409679139581 ], [ -86.511460184790934, 39.422749865618364 ], [ -86.510706958185963, 39.422023743054254 ], [ -86.510139230415831, 39.420788357696502 ], [ -86.509921214045363, 39.419919958023335 ], [ -86.509722030940779, 39.419626818922474 ], [ -86.509622434747556, 39.418479015445044 ], [ -86.509460781524425, 39.417930249781271 ], [ -86.509079863947335, 39.417075392531459 ], [ -86.508436341700175, 39.416070889481936 ], [ -86.508376061029352, 39.415454060486461 ], [ -86.508623563783729, 39.414635212852872 ], [ -86.509500529029779, 39.413264938217459 ], [ -86.509791419508929, 39.412045900327449 ], [ -86.510391220538693, 39.410628866934175 ], [ -86.510475157625194, 39.409717036264006 ], [ -86.510315843834334, 39.409132731088242 ], [ -86.510040146268437, 39.408694581316318 ], [ -86.509614545527612, 39.408231461306535 ], [ -86.509176734536865, 39.407953413105083 ], [ -86.508423923476428, 39.408123327589777 ], [ -86.507741991777763, 39.408422930176606 ], [ -86.506918605569268, 39.408606423471618 ], [ -86.505902830413433, 39.409430406770937 ], [ -86.505146874249959, 39.409871654209411 ], [ -86.502950290243106, 39.4108133366896 ], [ -86.500246774292634, 39.411659200010163 ], [ -86.497785826675511, 39.41202000508968 ], [ -86.494760883221645, 39.412195137912562 ], [ -86.492863002327439, 39.412544358576248 ], [ -86.491938378412527, 39.412829722782959 ], [ -86.490587572015727, 39.412974885455803 ], [ -86.488570193095342, 39.413523886849596 ], [ -86.486945610882984, 39.414107114534389 ], [ -86.486403566009159, 39.41439661173829 ], [ -86.486059942099615, 39.414737688740722 ], [ -86.484988132313774, 39.415537761249247 ], [ -86.484564125019702, 39.415976612735136 ], [ -86.48406216119831, 39.416951329245506 ], [ -86.483845511448195, 39.417852233042751 ], [ -86.483315046026249, 39.418646092276319 ], [ -86.483018121422234, 39.419354757100805 ], [ -86.481682749891391, 39.421413006721934 ], [ -86.480738771361956, 39.422443219005324 ], [ -86.478793086468741, 39.424082170321562 ], [ -86.477879786141315, 39.425097710681278 ], [ -86.476483490521318, 39.426862511745462 ], [ -86.476098996029791, 39.427165145951335 ], [ -86.475635860187822, 39.427381427929085 ], [ -86.474428806880297, 39.427547876084112 ], [ -86.473409104075216, 39.427371312933786 ], [ -86.472493721384481, 39.427055876447142 ], [ -86.472097185082816, 39.426993810918539 ], [ -86.471442655746998, 39.426891359625955 ], [ -86.466756247726892, 39.428608766811216 ], [ -86.465901474125062, 39.428779743070571 ], [ -86.464045477701546, 39.42922918256086 ], [ -86.461919646625432, 39.429639395358016 ], [ -86.459610549087941, 39.430269294131023 ], [ -86.458116111640564, 39.43104159745193 ], [ -86.455952262582571, 39.432408665636373 ], [ -86.454978840414057, 39.432872339424186 ], [ -86.454189077719022, 39.433522320514165 ], [ -86.451614881126673, 39.436102962257522 ], [ -86.450125965211257, 39.43788940975297 ], [ -86.448559381872656, 39.43950551415616 ], [ -86.447840879462007, 39.440840266841747 ], [ -86.446856404739833, 39.441991674055551 ], [ -86.44670670405516, 39.442725024975765 ], [ -86.446733924196835, 39.443363919543984 ], [ -86.446585233724662, 39.443598771433095 ], [ -86.446457616198487, 39.444478364173364 ], [ -86.445968164214719, 39.44610902732358 ], [ -86.445116372658518, 39.447442141542766 ], [ -86.444339752483103, 39.448993592214414 ], [ -86.443589473776981, 39.450232212421803 ], [ -86.442478558559358, 39.453379071154075 ], [ -86.442444583506457, 39.453706364128152 ], [ -86.442037787036568, 39.454544556921348 ], [ -86.441916721918716, 39.455448435244222 ], [ -86.441966918470044, 39.456123127853729 ], [ -86.441823364155795, 39.458164324848347 ], [ -86.44216387397779, 39.460234139345452 ], [ -86.441977351471891, 39.461721383372101 ], [ -86.44128278340601, 39.463111609506257 ], [ -86.440402400560501, 39.464396371450903 ], [ -86.43969842232238, 39.465232051667542 ], [ -86.439265327901467, 39.465970513460761 ], [ -86.438770462780482, 39.467583441106171 ], [ -86.438608086800585, 39.469148957057214 ], [ -86.43874914955552, 39.470133777747776 ], [ -86.438415566050139, 39.47310653080784 ], [ -86.438762343866202, 39.475215133602184 ], [ -86.439266875596203, 39.479700133710814 ], [ -86.439194055554651, 39.481036729576182 ], [ -86.438979561917563, 39.482369387930454 ], [ -86.438963482801, 39.4824692839289 ], [ -86.43887420384506, 39.482714851271204 ], [ -86.438532177805797, 39.483177175577246 ], [ -86.438052815860473, 39.483530550339154 ], [ -86.437827405661395, 39.483784586512051 ], [ -86.436832469165481, 39.484524048334791 ], [ -86.436062595325666, 39.484995952713476 ], [ -86.435196196227267, 39.485721497768573 ], [ -86.434148019599903, 39.486599239556526 ], [ -86.432713017763206, 39.487602711838768 ], [ -86.431730369438753, 39.488547062165679 ], [ -86.431199080502907, 39.489266848902325 ], [ -86.43089992000958, 39.489304828573552 ], [ -86.430580085108673, 39.489623839598003 ], [ -86.43021901551063, 39.490544809255702 ], [ -86.429796060268757, 39.491858464757371 ], [ -86.429345467729277, 39.493530417045569 ], [ -86.429326069730337, 39.494278006289754 ], [ -86.429570911867756, 39.49485158557566 ], [ -86.429690441314818, 39.49544083798429 ], [ -86.42960602677519, 39.495993001924425 ], [ -86.429467490952803, 39.496265827861542 ], [ -86.427638246835528, 39.498403485933679 ], [ -86.42697106915837, 39.499308050359716 ], [ -86.425567140779023, 39.500718876864134 ], [ -86.423354869880427, 39.50238844525181 ], [ -86.422398859846652, 39.503500527224801 ], [ -86.421609598669562, 39.504593482413291 ], [ -86.420803205025123, 39.505428053900658 ], [ -86.42014137306775, 39.506003517150212 ], [ -86.41876378205167, 39.506967420286848 ], [ -86.417074764012597, 39.50787985925453 ], [ -86.416129553944359, 39.508896168196713 ], [ -86.415442551191333, 39.509449037177653 ], [ -86.415338965217188, 39.509643761595562 ], [ -86.415136969514904, 39.510685778359303 ], [ -86.415118167918905, 39.510782768026836 ], [ -86.415128341497677, 39.512006824413071 ], [ -86.415054988608503, 39.512258571071172 ], [ -86.414660729802392, 39.512768228276265 ], [ -86.414336296185013, 39.513060076164969 ], [ -86.413429566489455, 39.513597080856449 ], [ -86.412734220697786, 39.513913742972093 ], [ -86.410414939653933, 39.514611807072548 ], [ -86.409708238731568, 39.514931848900666 ], [ -86.408903106579785, 39.515149767736936 ], [ -86.408093403829042, 39.515550625103494 ], [ -86.406865137916697, 39.515822206144485 ], [ -86.405636668983618, 39.516386494235469 ], [ -86.405222966643649, 39.516816904882049 ], [ -86.405089677975056, 39.517169960068273 ], [ -86.405148879403015, 39.518099873119688 ], [ -86.406102446970195, 39.520394530360598 ], [ -86.406879045304464, 39.521659658118971 ], [ -86.4068854214173, 39.522244711521537 ], [ -86.406688988539031, 39.523238839789236 ], [ -86.406733208359213, 39.52493042625067 ], [ -86.406638901260067, 39.525404825328913 ], [ -86.406405604269281, 39.525741192701346 ], [ -86.405812626299223, 39.52627493361603 ], [ -86.405138545855479, 39.527121641554729 ], [ -86.4043954907808, 39.527521032529016 ], [ -86.403365850614591, 39.527710334720972 ], [ -86.401616664051218, 39.52769565449627 ], [ -86.399680191881856, 39.527519085016792 ], [ -86.397632955411112, 39.527144337385721 ], [ -86.395485403532106, 39.527070562067934 ], [ -86.394456231592727, 39.52715026401237 ], [ -86.394075631356813, 39.527118067841222 ], [ -86.392448473901055, 39.526510091239821 ], [ -86.391502726274865, 39.525878803340284 ], [ -86.390699955812195, 39.52548894510084 ], [ -86.388939981668898, 39.524940306596321 ], [ -86.387478424132325, 39.524679322885696 ], [ -86.386122137867972, 39.524647065368846 ], [ -86.384063472836189, 39.524419513243096 ], [ -86.38258784065664, 39.524126663235641 ], [ -86.381132400482599, 39.523732564256989 ], [ -86.379116983076642, 39.523794629721088 ], [ -86.378473303644569, 39.523882170236256 ], [ -86.37772554228647, 39.524184867256018 ], [ -86.375815204149916, 39.525281211069107 ], [ -86.374934862076344, 39.526268613754603 ], [ -86.374234933280974, 39.527440428846909 ], [ -86.373420053492254, 39.529836419665827 ], [ -86.372356621479796, 39.533421790617879 ], [ -86.372262545993564, 39.534381636220132 ], [ -86.37238190729957, 39.538546422484444 ], [ -86.373183666897376, 39.544831870060655 ], [ -86.372777527122878, 39.546037388135119 ], [ -86.372434507076306, 39.546665155776893 ], [ -86.372087420401471, 39.547024829108068 ], [ -86.371637854355725, 39.547173512100983 ], [ -86.370877481582923, 39.547622561777843 ], [ -86.369615227337945, 39.54885537007204 ], [ -86.369336096683369, 39.549447810596703 ], [ -86.369562247721703, 39.550318319393611 ], [ -86.370390333300719, 39.552098826027922 ], [ -86.370989473487668, 39.552984260860924 ], [ -86.372549380972487, 39.554613532882129 ], [ -86.374682298660332, 39.556044660677436 ], [ -86.376292397637528, 39.556877697513201 ], [ -86.376608019119885, 39.556321152083001 ], [ -86.37688675005667, 39.555580749111677 ], [ -86.377598182047109, 39.556302211050784 ], [ -86.379333161035689, 39.55773894000049 ], [ -86.381214881783322, 39.558871339691443 ], [ -86.381893433341403, 39.559198671263687 ], [ -86.384185983963391, 39.560807645393652 ], [ -86.38572095328793, 39.562323445176979 ], [ -86.386310749271857, 39.563053130643169 ], [ -86.386699478038111, 39.563676555018517 ], [ -86.386968794334436, 39.564263891454083 ], [ -86.387181426873624, 39.565086930959119 ], [ -86.386840715305794, 39.567050330197588 ], [ -86.386464728102339, 39.570490168867472 ], [ -86.386117519683339, 39.571808776469339 ], [ -86.38610125890844, 39.572383855869461 ], [ -86.386220109818254, 39.572632872533177 ], [ -86.386535238457697, 39.572840624394345 ], [ -86.387604026544494, 39.573181945606009 ], [ -86.389228060228021, 39.573094004112278 ], [ -86.389968399054013, 39.573115569373492 ], [ -86.391787166969152, 39.573396841904824 ], [ -86.393676248561377, 39.574002198188992 ], [ -86.394998493600298, 39.57457373070347 ], [ -86.39590879263578, 39.575246241933598 ], [ -86.397150028837814, 39.576452137158576 ], [ -86.397828348461985, 39.577313421247027 ], [ -86.398543559505995, 39.578027416884751 ], [ -86.399983361919809, 39.580100413147314 ], [ -86.400267704139409, 39.58074464150291 ], [ -86.400324694314193, 39.581334200642594 ], [ -86.399728608570868, 39.584019815812447 ], [ -86.399159564504444, 39.585014358168891 ], [ -86.398104545614217, 39.586211486635634 ], [ -86.397955278115617, 39.586304248925124 ], [ -86.397653461882527, 39.586328876972281 ], [ -86.396582648737464, 39.586096249523628 ], [ -86.394082488040837, 39.586336740239084 ], [ -86.392500891626355, 39.586256934679149 ], [ -86.391770982836348, 39.586284061506362 ], [ -86.390604477084722, 39.586667405886182 ], [ -86.388364634905685, 39.587808845940579 ], [ -86.387551136612529, 39.588407954220848 ], [ -86.386957039420182, 39.58908856600717 ], [ -86.386582014660917, 39.589645721020105 ], [ -86.386459397021738, 39.590018705554002 ], [ -86.386455146508979, 39.591241245999875 ], [ -86.386308036419337, 39.592412352194827 ], [ -86.386499618051602, 39.592999032334014 ], [ -86.386885321883952, 39.595001858639989 ], [ -86.38698951771552, 39.595219019576412 ], [ -86.387189702851842, 39.595369960674219 ], [ -86.389101242837683, 39.596358152569401 ], [ -86.390775147916983, 39.596877536327689 ], [ -86.391708346243831, 39.597328069538108 ], [ -86.392619590514542, 39.597667123577729 ], [ -86.394249428918741, 39.598090083078446 ], [ -86.395130036006947, 39.598137491447041 ], [ -86.395997030778304, 39.598306979078821 ], [ -86.397967357545951, 39.599070110212587 ], [ -86.3989916055164, 39.599555367119791 ], [ -86.400091857820669, 39.60017678413714 ], [ -86.401501031774245, 39.60107740964542 ], [ -86.402000998694092, 39.601564980335219 ], [ -86.402116645835903, 39.601781646819092 ], [ -86.402166072066279, 39.602254063151378 ], [ -86.402096345381025, 39.602417003958649 ], [ -86.401870632688599, 39.602546498287367 ], [ -86.401314738027466, 39.602671563858102 ], [ -86.398575726188824, 39.602843812870113 ], [ -86.397659488838912, 39.603111606336924 ], [ -86.397376234428719, 39.603318105770846 ], [ -86.397438683461687, 39.603953252162114 ], [ -86.397856414268531, 39.604620175287948 ], [ -86.398266420324603, 39.604997426299164 ], [ -86.39848760773225, 39.60532547069247 ], [ -86.39921555371582, 39.606787547945494 ], [ -86.399266552839904, 39.607332410774596 ], [ -86.398109569966536, 39.607622879398313 ], [ -86.397336534768101, 39.608008598129274 ], [ -86.396932555055812, 39.608370615181954 ], [ -86.395388746298494, 39.611155500119047 ], [ -86.39378739682752, 39.612700326058814 ], [ -86.39314928065825, 39.613515469590645 ], [ -86.393024556612858, 39.614123722084628 ], [ -86.393469103821744, 39.615122516233569 ], [ -86.394068547549637, 39.615851519024574 ], [ -86.394519244200467, 39.616146953332596 ], [ -86.396350235812235, 39.616555785870247 ], [ -86.39734218364174, 39.61657652361523 ], [ -86.399118480134234, 39.616317612903153 ], [ -86.399824613682398, 39.616299033658663 ], [ -86.400603442425663, 39.616186677403888 ], [ -86.402519718404108, 39.616400687703276 ], [ -86.403924926743301, 39.616742292058483 ], [ -86.404698602533827, 39.617236581964391 ], [ -86.40543931147721, 39.618099791671597 ], [ -86.405636416460325, 39.618992011356688 ], [ -86.405566189136735, 39.619531626062496 ], [ -86.405624086561986, 39.620167164001032 ], [ -86.40577822950516, 39.620504692777082 ], [ -86.406004476700971, 39.620656957979783 ], [ -86.407005591524495, 39.621503446269699 ], [ -86.40797206573599, 39.622012823567658 ], [ -86.408754108009617, 39.622314193101765 ], [ -86.41131664131656, 39.622964452025251 ], [ -86.41267273621466, 39.623397852749555 ], [ -86.416637162969153, 39.625053188521861 ], [ -86.41772480225552, 39.625601508440482 ], [ -86.418942377572549, 39.626505627048964 ], [ -86.419703292622216, 39.62745494853786 ], [ -86.419775862809473, 39.627971145042395 ], [ -86.419395644735189, 39.628940091941523 ], [ -86.418784772911835, 39.62922109298988 ], [ -86.416767315368034, 39.629445845641847 ], [ -86.413672712493138, 39.629190172953898 ], [ -86.408737400623963, 39.628362430471796 ], [ -86.407438004741564, 39.628070283391807 ], [ -86.405470264858266, 39.627492402683927 ], [ -86.403799965167948, 39.62728177574381 ], [ -86.402410152309258, 39.627308071794815 ], [ -86.401539905523947, 39.627424848710753 ], [ -86.399579575522893, 39.627944518373099 ], [ -86.399749389818169, 39.628797512440954 ], [ -86.399815249078458, 39.629535964645257 ], [ -86.39998419327766, 39.630132442540656 ], [ -86.400231012792617, 39.630676686855594 ], [ -86.40023109479327, 39.630677242330073 ], [ -86.398824095371651, 39.630695655891962 ], [ -86.385212385782026, 39.630685373726735 ], [ -86.385212635516964, 39.63068479015292 ], [ -86.385204349990559, 39.630663138749469 ], [ -86.384913833621525, 39.629943701320904 ], [ -86.384581095387318, 39.628093229952199 ], [ -86.384534378236467, 39.626540421093601 ], [ -86.384228404102089, 39.625799408269529 ], [ -86.383794214102309, 39.623965162881845 ], [ -86.383499618840986, 39.621840861642383 ], [ -86.383607637591354, 39.619862210916253 ], [ -86.385419436223074, 39.616078959207186 ], [ -86.385520837795923, 39.615570411647596 ], [ -86.385457230103583, 39.615180874218119 ], [ -86.384816698069557, 39.614270816901829 ], [ -86.384029031425513, 39.613881897932885 ], [ -86.383155724568155, 39.613583424825428 ], [ -86.381414099175515, 39.613149346769305 ], [ -86.379752370032392, 39.612954028732446 ], [ -86.377676053538963, 39.612526415775172 ], [ -86.376025022204217, 39.61250040991029 ], [ -86.375432216886026, 39.612158978587601 ], [ -86.374959545553082, 39.612226048408111 ], [ -86.371522474730355, 39.611978808460925 ], [ -86.370112256394449, 39.612222097405052 ], [ -86.369572677303765, 39.612440575496755 ], [ -86.369469545700753, 39.612630685550165 ], [ -86.369297545279252, 39.612742625799662 ], [ -86.368852347815249, 39.613416954759586 ], [ -86.368596731265981, 39.614341795005267 ], [ -86.368577974275979, 39.614850041556181 ], [ -86.368092574727712, 39.61577557035428 ], [ -86.368017348550651, 39.616238799522947 ], [ -86.367636420962029, 39.61699777686772 ], [ -86.366220481010288, 39.6177807585211 ], [ -86.365567179666627, 39.617854300054802 ], [ -86.364159805933056, 39.618181510305028 ], [ -86.362902010697482, 39.618611738386988 ], [ -86.360038097848502, 39.62010432887817 ], [ -86.358314486538603, 39.621116176008179 ], [ -86.356842659082687, 39.621782069340263 ], [ -86.355882120096325, 39.622277185947958 ], [ -86.355254096608022, 39.62269106025407 ], [ -86.354970819041256, 39.622785230987162 ], [ -86.354984718049451, 39.622349335708741 ], [ -86.355367519960879, 39.621732460310163 ], [ -86.355650631579451, 39.621075999021905 ], [ -86.355720187798795, 39.620697732942638 ], [ -86.355909766904801, 39.620295555836371 ], [ -86.356067732989473, 39.619644612934373 ], [ -86.356501532080244, 39.618440630843295 ], [ -86.356970164214246, 39.617603994614896 ], [ -86.35849728696617, 39.615686222166914 ], [ -86.360102940581868, 39.61329352667348 ], [ -86.360770488613412, 39.612208672615537 ], [ -86.361673589049374, 39.610472443082749 ], [ -86.362077202896302, 39.609427794096796 ], [ -86.362137652003412, 39.609017828202646 ], [ -86.36207998122606, 39.608153014976381 ], [ -86.361808445478673, 39.606551171296445 ], [ -86.361690651500595, 39.604529040129172 ], [ -86.361446163491053, 39.603417303464333 ], [ -86.361188808759096, 39.60282635287053 ], [ -86.361056032803077, 39.602159599147491 ], [ -86.360843324827812, 39.601560711830281 ], [ -86.360778099407327, 39.600827047393764 ], [ -86.360927383747253, 39.599209000712541 ], [ -86.361382345176921, 39.597127195691371 ], [ -86.361382872314365, 39.596004838267397 ], [ -86.361607123515043, 39.595730323078065 ], [ -86.362099020389905, 39.595370450928307 ], [ -86.362785655078923, 39.594735664754324 ], [ -86.364997738096164, 39.593748546623146 ], [ -86.365387630450087, 39.593555856285235 ], [ -86.3656560519116, 39.593345540486204 ], [ -86.367011783543845, 39.59269491667947 ], [ -86.367467196287933, 39.592359242534862 ], [ -86.367822523201056, 39.59178658189942 ], [ -86.368037465852041, 39.591641437717399 ], [ -86.367922045162331, 39.591310968573829 ], [ -86.367181808134603, 39.590166391328545 ], [ -86.366287717239786, 39.590168466413928 ], [ -86.363364038628163, 39.590758617712744 ], [ -86.362861977620284, 39.590738302881249 ], [ -86.362035259823713, 39.590504551967314 ], [ -86.361208082168702, 39.590064440663717 ], [ -86.360556485280696, 39.589563224851425 ], [ -86.359475282104526, 39.58846833916801 ], [ -86.357257535310836, 39.587114080652476 ], [ -86.355935283949904, 39.585897134718834 ], [ -86.355273387612627, 39.585056971152007 ], [ -86.355397516457842, 39.584426205188628 ], [ -86.356097237018943, 39.583309368341858 ], [ -86.356221971523837, 39.582282260289759 ], [ -86.356194699023206, 39.58115196491115 ], [ -86.355361054593473, 39.578167125247383 ], [ -86.355338611316071, 39.57640247816601 ], [ -86.355097996317411, 39.575061869165452 ], [ -86.354538100029103, 39.573691713792769 ], [ -86.354276877724132, 39.57281950784536 ], [ -86.3540227148372, 39.572429021669301 ], [ -86.352640221930471, 39.571364945799253 ], [ -86.351796962110043, 39.570832906687727 ], [ -86.350244080612754, 39.569278659253605 ], [ -86.349972205821132, 39.568187258739457 ], [ -86.348687128157366, 39.564764018158151 ], [ -86.34822396123819, 39.56402667535481 ], [ -86.347351195505681, 39.562241199028136 ], [ -86.34691736595326, 39.559087546268621 ], [ -86.346883678486122, 39.557926613866243 ], [ -86.346257273060331, 39.554188888712034 ], [ -86.346023515862257, 39.553734017853856 ], [ -86.344722593477513, 39.552102507897921 ], [ -86.344094594543876, 39.550561405780869 ], [ -86.343857288369335, 39.549687732594641 ], [ -86.343833351578724, 39.54866469903633 ], [ -86.343357006117643, 39.545920569254328 ], [ -86.343250596411863, 39.544567824517571 ], [ -86.34299943749464, 39.543668589986446 ], [ -86.340970462561302, 39.539255282923456 ], [ -86.340697815062967, 39.538333623742865 ], [ -86.34021405417252, 39.537685099248463 ], [ -86.339869202845804, 39.536474357951342 ], [ -86.339303369197779, 39.535618580758616 ], [ -86.338715450287154, 39.534474146359315 ], [ -86.337331874014794, 39.532554464351279 ], [ -86.336408905867998, 39.531014824228713 ], [ -86.335317304557464, 39.529915501205402 ], [ -86.335002654764509, 39.529381803942364 ], [ -86.334563371857243, 39.527122182377738 ], [ -86.334700856715827, 39.526707326635304 ], [ -86.33509904497366, 39.526248910057362 ], [ -86.335429281196014, 39.525482558875822 ], [ -86.335536501752827, 39.524742805837768 ], [ -86.336041840043109, 39.523852851838036 ], [ -86.336365082780532, 39.52278739522032 ], [ -86.336403891635882, 39.521384143957746 ], [ -86.336273972469897, 39.520609784541264 ], [ -86.335787948772889, 39.519730930409672 ], [ -86.335424605795239, 39.51939320792642 ], [ -86.333538929758092, 39.518784821665314 ], [ -86.332617197355802, 39.518572382022725 ], [ -86.331731184655609, 39.518671220269248 ], [ -86.329741868547458, 39.519095230098287 ], [ -86.325920230709869, 39.52022444254267 ], [ -86.32425161948602, 39.520521538444967 ], [ -86.32189185622326, 39.521224572272736 ], [ -86.319824735376798, 39.521979939851576 ], [ -86.317980012667093, 39.522843724720211 ], [ -86.316696254252378, 39.52355180524107 ], [ -86.314641021630578, 39.525161988134464 ], [ -86.311685609262753, 39.527294971576254 ], [ -86.310063129962018, 39.52867331061362 ], [ -86.308413012069423, 39.530283749490337 ], [ -86.307322456820401, 39.532236182302746 ], [ -86.306970016219438, 39.534019195626954 ], [ -86.306490638925069, 39.535025663608835 ], [ -86.30605476375014, 39.536624511038575 ], [ -86.305649673869652, 39.537622773930472 ], [ -86.305021179601425, 39.538846712933584 ], [ -86.304435252629219, 39.53961893628594 ], [ -86.304381940254672, 39.539896038207914 ], [ -86.303941279291152, 39.540398100118189 ], [ -86.303093212256698, 39.542151399488461 ], [ -86.302987103336079, 39.542405188647386 ], [ -86.303009334168479, 39.543217620064659 ], [ -86.303293026284351, 39.543833393138172 ], [ -86.303745883348839, 39.544495342598481 ], [ -86.304180194729483, 39.545863272504057 ], [ -86.304335352193618, 39.546927942649759 ], [ -86.304022658491206, 39.547899486365871 ], [ -86.303260988399373, 39.549249997324473 ], [ -86.302817227515305, 39.549846808340313 ], [ -86.302175000180839, 39.551004860932153 ], [ -86.302054038856753, 39.551380715070728 ], [ -86.301535039050108, 39.552192555716225 ], [ -86.301083231359442, 39.552633743695445 ], [ -86.30045421244067, 39.553443995858707 ], [ -86.299541569562066, 39.555498715188207 ], [ -86.297642030889307, 39.557604120045653 ], [ -86.297317399157379, 39.558654391340539 ], [ -86.2972327772016, 39.559326473318201 ], [ -86.297361633855317, 39.560154863827897 ], [ -86.297103420543934, 39.563081478017018 ], [ -86.29692326816884, 39.56336106889713 ], [ -86.29626836518166, 39.563953576855745 ], [ -86.295840410742898, 39.564196190524349 ], [ -86.295401724746, 39.564332626232172 ], [ -86.294419400070666, 39.564607515349586 ], [ -86.293910305386305, 39.56489635506253 ], [ -86.29324946862009, 39.565465303487066 ], [ -86.292633398861383, 39.56624899837103 ], [ -86.28979763854548, 39.568789236981956 ], [ -86.288804365395222, 39.570158943371638 ], [ -86.288351352847272, 39.570950645924313 ], [ -86.288103474553822, 39.57205236153272 ], [ -86.288084685802659, 39.572428887505033 ], [ -86.288294714413354, 39.573604846910733 ], [ -86.288507652370868, 39.574120720215028 ], [ -86.289000506307517, 39.574727737234625 ], [ -86.29037385892542, 39.576096144249711 ], [ -86.291546901526175, 39.577659075851557 ], [ -86.292486254607894, 39.579287559114583 ], [ -86.29286167599895, 39.580149488045116 ], [ -86.292901201243239, 39.580790126648886 ], [ -86.292512860156933, 39.582004425164847 ], [ -86.292173269468037, 39.582674183840261 ], [ -86.291705213843969, 39.583211577121524 ], [ -86.28886039623174, 39.585777691473353 ], [ -86.28570775451999, 39.588051833084073 ], [ -86.283431103556921, 39.589904410069963 ], [ -86.2830262666143, 39.590114791168581 ], [ -86.280195593367608, 39.592312364440758 ], [ -86.279331465545866, 39.593322997929008 ], [ -86.279064086636296, 39.593727734418195 ], [ -86.278830970175363, 39.59441079301363 ], [ -86.277660578468371, 39.59594387188114 ], [ -86.276551628858016, 39.59679898010684 ], [ -86.276082310387963, 39.597285786263711 ], [ -86.275022567682299, 39.598026066160415 ], [ -86.27458085155763, 39.598480893207039 ], [ -86.27307526481566, 39.59968988262991 ], [ -86.27222055768982, 39.6004835237853 ], [ -86.270868036775383, 39.601947709270398 ], [ -86.268643742883896, 39.603938518776616 ], [ -86.26788538437809, 39.604886435468018 ], [ -86.26769207369729, 39.605757574289314 ], [ -86.267470773917324, 39.606834761569694 ], [ -86.267056733458645, 39.607986678233196 ], [ -86.265866814519256, 39.609858195390672 ], [ -86.264120224627945, 39.612981763584571 ], [ -86.261441922212811, 39.61705862956979 ], [ -86.259875605966172, 39.619108798646728 ], [ -86.257306053979121, 39.621635296279251 ], [ -86.256169266668437, 39.623054936331023 ], [ -86.255493195300048, 39.62415395057991 ], [ -86.254433612735497, 39.626266643400221 ], [ -86.253444369824763, 39.627775354702926 ], [ -86.251722127150146, 39.629646580484376 ], [ -86.250903501558994, 39.630128676036442 ], [ -86.249801745887424, 39.630650186439439 ], [ -86.249801731356115, 39.630650140352891 ], [ -86.249688930380273, 39.61902033301763 ], [ -86.249789685591395, 39.612722815390669 ], [ -86.24986880516083, 39.604312242605282 ], [ -86.250695997841675, 39.604227477666086 ], [ -86.250623121044526, 39.590657520512366 ], [ -86.250646800745969, 39.590013437173681 ], [ -86.250593211831415, 39.576204798355711 ], [ -86.25058559597943, 39.57529020208888 ], [ -86.250563802043189, 39.566167805597445 ], [ -86.250564033908759, 39.566167778114234 ], [ -86.251895663062825, 39.565857090373264 ], [ -86.253613111968434, 39.565296253108457 ], [ -86.258546118275021, 39.563189764481912 ], [ -86.258964006891475, 39.563011302234315 ], [ -86.259247584512082, 39.562890198258046 ], [ -86.259853185906309, 39.56263156484551 ], [ -86.262123136305405, 39.561771036701046 ], [ -86.263089015789589, 39.561263635146126 ], [ -86.263675354171454, 39.560803064735673 ], [ -86.263962657761866, 39.560117299820476 ], [ -86.264414705661622, 39.559638915691728 ], [ -86.26464019319468, 39.559226316318352 ], [ -86.264837467594859, 39.559083401532114 ], [ -86.266716388938292, 39.558103381112112 ], [ -86.267544742228097, 39.557782032625539 ] ], [ [ -86.357040295287021, 39.550140797098159 ], [ -86.357768384704983, 39.550195381715191 ], [ -86.358567048896347, 39.550166988009401 ], [ -86.359226181351687, 39.55016423631357 ], [ -86.359987583107582, 39.550072308647877 ], [ -86.362190363196774, 39.549463635494611 ], [ -86.362799923987879, 39.549148741593008 ], [ -86.36299431687614, 39.548917318158814 ], [ -86.363451184951018, 39.548022452996697 ], [ -86.363809878542725, 39.546990866231752 ], [ -86.364424771370565, 39.546029400849825 ], [ -86.36474907739192, 39.545095435181345 ], [ -86.365086804950437, 39.543223424983864 ], [ -86.36538775265295, 39.542530827330765 ], [ -86.365136171571862, 39.541448058280707 ], [ -86.364959779655607, 39.541219964759279 ], [ -86.364022393697624, 39.540536857467778 ], [ -86.362823496331629, 39.539843043908405 ], [ -86.36187517280392, 39.539016549557523 ], [ -86.36041601708952, 39.536404734178255 ], [ -86.360374672949547, 39.535332748106697 ], [ -86.360443555279005, 39.534776825651498 ], [ -86.360733998092172, 39.533850665406824 ], [ -86.360758141774113, 39.533544058213138 ], [ -86.36095934659204, 39.533056104962917 ], [ -86.361848969836231, 39.532100509170249 ], [ -86.36261962094234, 39.531063413412888 ], [ -86.363227715230636, 39.530492041332423 ], [ -86.36453704523224, 39.528419679642575 ], [ -86.365483447973148, 39.526499766959816 ], [ -86.365929519307088, 39.525143147120836 ], [ -86.366197463227806, 39.523157663526561 ], [ -86.366141571518725, 39.522015799078702 ], [ -86.366247240567446, 39.521653473371366 ], [ -86.366773981856241, 39.521127485826682 ], [ -86.367688576207868, 39.519974431122058 ], [ -86.368718293663903, 39.519413767814889 ], [ -86.369633241242283, 39.519062270452416 ], [ -86.369897938360793, 39.518803678384288 ], [ -86.370140015449223, 39.518161359534361 ], [ -86.370192835126062, 39.517692915855243 ], [ -86.369933002960579, 39.515933988914753 ], [ -86.369754732889007, 39.515403178274589 ], [ -86.369188579589078, 39.514248596014212 ], [ -86.368381195680954, 39.513013226429038 ], [ -86.367640034539477, 39.512418595258133 ], [ -86.365823502584902, 39.511520511595016 ], [ -86.364392099039847, 39.511020604589987 ], [ -86.363449336312414, 39.510603228794764 ], [ -86.36164391453876, 39.510153570412179 ], [ -86.357023389673572, 39.508703093097466 ], [ -86.355931770623584, 39.50825352166536 ], [ -86.353903437906354, 39.50766329194682 ], [ -86.350658384683442, 39.506965685285167 ], [ -86.349525192118165, 39.506873696238614 ], [ -86.346736186220497, 39.507171012127628 ], [ -86.346074753090335, 39.507398519976384 ], [ -86.34529431299687, 39.50785438258923 ], [ -86.344775132577283, 39.508312925445317 ], [ -86.343866380939474, 39.509313974164144 ], [ -86.343234919514472, 39.510163709235954 ], [ -86.342414729074818, 39.512245427154859 ], [ -86.342331143495372, 39.512983851564591 ], [ -86.342544872039895, 39.513995090924432 ], [ -86.343005724535814, 39.514874739651049 ], [ -86.343683050372945, 39.515771311276502 ], [ -86.344918611382383, 39.517007891151962 ], [ -86.345292317185198, 39.51762000867275 ], [ -86.345874868738449, 39.518292121331271 ], [ -86.346464175947489, 39.519141082648062 ], [ -86.346779782460359, 39.519733076263442 ], [ -86.346891985669103, 39.520320094258572 ], [ -86.34702308511298, 39.523268841398611 ], [ -86.346991259880085, 39.524460040833716 ], [ -86.346722952866585, 39.526393789705004 ], [ -86.346694490072494, 39.527425056022729 ], [ -86.346963593842233, 39.528349935801295 ], [ -86.347168062201717, 39.528774025518494 ], [ -86.348215319449423, 39.530548885387226 ], [ -86.348653384239356, 39.531473634082772 ], [ -86.349875578726468, 39.533609904070715 ], [ -86.350216411663439, 39.534378219729675 ], [ -86.350314773081521, 39.535265435927741 ], [ -86.351067330678049, 39.536859000269978 ], [ -86.351168976075755, 39.537582223519934 ], [ -86.351121966543076, 39.538505300307101 ], [ -86.351231117845884, 39.539275445469151 ], [ -86.351409473863598, 39.539709754121397 ], [ -86.351368302197073, 39.54004021177925 ], [ -86.351550161050639, 39.540734923374004 ], [ -86.351809007581835, 39.543330138527459 ], [ -86.351989005762192, 39.544165938902431 ], [ -86.351985128922706, 39.546049820007646 ], [ -86.352210450427464, 39.546941772871094 ], [ -86.352657986353947, 39.547706945115436 ], [ -86.353413003120451, 39.548468840168951 ], [ -86.354963852384969, 39.549496046598939 ], [ -86.355480233727846, 39.549757073508232 ], [ -86.356084100597187, 39.54995844115949 ], [ -86.357040295287021, 39.550140797098159 ] ], [ [ -86.376064422076425, 39.562870462981721 ], [ -86.374362593390444, 39.563598656732012 ], [ -86.371833691928074, 39.564399959720397 ], [ -86.370775639873045, 39.564587255337521 ], [ -86.369660920602911, 39.564562313500154 ], [ -86.368747958724569, 39.564376782049095 ], [ -86.36851448410647, 39.564279262992926 ], [ -86.368177458320801, 39.5640142029374 ], [ -86.367117235420849, 39.563479151875569 ], [ -86.366728634682488, 39.563391972536351 ], [ -86.365891281378083, 39.563355042337655 ], [ -86.365751196087871, 39.56393800707361 ], [ -86.365851621910977, 39.564306224412313 ], [ -86.366353310155787, 39.564901266031654 ], [ -86.366999741598022, 39.565290934751324 ], [ -86.366930123190244, 39.565805821906231 ], [ -86.366684475954614, 39.566472320669725 ], [ -86.365904827100792, 39.567626608496596 ], [ -86.36471592373519, 39.569825225651932 ], [ -86.363421820586694, 39.571076617343699 ], [ -86.361696013298257, 39.572953525293784 ], [ -86.36157318673537, 39.573685741606596 ], [ -86.36167110728725, 39.574117713576236 ], [ -86.362499298556202, 39.574754879005617 ], [ -86.364551922233957, 39.575302016953337 ], [ -86.365885818050586, 39.575524959096711 ], [ -86.369186041771869, 39.576683671891338 ], [ -86.370246936321934, 39.5768670165778 ], [ -86.37191115996086, 39.576887390132462 ], [ -86.372787772898263, 39.577016748963892 ], [ -86.371647172591025, 39.578760769635139 ], [ -86.371127797230997, 39.580254453780491 ], [ -86.371020804637297, 39.581537339917311 ], [ -86.371081559008402, 39.583344881841334 ], [ -86.371296531159331, 39.58388788963908 ], [ -86.371703847996613, 39.584294881677934 ], [ -86.372921348742153, 39.584674776854555 ], [ -86.375550735709041, 39.585916465839077 ], [ -86.377678528525919, 39.586177806419052 ], [ -86.378684204483449, 39.587235208169353 ], [ -86.378566475656157, 39.587520245282619 ], [ -86.37843318774739, 39.587644456294207 ], [ -86.377816150294478, 39.58868718546961 ], [ -86.376393533902899, 39.589894508265566 ], [ -86.37597181728988, 39.590341873678724 ], [ -86.375927260646591, 39.590792293692616 ], [ -86.376132921382307, 39.591265718227014 ], [ -86.376895686535164, 39.59166808787441 ], [ -86.37746451544028, 39.591639215953045 ], [ -86.378419393372255, 39.591315817338781 ], [ -86.380180659735544, 39.590372661685741 ], [ -86.380615085683417, 39.590068971718559 ], [ -86.381062134820169, 39.589548586443932 ], [ -86.382751629433599, 39.586974568972643 ], [ -86.382931097601372, 39.586433925519913 ], [ -86.382937320219668, 39.585874574532419 ], [ -86.384333806464255, 39.585616877727446 ], [ -86.385214067033459, 39.585681282352645 ], [ -86.386069668976461, 39.585828664200896 ], [ -86.387371551028082, 39.585830572403722 ], [ -86.387182247877249, 39.584507191671257 ], [ -86.386811945782398, 39.583325319874021 ], [ -86.386599100034942, 39.583027611696558 ], [ -86.38653008625387, 39.582661445905174 ], [ -86.386036805778318, 39.581588283406504 ], [ -86.38561578407824, 39.580844351731727 ], [ -86.385217719813156, 39.580316228966382 ], [ -86.384781892540246, 39.579454465746181 ], [ -86.384110346854527, 39.577591323287038 ], [ -86.383737792344974, 39.57694756259253 ], [ -86.382882161610581, 39.571809027873783 ], [ -86.382645498066125, 39.569916523624485 ], [ -86.382178032631273, 39.567925675900213 ], [ -86.381314660726233, 39.565163344936984 ], [ -86.380225585183226, 39.563066916445919 ], [ -86.37970239430193, 39.562375900361147 ], [ -86.378863888738152, 39.561967340428964 ], [ -86.37758795293972, 39.562186317863286 ], [ -86.376971424746841, 39.562385902045527 ], [ -86.376064422076425, 39.562870462981721 ] ], [ [ -86.340437195734395, 39.496806020895583 ], [ -86.3422425826178, 39.495394993326535 ], [ -86.342841269123483, 39.494366332435455 ], [ -86.34306113497469, 39.492507607917915 ], [ -86.343009185026489, 39.491421252480329 ], [ -86.342482813793239, 39.489407169094889 ], [ -86.342660812827546, 39.488617290238246 ], [ -86.343488986636146, 39.487214074583008 ], [ -86.345038330035166, 39.485880971164057 ], [ -86.346776441882795, 39.483891839620767 ], [ -86.34714941923788, 39.482746320879947 ], [ -86.347166988683398, 39.481583000526847 ], [ -86.3466156567399, 39.480541516112062 ], [ -86.345579620152321, 39.479778808978011 ], [ -86.344520957725038, 39.478045172815769 ], [ -86.343480249732607, 39.477091386120925 ], [ -86.34125877335498, 39.475851421920346 ], [ -86.339137986496013, 39.474285627022319 ], [ -86.33752712741024, 39.473559460091209 ], [ -86.336304868287442, 39.473107002089343 ], [ -86.335737303705173, 39.472980814800032 ], [ -86.335224198128259, 39.473286037414731 ], [ -86.334795680820505, 39.473695940928081 ], [ -86.332837189372228, 39.477337241943424 ], [ -86.331253966922702, 39.479071195569141 ], [ -86.330112301973614, 39.480501497749302 ], [ -86.329293649775181, 39.482523222599809 ], [ -86.32906651342428, 39.484544663908764 ], [ -86.328849841028031, 39.485429946082114 ], [ -86.328304071380671, 39.486887142492613 ], [ -86.328101078852626, 39.487800943478078 ], [ -86.327885246517127, 39.488036642866376 ], [ -86.326481428992182, 39.490826195417071 ], [ -86.326297469354643, 39.491454383366744 ], [ -86.326340346531879, 39.492195631525739 ], [ -86.326700836777107, 39.493189667204078 ], [ -86.327498429812849, 39.494771215597531 ], [ -86.328435735637228, 39.496240860534009 ], [ -86.329840677744329, 39.497693673781257 ], [ -86.330930809726766, 39.498519037764162 ], [ -86.33174684081682, 39.499397554928763 ], [ -86.332665764633717, 39.500123271807674 ], [ -86.333932109398305, 39.49992708891768 ], [ -86.33496157606244, 39.499571745338493 ], [ -86.337202142461209, 39.49855138626468 ], [ -86.338536936841408, 39.498063074255995 ], [ -86.339123145256238, 39.497723047711283 ], [ -86.33946797635015, 39.497422509597314 ], [ -86.340437195734395, 39.496806020895583 ] ], [ [ -86.354275768405216, 39.483716779171218 ], [ -86.354900822841259, 39.483915800698746 ], [ -86.355387371137624, 39.483581034312365 ], [ -86.355751189180154, 39.483035038536123 ], [ -86.355985444823773, 39.482503268851801 ], [ -86.356036515851017, 39.481777060405108 ], [ -86.35593481306438, 39.48112493706104 ], [ -86.35570700196071, 39.480681490993071 ], [ -86.355003994418524, 39.479979148181123 ], [ -86.354039358553322, 39.479329234385169 ], [ -86.353792207792736, 39.478926568505983 ], [ -86.353983152687775, 39.477618125714073 ], [ -86.354860249925935, 39.475499485405599 ], [ -86.354773636895786, 39.47460481361508 ], [ -86.354629904737166, 39.47427627941709 ], [ -86.354239667577403, 39.473935475467464 ], [ -86.353102316891082, 39.472584644129306 ], [ -86.352374111188766, 39.471062574333985 ], [ -86.351526237467056, 39.469892853630029 ], [ -86.350785713219196, 39.468772757575231 ], [ -86.34973531892156, 39.467607977513353 ], [ -86.349371365576673, 39.467067426318813 ], [ -86.348400072793055, 39.466462085622531 ], [ -86.346785117502293, 39.465887553187699 ], [ -86.344713556935858, 39.465365777960486 ], [ -86.342740093806285, 39.465330260370408 ], [ -86.342857986485399, 39.466158515800807 ], [ -86.344798931282142, 39.469028032564665 ], [ -86.346867691408875, 39.470868512577823 ], [ -86.348297053299817, 39.471819345058698 ], [ -86.349290212238003, 39.472619968186827 ], [ -86.350308794421863, 39.473992705684964 ], [ -86.350467549550459, 39.474358932656401 ], [ -86.350735740800786, 39.475488715400274 ], [ -86.3509704957564, 39.477850747717397 ], [ -86.351362065919147, 39.479413853523631 ], [ -86.351470792514547, 39.480555183943771 ], [ -86.352045803795718, 39.482161486109128 ], [ -86.352449448467453, 39.4825816739909 ], [ -86.353568824867054, 39.483332003617285 ], [ -86.354275768405216, 39.483716779171218 ] ], [ [ -86.38732754559922, 39.483420358923922 ], [ -86.386753898694465, 39.484168842737951 ], [ -86.386096105821593, 39.48548223263839 ], [ -86.385588019327628, 39.485954677333353 ], [ -86.385480996644887, 39.485625930322449 ], [ -86.385299376267085, 39.485739025269972 ], [ -86.385176308241782, 39.486227787263815 ], [ -86.385154723811169, 39.487434213511314 ], [ -86.384996497569219, 39.488402755117612 ], [ -86.385059270546392, 39.489192959122832 ], [ -86.385454576544603, 39.490912867852138 ], [ -86.385885768333281, 39.491517361599115 ], [ -86.386373923039415, 39.491974772397022 ], [ -86.386947230986365, 39.49229590941372 ], [ -86.388882226207627, 39.493062078900103 ], [ -86.390722808650338, 39.493364462314041 ], [ -86.393015758186877, 39.493329783492278 ], [ -86.393754890134389, 39.493243558225686 ], [ -86.394881180573464, 39.49338767696792 ], [ -86.397793554315896, 39.494365122092184 ], [ -86.400698777174242, 39.49560490967766 ], [ -86.401879208734499, 39.495948236487692 ], [ -86.403295482086577, 39.496070475773962 ], [ -86.40510018955095, 39.4960487456677 ], [ -86.407129408215468, 39.49591607085803 ], [ -86.408667260982341, 39.495689496182926 ], [ -86.410335295752972, 39.495178924352771 ], [ -86.412057100572952, 39.494465973218112 ], [ -86.413199903447762, 39.493676737456795 ], [ -86.413994637907876, 39.492552981434592 ], [ -86.414124307012045, 39.492115956955637 ], [ -86.414113265314157, 39.490780835730007 ], [ -86.414193352034872, 39.490380974601685 ], [ -86.414903989074134, 39.489011142523211 ], [ -86.416255575924396, 39.486928187885077 ], [ -86.416908468624825, 39.485304682419205 ], [ -86.417409837803973, 39.483621209183845 ], [ -86.417454660261754, 39.483250716754917 ], [ -86.417247703274441, 39.480516051288582 ], [ -86.416183248743707, 39.478863555892296 ], [ -86.415975880638641, 39.477908938906801 ], [ -86.41625771042618, 39.475291742598145 ], [ -86.416737045614838, 39.474255259859177 ], [ -86.417444570694755, 39.473239539638705 ], [ -86.418574049830852, 39.472171893713629 ], [ -86.422056227597622, 39.469854147929993 ], [ -86.427439040584119, 39.466564656538019 ], [ -86.427586900918342, 39.465837617905073 ], [ -86.427499181671806, 39.465249820945964 ], [ -86.426474687052703, 39.463540669969859 ], [ -86.425906954699585, 39.461934446504223 ], [ -86.425736864227645, 39.461167280808823 ], [ -86.424605468259088, 39.459289367330811 ], [ -86.424450598585665, 39.458742792832304 ], [ -86.424983775361582, 39.455835440348061 ], [ -86.42502200235387, 39.454451322169639 ], [ -86.42519949486578, 39.453594203665055 ], [ -86.425621482133195, 39.452500108963804 ], [ -86.426072919945966, 39.451737022303924 ], [ -86.426444697169018, 39.450862537938264 ], [ -86.428075594223913, 39.448347956876951 ], [ -86.429225339096931, 39.444030081920815 ], [ -86.429196016603413, 39.440714847865124 ], [ -86.428995904628039, 39.439830914628509 ], [ -86.428985274969676, 39.439054602078627 ], [ -86.429295983636209, 39.437875255893694 ], [ -86.430377928596243, 39.435283534499206 ], [ -86.430602250785057, 39.434312980638929 ], [ -86.430543959156338, 39.433810190504474 ], [ -86.429747507788477, 39.432616765313504 ], [ -86.429012448091328, 39.432109302875084 ], [ -86.42830344711092, 39.431869119124293 ], [ -86.423741117866214, 39.431578158906085 ], [ -86.422469387337003, 39.431365858562756 ], [ -86.420602195938585, 39.430916464634656 ], [ -86.419525183448897, 39.430741998468143 ], [ -86.418367432824851, 39.430657140836914 ], [ -86.416425058829731, 39.430699920553408 ], [ -86.415127021751488, 39.431014317095411 ], [ -86.413595627515335, 39.431079570227958 ], [ -86.4125542385015, 39.432001445460038 ], [ -86.412290293049082, 39.432330591913562 ], [ -86.411834020055338, 39.433137497292002 ], [ -86.411345059695051, 39.434568333160584 ], [ -86.411088107993379, 39.434623097289482 ], [ -86.410507674933896, 39.435026780681163 ], [ -86.410030881598914, 39.435589778646751 ], [ -86.408808730441848, 39.437696028655516 ], [ -86.408449486153216, 39.438165667462407 ], [ -86.408087483221991, 39.438883368631792 ], [ -86.407309985886457, 39.439895894885296 ], [ -86.406290025846189, 39.440843560027844 ], [ -86.405411298067023, 39.441519458217634 ], [ -86.404050652050586, 39.442325474735931 ], [ -86.402924693588488, 39.443104740160315 ], [ -86.402005160527807, 39.443980251821067 ], [ -86.398994591329952, 39.447700617932234 ], [ -86.397830885345172, 39.449290226425205 ], [ -86.396460828476421, 39.450917028028158 ], [ -86.395483758212421, 39.451897050081342 ], [ -86.395100290874666, 39.452141380603649 ], [ -86.394819593943808, 39.452664604197601 ], [ -86.394793034123367, 39.453467428210772 ], [ -86.39446555498877, 39.455352806706323 ], [ -86.394131614445442, 39.456549836731014 ], [ -86.393634362767969, 39.45764046187989 ], [ -86.392972781062525, 39.458568879674218 ], [ -86.391670987925821, 39.459396828977901 ], [ -86.391147451058444, 39.460516385947393 ], [ -86.39096066317579, 39.461085610392907 ], [ -86.390762308187419, 39.462582261324442 ], [ -86.390773698859689, 39.462927312957298 ], [ -86.39105049669314, 39.463999841873978 ], [ -86.391792066659022, 39.465218240372444 ], [ -86.392004836754381, 39.465914790660996 ], [ -86.392376926938937, 39.466420161248458 ], [ -86.393455174538346, 39.467190005993722 ], [ -86.395038933868335, 39.468777315675041 ], [ -86.396834021623818, 39.469950517112878 ], [ -86.397909531503885, 39.470771849084869 ], [ -86.399456440003519, 39.472261134934968 ], [ -86.40008158925869, 39.473332885076744 ], [ -86.400225381929488, 39.47398615382474 ], [ -86.40026041200305, 39.474805046152902 ], [ -86.399913517438222, 39.476488182050929 ], [ -86.399444764031841, 39.477623880101753 ], [ -86.398837257601585, 39.478432815844009 ], [ -86.397730274470632, 39.479284927662654 ], [ -86.396610516232755, 39.479899107375324 ], [ -86.396027971054878, 39.480415232897627 ], [ -86.395199123646961, 39.480588612180547 ], [ -86.393079014180415, 39.48083850114687 ], [ -86.391830921545534, 39.481315915772029 ], [ -86.389941175049714, 39.481651585053527 ], [ -86.389358799698343, 39.481890081039644 ], [ -86.387707009487215, 39.483057114974144 ], [ -86.38732754559922, 39.483420358923922 ] ], [ [ -86.541165237293896, 39.408211872749931 ], [ -86.541889478980849, 39.408231751618523 ], [ -86.543521949239434, 39.407685976599176 ], [ -86.54443064663181, 39.407510605514688 ], [ -86.545195707817953, 39.4072348655179 ], [ -86.545725620128309, 39.407226943950143 ], [ -86.54664876680323, 39.407063088814262 ], [ -86.547503874149143, 39.407112953442144 ], [ -86.548404857483732, 39.406945763321517 ], [ -86.549073140642193, 39.406932923786862 ], [ -86.549543396407529, 39.406668363033937 ], [ -86.549804120939669, 39.406312090078465 ], [ -86.549973899461776, 39.405720154628774 ], [ -86.549771069770301, 39.404695849211159 ], [ -86.549724595556441, 39.403680013930355 ], [ -86.549412237998695, 39.40255566785018 ], [ -86.549055321239592, 39.401981123854092 ], [ -86.54860103479399, 39.401461385083863 ], [ -86.547511233762805, 39.400588817719871 ], [ -86.547088495614886, 39.400394608288472 ], [ -86.546396366036177, 39.400257138240306 ], [ -86.545891408013034, 39.400011307867778 ], [ -86.545511910207054, 39.39971664819803 ], [ -86.544529360549319, 39.399242784380519 ], [ -86.543642165632818, 39.399269407100213 ], [ -86.542976077317491, 39.399402087901898 ], [ -86.542365199489225, 39.399709272956571 ], [ -86.541760922039884, 39.400114308825678 ], [ -86.541306798741957, 39.400749016595675 ], [ -86.540956553037418, 39.40182335788159 ], [ -86.54080365177127, 39.402886343187063 ], [ -86.540839757360743, 39.403448267934316 ], [ -86.541031665013037, 39.40430141239171 ], [ -86.540842383493114, 39.407310731512688 ], [ -86.540931677403819, 39.407890642863663 ], [ -86.541165237293896, 39.408211872749931 ] ], [ [ -86.42508118235024, 39.401141607379365 ], [ -86.424779180376532, 39.400729492272333 ], [ -86.424335481150464, 39.400400876225603 ], [ -86.423990383439858, 39.400300423210183 ], [ -86.423029967337953, 39.399870895200216 ], [ -86.42151401947703, 39.399545720560305 ], [ -86.419851140442432, 39.399805822642698 ], [ -86.419403974806073, 39.399932028845932 ], [ -86.418389396593824, 39.400047080451728 ], [ -86.418181641817881, 39.400119338782289 ], [ -86.417851259933101, 39.400537095598764 ], [ -86.417695039773619, 39.4014814501489 ], [ -86.417891411030539, 39.40286969506105 ], [ -86.418134193465178, 39.403355363043971 ], [ -86.418409141763433, 39.403669678268052 ], [ -86.419550276733204, 39.404475807653263 ], [ -86.420608229038166, 39.405044988616922 ], [ -86.421324685833568, 39.405214052874705 ], [ -86.422376628804656, 39.405216658389115 ], [ -86.423085638167564, 39.405339512431333 ], [ -86.423803148136173, 39.405325947141336 ], [ -86.424581192708089, 39.405236296359291 ], [ -86.425196771492651, 39.405010798027696 ], [ -86.425506059052267, 39.404682429056002 ], [ -86.425831008167449, 39.404108205493174 ], [ -86.425823404787664, 39.403612789909097 ], [ -86.425654262207857, 39.402890223258531 ], [ -86.425312859749567, 39.402081067427389 ], [ -86.42508118235024, 39.401141607379365 ] ], [ [ -86.481827536423154, 39.39126686425022 ], [ -86.483532616556985, 39.390133157212006 ], [ -86.483916131369128, 39.388635701425088 ], [ -86.481396839985749, 39.386896083306539 ], [ -86.477875537325417, 39.384698491651051 ], [ -86.476903989013493, 39.383971341142541 ], [ -86.475384931947204, 39.383028215998095 ], [ -86.474231632683825, 39.381708703236022 ], [ -86.473519183016492, 39.381372764816881 ], [ -86.472697234051054, 39.381460617665887 ], [ -86.471272946217937, 39.38253822874686 ], [ -86.469387098054909, 39.38321847076142 ], [ -86.468067697461962, 39.384000895097273 ], [ -86.4668779708648, 39.385945814323044 ], [ -86.465939078385489, 39.387889517685956 ], [ -86.465079623892763, 39.388667385604144 ], [ -86.463974924179254, 39.389362446507619 ], [ -86.46355163300359, 39.3897753994328 ], [ -86.463438769939273, 39.390104029050242 ], [ -86.463493987196841, 39.392044236486242 ], [ -86.46336522955167, 39.392583527861291 ], [ -86.463552195735161, 39.393736107707014 ], [ -86.463541204725658, 39.394538160579494 ], [ -86.465039220414639, 39.395029075867534 ], [ -86.466518276482788, 39.395141381953664 ], [ -86.46892125738664, 39.39520067878189 ], [ -86.472517884358965, 39.395123393190985 ], [ -86.473957953797353, 39.395002544506397 ], [ -86.474676127932653, 39.394759409679629 ], [ -86.47714177373885, 39.393204575713412 ], [ -86.478475067606325, 39.392825757029577 ], [ -86.48053901891754, 39.391980004924889 ], [ -86.481827536423154, 39.39126686425022 ] ] ] } }
]
}
