{
"type": "FeatureCollection",
"name": "MorganRegions_DERIVED_with_desc",
"crs": { "type": "name", "properties": { "name": "urn:ogc:def:crs:OGC:1.3:CRS84" } },
"features": [
{ "type": "Feature", "properties": { "Id": 9, "Name": "Upper White River Outwash", "Alt_Name": "Waverly Outwash", "longitude": null, "Region_Description": "Relatively flat at around 750 ft of elevation, with some stream valleys. It is bounded by the White Lick Creek to the west and the White River to the south and east. It is covered by loam till, with outwash and alluvium along the streams. 19 high-capacity wells operate in the outwash deposits, ranging from 300-4800 GPM and averaging 2000 GPM. This region includes the township of Brooklyn." }, "geometry": { "type": "Polygon", "coordinates": [ [ [ -86.337408693958864, 39.498601715110375 ], [ -86.347440170752961, 39.506680290458362 ], [ -86.370819901904426, 39.507762778409592 ], [ -86.399444529086267, 39.507437362177761 ], [ -86.418695936535357, 39.507717100382095 ], [ -86.418409773866983, 39.507907847388559 ], [ -86.416400426693798, 39.508970590438139 ], [ -86.415433869526325, 39.510459724410673 ], [ -86.415044565008102, 39.512841791947793 ], [ -86.415120004367026, 39.514856672461569 ], [ -86.415715981848948, 39.515360314433082 ], [ -86.415570887432665, 39.516146313047955 ], [ -86.415335851096671, 39.516645776227676 ], [ -86.41372206805859, 39.51638732643471 ], [ -86.412616444790729, 39.516095662550498 ], [ -86.412899773268009, 39.515346126242527 ], [ -86.412906094511484, 39.514595190554694 ], [ -86.412400066887187, 39.514378071784684 ], [ -86.410458345939247, 39.514690084542501 ], [ -86.406056050151165, 39.51659873542178 ], [ -86.404855732506434, 39.517488095220898 ], [ -86.405076407444142, 39.51868123586523 ], [ -86.406069132349387, 39.51958032018279 ], [ -86.407671923184111, 39.521138111892142 ], [ -86.408045045638659, 39.522510824533285 ], [ -86.408337181542507, 39.524359927533943 ], [ -86.407943294563083, 39.525430730965759 ], [ -86.40639908807222, 39.526018860662781 ], [ -86.405082169294118, 39.527025336427918 ], [ -86.404224928470512, 39.527672577771412 ], [ -86.403988548349787, 39.528315050928292 ], [ -86.403617000136592, 39.528563467191049 ], [ -86.402417650149957, 39.52841426671268 ], [ -86.401129640157549, 39.527835473922337 ], [ -86.399607080540193, 39.527684578896249 ], [ -86.398725430221717, 39.528180665606861 ], [ -86.398667841531136, 39.529503497334112 ], [ -86.399078648366341, 39.53131032240988 ], [ -86.399994406455988, 39.532220979086361 ], [ -86.39857086375757, 39.533071868069626 ], [ -86.396972881130807, 39.532729826894041 ], [ -86.396924922813014, 39.5311561275754 ], [ -86.395703851853781, 39.529957777894332 ], [ -86.39540262253081, 39.529193326171658 ], [ -86.39578153832791, 39.528098648455718 ], [ -86.395667083000063, 39.527096766089173 ], [ -86.394996470346555, 39.526330392041459 ], [ -86.393579209659762, 39.526466048267373 ], [ -86.392645334735647, 39.527653181500256 ], [ -86.391620488875347, 39.529383386624815 ], [ -86.390026797840349, 39.528564469166064 ], [ -86.390528928087619, 39.527470455140545 ], [ -86.391093857599444, 39.526233726606371 ], [ -86.390976556982167, 39.525565587104929 ], [ -86.389381707603405, 39.524889695526284 ], [ -86.387842174032642, 39.524929278818419 ], [ -86.386731494568195, 39.525209506757669 ], [ -86.385748137156128, 39.525013593359077 ], [ -86.384728783695138, 39.524754900665521 ], [ -86.382706339188388, 39.523707130845153 ], [ -86.381091885043006, 39.523519745220696 ], [ -86.379514383603833, 39.524369582147422 ], [ -86.377655415906716, 39.526212224577336 ], [ -86.37724773833709, 39.528772858522871 ], [ -86.380467342337383, 39.530220471740449 ], [ -86.380801324190941, 39.535943885094248 ], [ -86.380193615073267, 39.536041251571923 ], [ -86.37635291333342, 39.535849059639766 ], [ -86.375838252609057, 39.535560215687291 ], [ -86.373539990742927, 39.536406096402892 ], [ -86.372275623684018, 39.537314735747472 ], [ -86.371522787658236, 39.538855506970307 ], [ -86.371582232858771, 39.540457883506171 ], [ -86.372764533619616, 39.540464269597557 ], [ -86.37267982299889, 39.541665353551068 ], [ -86.378813119831719, 39.541698293713139 ], [ -86.378721369292023, 39.543700371732434 ], [ -86.375544298445163, 39.543626130051372 ], [ -86.375663894115505, 39.546773664028279 ], [ -86.371207355045982, 39.546729311650516 ], [ -86.371167974994876, 39.551091831077812 ], [ -86.369597492816496, 39.551083323465534 ], [ -86.36994696365916, 39.55330234345476 ], [ -86.370302275521993, 39.554877712127187 ], [ -86.370271881812968, 39.558238992569997 ], [ -86.362058305181051, 39.558686950076655 ], [ -86.360333669179568, 39.558677470576903 ], [ -86.360882844305564, 39.579373592274727 ], [ -86.36720770576683, 39.579700654093436 ], [ -86.367287119011749, 39.58113148271849 ], [ -86.371427335593054, 39.583228026253124 ], [ -86.371875250900203, 39.584803883444266 ], [ -86.372181510326897, 39.586715116076306 ], [ -86.374387578018982, 39.588085889613915 ], [ -86.374268127829637, 39.591089074521946 ], [ -86.371485400896447, 39.592146850976015 ], [ -86.371554573309922, 39.594721932973492 ], [ -86.37312023924396, 39.595374067411441 ], [ -86.37531888894253, 39.597603017478356 ], [ -86.374940759455953, 39.598530738892862 ], [ -86.372447989085614, 39.598159703879908 ], [ -86.371154422243706, 39.598081190392556 ], [ -86.366546571536404, 39.59648272901147 ], [ -86.365559074482334, 39.593258957820709 ], [ -86.365322223566807, 39.588823444441893 ], [ -86.363025848721591, 39.587237445187938 ], [ -86.357297888252731, 39.586919825624094 ], [ -86.345353534413647, 39.602333416170445 ], [ -86.335848606618029, 39.610146607443639 ], [ -86.335596690986961, 39.617154060452819 ], [ -86.336080436113377, 39.624594826263802 ], [ -86.345608368468774, 39.631804527102702 ], [ -86.345320009088795, 39.631812042366242 ], [ -86.326356653311819, 39.632127102215662 ], [ -86.307177994766519, 39.632617986604252 ], [ -86.288085934366393, 39.632948554876116 ], [ -86.268988926837721, 39.633248922441254 ], [ -86.250026766418884, 39.633862378187395 ], [ -86.249832952445345, 39.633870136923306 ], [ -86.249688930380259, 39.619020333017701 ], [ -86.249789685591367, 39.612722815390725 ], [ -86.249868805160844, 39.604312242605289 ], [ -86.250695997841646, 39.604227477666136 ], [ -86.250623121044512, 39.59065752051243 ], [ -86.25064680074594, 39.590013437173681 ], [ -86.250593211831429, 39.576204798355711 ], [ -86.25058559597943, 39.575290202088951 ], [ -86.250567304829246, 39.567633612346533 ], [ -86.253827793892697, 39.565059783065358 ], [ -86.260988071062329, 39.561529550885453 ], [ -86.265689426945499, 39.553811373382281 ], [ -86.274625036389125, 39.545970495512179 ], [ -86.28526597768888, 39.540523415619568 ], [ -86.292220155873508, 39.531220564143283 ], [ -86.293242882819968, 39.526544214440769 ], [ -86.296223336204207, 39.521124465807247 ], [ -86.300949305048789, 39.516621450356048 ], [ -86.30623411515603, 39.514689444363775 ], [ -86.312088737445379, 39.514271082160832 ], [ -86.316991943815282, 39.511430018365878 ], [ -86.319551944073993, 39.508877157058706 ], [ -86.322232901207613, 39.507645160585199 ], [ -86.322299476145986, 39.500791489730723 ], [ -86.323655828160099, 39.499756378260443 ], [ -86.33213007778474, 39.499649213029279 ], [ -86.333231267482375, 39.500342132171625 ], [ -86.33742190707288, 39.498722066894501 ], [ -86.337408693958864, 39.498601715110375 ] ] ] } },
{ "type": "Feature", "properties": { "Id": 7, "Name": "Mill Creek Till Plain", "Alt_Name": "Tipton Till Plain", "longitude": null, "Region_Description": "Exhibits flat terrain transitioning to rolling hills in the south beyond the glacial boundary line. Silt and till covers the siltstone Borden bedrock. A buried bedrock valley runs along the modern Mud Creek that allows some aquifer availability in this region, but generally less than 10 GPM of water can be developed. There are no high-capacity wells or townships in this region. Several karst features have developed along the southern side of the region and the transition between the Tipton Till and Morgan Hills." }, "geometry": { "type": "Polygon", "coordinates": [ [ [ -86.631677411476957, 39.43377968039961 ], [ -86.6317367761974, 39.441037100913228 ], [ -86.631933581959558, 39.455666474229275 ], [ -86.632132587426426, 39.470165163961987 ], [ -86.651090688423949, 39.470277652842547 ], [ -86.669881557110898, 39.470120763851995 ], [ -86.687177285569078, 39.470060447993177 ], [ -86.687165943313317, 39.470483915753846 ], [ -86.687204376024681, 39.484779320371253 ], [ -86.687254292792588, 39.496186836536801 ], [ -86.687285813622822, 39.499372153894726 ], [ -86.687301503016059, 39.499764155283955 ], [ -86.687471315199176, 39.51410939911446 ], [ -86.687506675192765, 39.521957663674378 ], [ -86.686970390977393, 39.521717442042217 ], [ -86.68649932976794, 39.52152695170922 ], [ -86.686184946642285, 39.521422482473085 ], [ -86.685794922351803, 39.521322313229497 ], [ -86.6853371539558, 39.521248990898755 ], [ -86.685069610062655, 39.52123925590044 ], [ -86.684789623546379, 39.521247507593991 ], [ -86.684577097217414, 39.521291983758317 ], [ -86.684453178897044, 39.521359226383588 ], [ -86.684370523433373, 39.521467128261413 ], [ -86.684329314429476, 39.521575142629324 ], [ -86.684376795557924, 39.521687903068369 ], [ -86.684546816632547, 39.521877585497116 ], [ -86.684758972045671, 39.522076392457016 ], [ -86.683302144115402, 39.522793274429489 ], [ -86.683307248047754, 39.523590719253974 ], [ -86.683101278526308, 39.523630705294835 ], [ -86.682930048415201, 39.523706827798406 ], [ -86.682785763781354, 39.523774013060248 ], [ -86.682600183729093, 39.523967232646669 ], [ -86.682448717714152, 39.524174060896691 ], [ -86.682365932647244, 39.524308992485629 ], [ -86.682324616199082, 39.524439532082319 ], [ -86.682337919184221, 39.524552199893215 ], [ -86.682439587807238, 39.524741698513012 ], [ -86.682872855385384, 39.52572953273107 ], [ -86.682892745089461, 39.525833207908676 ], [ -86.682892355755556, 39.525918806735739 ], [ -86.682780655890397, 39.526175301641722 ], [ -86.682678060020365, 39.526508410645775 ], [ -86.682615797938695, 39.526607356321456 ], [ -86.682525257380206, 39.526688203709782 ], [ -86.682128660285429, 39.526907877491624 ], [ -86.68133901221708, 39.527365251706371 ], [ -86.681167853414991, 39.527423350722529 ], [ -86.681044147624021, 39.52744103239214 ], [ -86.680933092777849, 39.527395675070629 ], [ -86.680655360978562, 39.527223712712974 ], [ -86.680450101973165, 39.527106012003728 ], [ -86.680177235516396, 39.526983619691109 ], [ -86.679832877795349, 39.526910587678074 ], [ -86.679445595882569, 39.526841941545285 ], [ -86.679060995362889, 39.526822859344371 ], [ -86.678463660945027, 39.526888787521017 ], [ -86.678213506846191, 39.527045779299101 ], [ -86.678105383195827, 39.527153606093655 ], [ -86.678046957087986, 39.527365191319014 ], [ -86.678107001412727, 39.527590620383123 ], [ -86.678208538113438, 39.527807153762481 ], [ -86.6783174306169, 39.528005686380297 ], [ -86.678357924980787, 39.5282130401703 ], [ -86.678349842262975, 39.528388722753306 ], [ -86.678280694833774, 39.528559731091264 ], [ -86.678074790055021, 39.528739371245273 ], [ -86.677785523984696, 39.529017895593128 ], [ -86.677517365688587, 39.529291972508481 ], [ -86.677476224751558, 39.529381963454036 ], [ -86.677382471332209, 39.529683555317099 ], [ -86.677281820290418, 39.529904033372468 ], [ -86.67721321111172, 39.52995790592518 ], [ -86.677056193710271, 39.529943954056762 ], [ -86.676836969451116, 39.529857744998253 ], [ -86.676565490388725, 39.52974886387797 ], [ -86.676236127602493, 39.529576747366995 ], [ -86.675903815689509, 39.529413632205646 ], [ -86.67557225351716, 39.529246012930045 ], [ -86.675239364446099, 39.529051357473861 ], [ -86.675041045390358, 39.529005750711718 ], [ -86.674740021581002, 39.528995898319593 ], [ -86.674417782467827, 39.529013017255181 ], [ -86.6741230298517, 39.529061749133241 ], [ -86.673621220957187, 39.529222530454213 ], [ -86.673286563872225, 39.529406305777314 ], [ -86.672957016689239, 39.529585589251383 ], [ -86.672936358658404, 39.529648604680709 ], [ -86.672963760479092, 39.529698239562983 ], [ -86.673835654143289, 39.530642287135464 ], [ -86.673841861931152, 39.530714388598646 ], [ -86.673787003435777, 39.530781813456016 ], [ -86.67354752233841, 39.530983877532059 ], [ -86.6733539823162, 39.531159038694604 ], [ -86.67308721058842, 39.531442119655743 ], [ -86.672466687792678, 39.531944961123244 ], [ -86.672054996800554, 39.532268178509938 ], [ -86.671659301476282, 39.53259143959793 ], [ -86.671312732064706, 39.532829238466846 ], [ -86.670715282460264, 39.533214999156172 ], [ -86.670297544664663, 39.533583245600653 ], [ -86.670745994540496, 39.533949441952544 ], [ -86.67129847447805, 39.534464604014858 ], [ -86.671537002844403, 39.534622962003183 ], [ -86.671871468600742, 39.534795106100717 ], [ -86.672137699396316, 39.534940025298184 ], [ -86.672287567230427, 39.535084615886731 ], [ -86.672396559940452, 39.535260627832102 ], [ -86.672429916169975, 39.535436426549964 ], [ -86.672415314373097, 39.535603079612294 ], [ -86.672326035393112, 39.53571996444618 ], [ -86.67203078654245, 39.53586780499537 ], [ -86.671530293411863, 39.536046601736068 ], [ -86.671208450692404, 39.536126786307364 ], [ -86.671002628691483, 39.536126203948591 ], [ -86.670763500511129, 39.536093990156147 ], [ -86.67038073225315, 39.535984779423082 ], [ -86.669816315074328, 39.535839009606661 ], [ -86.669498192357722, 39.535748000569143 ], [ -86.66910212305234, 39.535683800290997 ], [ -86.668588812324089, 39.535650801198827 ], [ -86.668033982721965, 39.535631197021836 ], [ -86.667506790112682, 39.535611669252326 ], [ -86.667183085718065, 39.535624258629461 ], [ -86.667027103268666, 39.535695895895429 ], [ -86.666958092961067, 39.535830855643226 ], [ -86.666971243975979, 39.535970556015364 ], [ -86.667066728983855, 39.536078955494553 ], [ -86.667380245984816, 39.536372694157301 ], [ -86.667440650291681, 39.536517034917352 ], [ -86.667447342760795, 39.536638695752146 ], [ -86.667398847019726, 39.536742177695182 ], [ -86.667323527298748, 39.536827561859404 ], [ -86.666904020182869, 39.537101180570687 ], [ -86.666602035955407, 39.537285029947761 ], [ -86.666183574258071, 39.537491070325295 ], [ -86.665634490685761, 39.537786838454679 ], [ -86.66502702307119, 39.538122982951471 ], [ -86.66458442041673, 39.538355979434463 ], [ -86.664179743553518, 39.538566557565424 ], [ -86.66373971843251, 39.538867136937561 ], [ -86.663559972600424, 39.539037816150746 ], [ -86.663358297533179, 39.539230957798246 ], [ -86.663010285876922, 39.53960388473191 ], [ -86.662666459970353, 39.540012864699172 ], [ -86.662287652656872, 39.540435257719196 ], [ -86.662255322571738, 39.540502742447266 ], [ -86.662388285436222, 39.540832011533681 ], [ -86.662476547385054, 39.541080056271454 ], [ -86.662544611639376, 39.541143327306465 ], [ -86.662681133083794, 39.541188776009321 ], [ -86.662995678433418, 39.541270782781723 ], [ -86.663097906543101, 39.54133865778136 ], [ -86.663186759622477, 39.541465062101473 ], [ -86.663315268575118, 39.541663665118399 ], [ -86.663328391534222, 39.541807870916188 ], [ -86.663307372800986, 39.541942967331778 ], [ -86.66318145037701, 39.542262474769608 ], [ -86.662954825186873, 39.542649268729818 ], [ -86.662767962288484, 39.54308573525271 ], [ -86.662677995576246, 39.543189094768948 ], [ -86.662286798984425, 39.54346277859522 ], [ -86.662115038676873, 39.543633478619064 ], [ -86.66193556668189, 39.543894260785763 ], [ -86.661845597686849, 39.543997619633537 ], [ -86.661742470170282, 39.544114455841246 ], [ -86.661611636600824, 39.544244727022168 ], [ -86.661494535048575, 39.544393059008932 ], [ -86.661391581516156, 39.54447385347413 ], [ -86.661213287598116, 39.54449135490286 ], [ -86.660980528306837, 39.544490676247705 ], [ -86.660734829876759, 39.54445842267328 ], [ -86.660392566871096, 39.544389844553663 ], [ -86.660029784278791, 39.544352742098212 ], [ -86.659858654087586, 39.544392788607013 ], [ -86.65973456086202, 39.544482530219653 ], [ -86.659672647332712, 39.544649042867171 ], [ -86.659733130707309, 39.544775366684057 ], [ -86.659862847078173, 39.544874861642008 ], [ -86.66008848976405, 39.544992657980806 ], [ -86.660593603582853, 39.545228406533923 ], [ -86.66097590272696, 39.54544126853034 ], [ -86.661173470347336, 39.545649085668131 ], [ -86.661248373595981, 39.545802482153753 ], [ -86.66128814351471, 39.54600082861041 ], [ -86.661280611361192, 39.54620354245111 ], [ -86.66119044558242, 39.546496120232597 ], [ -86.661024892820734, 39.546734415226368 ], [ -86.660873729689484, 39.546855615740867 ], [ -86.66066102241723, 39.546918068286203 ], [ -86.660448688051545, 39.546903932466442 ], [ -86.660277991199095, 39.546853876051166 ], [ -86.660032128985634, 39.546704484296512 ], [ -86.659895642496224, 39.546650022136632 ], [ -86.65977198530733, 39.54664966024098 ], [ -86.659669026434713, 39.546730453126045 ], [ -86.659620600079137, 39.546815910865625 ], [ -86.659528907309792, 39.547419344317056 ], [ -86.659438820049161, 39.54754522707406 ], [ -86.65926073838925, 39.547666346592649 ], [ -86.659123148473384, 39.54768846935071 ], [ -86.658993824571496, 39.547656553337099 ], [ -86.658504789876446, 39.54740282420147 ], [ -86.658271602907902, 39.547339065512382 ], [ -86.657866284958203, 39.547369409816824 ], [ -86.657780957547175, 39.547414211005069 ], [ -86.657679450049756, 39.547495006385553 ], [ -86.657596744125243, 39.547598383255938 ], [ -86.6575693651031, 39.547692912601029 ], [ -86.6575958805483, 39.54777408500275 ], [ -86.657718964190735, 39.547891583718453 ], [ -86.658081189006651, 39.548045827935979 ], [ -86.658155736382199, 39.54812263625432 ], [ -86.658182869555503, 39.548226336523406 ], [ -86.658140721740736, 39.548365874937687 ], [ -86.65796820919509, 39.548685239285298 ], [ -86.657830746807576, 39.548829002291512 ], [ -86.657611284756229, 39.548931976472247 ], [ -86.65739144915463, 39.548962865339746 ], [ -86.65674109202682, 39.548969956961223 ], [ -86.656522005564412, 39.548996341158606 ], [ -86.656391597481544, 39.549036502844601 ], [ -86.656281179121763, 39.549153312528475 ], [ -86.656113354245633, 39.549405109376487 ], [ -86.656061589327265, 39.549576155203958 ], [ -86.655907999637776, 39.549891067166861 ], [ -86.655807035695233, 39.550007904369011 ], [ -86.655660065086636, 39.550160647080418 ], [ -86.655502204615601, 39.550308852088634 ], [ -86.655385191253046, 39.550434651815188 ], [ -86.65530864634853, 39.550614634270765 ], [ -86.65525694542653, 39.550772164183229 ], [ -86.655132491688775, 39.551078150992616 ], [ -86.65504428401465, 39.551262603881788 ], [ -86.654870563010803, 39.551527897036287 ], [ -86.654769594942152, 39.551644733286338 ], [ -86.654611796216642, 39.551779421519051 ], [ -86.654419168697956, 39.551895985043856 ], [ -86.654220217125754, 39.551967477086343 ], [ -86.654021511300925, 39.551989411938344 ], [ -86.653782314434878, 39.551961668263687 ], [ -86.653686582194439, 39.551902815009981 ], [ -86.653638704933826, 39.55187564093751 ], [ -86.653570302290902, 39.551879942311587 ], [ -86.653562870946999, 39.551911456803722 ], [ -86.653578818072944, 39.552069187544092 ], [ -86.65355504665736, 39.552168231847716 ], [ -86.653493190793881, 39.552172552689775 ], [ -86.653418509779584, 39.55212277244356 ], [ -86.653235306995441, 39.551806859589327 ], [ -86.653072362139156, 39.551513533074917 ], [ -86.652909710483257, 39.551161639138599 ], [ -86.652814698636973, 39.550958619786087 ], [ -86.652727478302822, 39.550652003214282 ], [ -86.652619028360348, 39.550372354528065 ], [ -86.65257187160725, 39.550201014619965 ], [ -86.652497463055326, 39.550097171752874 ], [ -86.652408528613392, 39.549988780161065 ], [ -86.65230645576284, 39.54988935966977 ], [ -86.652176493513807, 39.549839413227495 ], [ -86.652005637973176, 39.549820880864239 ], [ -86.651259252043019, 39.54982765424684 ], [ -86.651109969195034, 39.551021093648387 ], [ -86.651022481668775, 39.551930888407924 ], [ -86.651048973694571, 39.552160734894692 ], [ -86.651305026146872, 39.553035518724485 ], [ -86.651627432729072, 39.554171804273494 ], [ -86.651910536043246, 39.555168308828911 ], [ -86.652225649769107, 39.556457748341735 ], [ -86.652578350019539, 39.557652689261964 ], [ -86.652764043119433, 39.558347049584782 ], [ -86.652852202650237, 39.558613121478707 ], [ -86.653053435199624, 39.559402137450199 ], [ -86.653046483410108, 39.559483210814278 ], [ -86.652604277428807, 39.560184705501051 ], [ -86.6524947872974, 39.560256461824437 ], [ -86.65233029650615, 39.560269485562131 ], [ -86.651741126829535, 39.560240690240605 ], [ -86.651026618233828, 39.560252062703022 ], [ -86.650741062341694, 39.560323288573898 ], [ -86.650376596150991, 39.560606022086006 ], [ -86.6501410153259, 39.560866616353159 ], [ -86.649976709564115, 39.561131930036623 ], [ -86.649886748406558, 39.561370436097739 ], [ -86.649871339235943, 39.561685755553022 ], [ -86.649904537481717, 39.561884085532476 ], [ -86.649978365793558, 39.562105064000662 ], [ -86.650148801357943, 39.562357869849002 ], [ -86.650324900268245, 39.562642229059691 ], [ -86.650549702211833, 39.56293574489397 ], [ -86.650801742377993, 39.563166268967265 ], [ -86.651045143694631, 39.563378745647022 ], [ -86.651094871879422, 39.563473504682065 ], [ -86.651122000340294, 39.563577206305396 ], [ -86.651113911927581, 39.563739370134087 ], [ -86.651048593442056, 39.563851804660665 ], [ -86.650893782970059, 39.563963970360746 ], [ -86.650694815854052, 39.564030950894647 ], [ -86.650475702374209, 39.564052818250026 ], [ -86.650236284513952, 39.564061108412638 ], [ -86.650003256257762, 39.564100953898432 ], [ -86.649714999872174, 39.564127116796939 ], [ -86.649523193554799, 39.564216643026796 ], [ -86.649398983519674, 39.564319888551417 ], [ -86.649294827651303, 39.564486267601524 ], [ -86.649085513389196, 39.564728917893881 ], [ -86.648856279705413, 39.564881403132382 ], [ -86.6485872096831, 39.564997725673869 ], [ -86.648313250470778, 39.565073485778619 ], [ -86.648230600672164, 39.565158834896955 ], [ -86.648195971515804, 39.565244329328323 ], [ -86.648216797566263, 39.565442622211577 ], [ -86.648291146962634, 39.565704150202407 ], [ -86.648360336036703, 39.565835011046161 ], [ -86.648487119197654, 39.565943519944085 ], [ -86.648657694991314, 39.566025129762821 ], [ -86.648870085083146, 39.566039287324706 ], [ -86.649157485875648, 39.566040155298808 ], [ -86.649458824443428, 39.566018538486482 ], [ -86.649596430932135, 39.566000932567739 ], [ -86.649685107038479, 39.566019220791638 ], [ -86.649902819694205, 39.566132507422182 ], [ -86.650058253920491, 39.566187038232378 ], [ -86.650231923638472, 39.566232613271268 ], [ -86.650458139089523, 39.566246809539727 ], [ -86.650760137972441, 39.566238707010328 ], [ -86.650896334563342, 39.566212084869846 ], [ -86.65104148805159, 39.566140437230935 ], [ -86.651210059783438, 39.566041828353761 ], [ -86.651275312390524, 39.565942909254176 ], [ -86.651377260401105, 39.565781027067814 ], [ -86.651479253041387, 39.56561013447314 ], [ -86.651558329098677, 39.565511256659875 ], [ -86.651680220076898, 39.565435033240213 ], [ -86.651920505249095, 39.565399711365053 ], [ -86.652133074224864, 39.565377821707024 ], [ -86.652497934260992, 39.565311334882523 ], [ -86.652590428064073, 39.565293590513811 ], [ -86.652718708528255, 39.565248921669124 ], [ -86.653031899451193, 39.565038111578566 ], [ -86.653128322485287, 39.564961810593388 ], [ -86.653176702242035, 39.564889871388758 ], [ -86.653239085511132, 39.564781932149465 ], [ -86.65326649972873, 39.564682899000218 ], [ -86.653301167253758, 39.564588392705438 ], [ -86.65335659807792, 39.564561526702796 ], [ -86.653445273362479, 39.564579812058447 ], [ -86.653561417479679, 39.564634221030111 ], [ -86.653725313386943, 39.564742834868632 ], [ -86.653882616748362, 39.564860439290364 ], [ -86.653998358668275, 39.564995940667444 ], [ -86.65404520405751, 39.565086184613946 ], [ -86.654065722076979, 39.565203381523482 ], [ -86.654009395453627, 39.565410454163832 ], [ -86.654022122652904, 39.56563124803332 ], [ -86.654089777727521, 39.565780121811699 ], [ -86.654165022362392, 39.565865944998883 ], [ -86.654178399107707, 39.565956089279979 ], [ -86.654212305249189, 39.566014758076243 ], [ -86.654348646150737, 39.56610526813207 ], [ -86.654458972727738, 39.566159658894499 ], [ -86.654769871113075, 39.566264202994297 ], [ -86.654875038069605, 39.566332093704574 ], [ -86.654937848055567, 39.566431395128575 ], [ -86.654928111967607, 39.566634101272903 ], [ -86.654844887640294, 39.566836589178124 ], [ -86.654721408359649, 39.566939842519695 ], [ -86.654508768316205, 39.566975252358404 ], [ -86.654419843698918, 39.567006524528594 ], [ -86.654371351901347, 39.567100990005628 ], [ -86.654404945648594, 39.567222730925607 ], [ -86.654500431164664, 39.567335645402373 ], [ -86.654602644316711, 39.567412538012533 ], [ -86.654663406128577, 39.567484802144257 ], [ -86.65467019059858, 39.567583937200979 ], [ -86.654656053056627, 39.567646968306576 ], [ -86.654545445563514, 39.567795311916917 ], [ -86.654476490667946, 39.567907737484823 ], [ -86.654503692928699, 39.567997922801979 ], [ -86.654653706387478, 39.568120009676171 ], [ -86.654798671709869, 39.568233070916165 ], [ -86.654988571412616, 39.568382307155652 ], [ -86.655106236322155, 39.568571875729397 ], [ -86.655125783975208, 39.568738626944544 ], [ -86.655088139343036, 39.568846640545935 ], [ -86.65485669037767, 39.569152308465071 ], [ -86.65468195993202, 39.569318482594561 ], [ -86.654509826145969, 39.569547737269446 ], [ -86.65439885741641, 39.569768163146975 ], [ -86.654384204699696, 39.569934812739788 ], [ -86.654445539554004, 39.570038615205554 ], [ -86.65455492120455, 39.570138055244968 ], [ -86.654649862099305, 39.570214926165477 ], [ -86.654827732032757, 39.570296548568386 ], [ -86.655146260631255, 39.57033353596956 ], [ -86.655478614785949, 39.570370563485099 ], [ -86.655765922265573, 39.570393940966461 ], [ -86.656032633311739, 39.570462308983352 ], [ -86.656263534577491, 39.570562107018567 ], [ -86.65659947841651, 39.570756824658226 ], [ -86.656838557994675, 39.570969276218293 ], [ -86.656888077358403, 39.571109084253038 ], [ -86.656818406791857, 39.571514348321784 ], [ -86.656717668249414, 39.571874468357784 ], [ -86.656682118446312, 39.572000509483516 ], [ -86.656686084426511, 39.572081615146772 ], [ -86.656843253836158, 39.572230751581074 ], [ -86.657067218439835, 39.57226294922917 ], [ -86.657328404963508, 39.572272730110718 ], [ -86.657582248446488, 39.572296004426917 ], [ -86.657873070062863, 39.572346418372199 ], [ -86.658125854419112, 39.572437266670143 ], [ -86.658409112949187, 39.572546224872546 ], [ -86.658588227619219, 39.572672897349825 ], [ -86.658647233475079, 39.572808227251038 ], [ -86.658646636915648, 39.572929866406554 ], [ -86.6584890181595, 39.573019507696095 ], [ -86.658055700017087, 39.573090317000414 ], [ -86.657760705151247, 39.573148016469531 ], [ -86.657293136150201, 39.573376404696809 ], [ -86.657113200857452, 39.573416420895775 ], [ -86.656927138208445, 39.573370819580497 ], [ -86.656807405182661, 39.573302887776855 ], [ -86.65672599463295, 39.573284626456605 ], [ -86.656621076325663, 39.573311347804847 ], [ -86.656238967751221, 39.573621078186747 ], [ -86.655923869147031, 39.573917490058605 ], [ -86.655713777051105, 39.574169160020652 ], [ -86.65551127246799, 39.57435777903919 ], [ -86.655413865896691, 39.574483636337533 ], [ -86.6553753123885, 39.574627688963879 ], [ -86.655427326689448, 39.574704431892364 ], [ -86.655584462713108, 39.574713908138811 ], [ -86.655964999072964, 39.574724045750393 ], [ -86.656076974015363, 39.574742398059854 ], [ -86.656203369264048, 39.574787824225872 ], [ -86.656530823286531, 39.574937464664082 ], [ -86.656650536615061, 39.575009901895939 ], [ -86.65667194509173, 39.575095564268132 ], [ -86.656664045871864, 39.575221687002738 ], [ -86.656722500179754, 39.575320974456375 ], [ -86.657116661720252, 39.575520367648586 ], [ -86.657170089616898, 39.57560612439282 ], [ -86.657354716648285, 39.575944560144734 ], [ -86.657451984679668, 39.575994404278426 ], [ -86.657585726623907, 39.576026334942121 ], [ -86.657683283011792, 39.576017611920101 ], [ -86.657870017655398, 39.57592805750329 ], [ -86.657997409608882, 39.575919422051278 ], [ -86.658176401908094, 39.575924453899127 ], [ -86.65835197475586, 39.576033095394997 ], [ -86.658455901585512, 39.576209104320021 ], [ -86.658509595130155, 39.576389470760262 ], [ -86.658531048756657, 39.57661479460053 ], [ -86.658574840519051, 39.576885236217457 ], [ -86.658603284319781, 39.577169148364256 ], [ -86.658638872920818, 39.57748011276999 ], [ -86.658690848749103, 39.577565864525369 ], [ -86.658824681481732, 39.577728445264299 ], [ -86.658831561120564, 39.577809559332522 ], [ -86.65879396140113, 39.577908563669055 ], [ -86.658763351614922, 39.578066156309852 ], [ -86.658784454347497, 39.57821489036079 ], [ -86.658843465206942, 39.578350220055022 ], [ -86.65892505793768, 39.578481110782839 ], [ -86.659148094754471, 39.578707025911342 ], [ -86.659403638424848, 39.578982593240582 ], [ -86.659473721471144, 39.579086418552379 ], [ -86.659500956525036, 39.579172097423502 ], [ -86.659472465036743, 39.579491884122383 ], [ -86.658628883696977, 39.579516440356173 ], [ -86.658179775365468, 39.579830485129186 ], [ -86.658149650228708, 39.579888964286383 ], [ -86.658171172666187, 39.579952100584023 ], [ -86.658253031496798, 39.580028929972791 ], [ -86.658453886834693, 39.58017819252008 ], [ -86.65866678324393, 39.580395068281447 ], [ -86.658820998299305, 39.580557708820209 ], [ -86.658914325894358, 39.580670613110939 ], [ -86.658938384872812, 39.580810345320543 ], [ -86.658881705300828, 39.58123817414257 ], [ -86.65877741517852, 39.581282920078984 ], [ -86.658583037729429, 39.581295864790498 ], [ -86.658351544588044, 39.581308700061456 ], [ -86.658216666067105, 39.581357860770858 ], [ -86.65813358831636, 39.581528814454266 ], [ -86.658066014536644, 39.581654761574754 ], [ -86.657773691479079, 39.581901687699279 ], [ -86.657750665453449, 39.581996229330656 ], [ -86.657742745153797, 39.58212685713999 ], [ -86.657695119164401, 39.582635805741226 ], [ -86.657657603839411, 39.582716789026385 ], [ -86.657575099543791, 39.582770608469929 ], [ -86.657440284181547, 39.58280625281423 ], [ -86.657081886868866, 39.582872773906473 ], [ -86.656730455445583, 39.5830023874205 ], [ -86.65667039998236, 39.583078798583209 ], [ -86.656677410975149, 39.583132881825627 ], [ -86.656736844136105, 39.583182614721295 ], [ -86.656863477296213, 39.58318298872166 ], [ -86.657259831734507, 39.583094054214442 ], [ -86.657447025404039, 39.583063069707961 ], [ -86.65761878044286, 39.583063575888524 ], [ -86.657700180489826, 39.583086341748569 ], [ -86.657745058818819, 39.583136031255329 ], [ -86.657767398288115, 39.583181149156815 ], [ -86.657737182687129, 39.5832576487472 ], [ -86.657647510864791, 39.58328892107204 ], [ -86.657226255954285, 39.583409319923874 ], [ -86.656884372095249, 39.583520941209073 ], [ -86.656794388430214, 39.583615284897157 ], [ -86.656801177342587, 39.583714419574001 ], [ -86.656935328366075, 39.583813930325199 ], [ -86.657188792027767, 39.583922803384276 ], [ -86.657643409759288, 39.584122372899444 ], [ -86.657948304958239, 39.584280953123425 ], [ -86.658078841912115, 39.584375946700419 ], [ -86.658134394678427, 39.58447522476331 ], [ -86.658133597740203, 39.584637409968245 ], [ -86.658079561144206, 39.584821964574068 ], [ -86.657935410462883, 39.584979222660195 ], [ -86.657698740209682, 39.585154228899249 ], [ -86.657450845435449, 39.585243602589095 ], [ -86.656943875694537, 39.58532770598125 ], [ -86.65651707396421, 39.585389518109928 ], [ -86.656307906083015, 39.585447467358904 ], [ -86.655963782769064, 39.585568089674311 ], [ -86.655537193477542, 39.585733518624949 ], [ -86.655319883990813, 39.585818473205578 ], [ -86.655207400240229, 39.58589923325308 ], [ -86.655162490525214, 39.586002719781689 ], [ -86.655168897702737, 39.586178441917113 ], [ -86.655220786354704, 39.58628221567318 ], [ -86.655511352284705, 39.586395707640889 ], [ -86.655645261296343, 39.5865447764103 ], [ -86.655746285515335, 39.586720778851053 ], [ -86.655869233293814, 39.587320335635646 ], [ -86.655876088067643, 39.587405954875187 ], [ -86.655830584266425, 39.587482408632525 ], [ -86.655733494148578, 39.587540688719933 ], [ -86.65553871944806, 39.587630215644253 ], [ -86.65537405285778, 39.587665769053466 ], [ -86.655254779097618, 39.587647394424884 ], [ -86.655210716805726, 39.587579685586292 ], [ -86.655211632284747, 39.58739497480849 ], [ -86.655159809824312, 39.58727768564151 ], [ -86.655077901280151, 39.587209864429653 ], [ -86.654958673070979, 39.587182479217319 ], [ -86.654734572060349, 39.587168297946825 ], [ -86.654443332848857, 39.587189958268489 ], [ -86.654241503208397, 39.587234409970129 ], [ -86.654144165741712, 39.587342245273994 ], [ -86.654098324072422, 39.587486275452143 ], [ -86.654085917270379, 39.587639415558058 ], [ -86.654024689769244, 39.587950092547423 ], [ -86.653936028302695, 39.588215635722854 ], [ -86.653979360029396, 39.588869019669438 ], [ -86.653939707799125, 39.589377989840791 ], [ -86.653916606777642, 39.589486045973402 ], [ -86.653841873623705, 39.589584937887786 ], [ -86.653676663232687, 39.589728612180181 ], [ -86.653511474599497, 39.589867781092892 ], [ -86.653428711688761, 39.589971153994988 ], [ -86.653450691398561, 39.590088354879953 ], [ -86.65355464897273, 39.59025986266181 ], [ -86.653754671383581, 39.590580328392029 ], [ -86.653916465988544, 39.590977268386538 ], [ -86.653916040095467, 39.591062866000172 ], [ -86.65387851576385, 39.591143847908633 ], [ -86.653606383331052, 39.591417854434859 ], [ -86.653555779340564, 39.591494292037424 ], [ -86.653524321166543, 39.591818572913752 ], [ -86.653493962425458, 39.591922102070171 ], [ -86.65336632552183, 39.59211995033575 ], [ -86.653132539822067, 39.592439122117362 ], [ -86.652884967280045, 39.592749241817714 ], [ -86.652801750199615, 39.592942716914536 ], [ -86.65280821939001, 39.593104923540444 ], [ -86.652837185488096, 39.593280712985532 ], [ -86.652911213088288, 39.593470152636549 ], [ -86.652925073840748, 39.593609855309595 ], [ -86.652902607744565, 39.593735933862817 ], [ -86.652820019196483, 39.593803265159345 ], [ -86.652371145062062, 39.593901037555966 ], [ -86.652214288570605, 39.593972651406695 ], [ -86.652116413386565, 39.594039936443657 ], [ -86.651966519609871, 39.594174643627262 ], [ -86.65189162076156, 39.594305070111645 ], [ -86.651861235929559, 39.594413103915642 ], [ -86.651882757048668, 39.594476241214686 ], [ -86.651957076381166, 39.594607114689317 ], [ -86.65203137345145, 39.594742493248511 ], [ -86.652082378048235, 39.594877802016356 ], [ -86.65203716477339, 39.59503985386754 ], [ -86.651976732972784, 39.595188344512614 ], [ -86.65192281331494, 39.59549003145527 ], [ -86.651952138863933, 39.595593738914822 ], [ -86.652034054157625, 39.595661562262094 ], [ -86.65213059536957, 39.595715913738175 ], [ -86.652249769466437, 39.595756817270619 ], [ -86.652429472682229, 39.595775375753398 ], [ -86.652615659661251, 39.595807468944301 ], [ -86.652787063711912, 39.595884569668186 ], [ -86.652935902927794, 39.595961602741561 ], [ -86.652987817912489, 39.596060872204021 ], [ -86.653106835806241, 39.596133310792133 ], [ -86.653211452949293, 39.596174169877052 ], [ -86.653405760668434, 39.596183760036865 ], [ -86.65359226336885, 39.59615277980042 ], [ -86.653839339567298, 39.596090443334838 ], [ -86.654138097005927, 39.596028260187182 ], [ -86.654332471634021, 39.596024333394787 ], [ -86.654608215645268, 39.596052184582014 ], [ -86.654839288959622, 39.596133964833029 ], [ -86.655040205531705, 39.596278727903403 ], [ -86.655144555960447, 39.596373646860499 ], [ -86.655189150576575, 39.596481904011064 ], [ -86.655180093619123, 39.596693621539529 ], [ -86.6551486628275, 39.597013397454383 ], [ -86.655110332321229, 39.597256564470371 ], [ -86.655113346340571, 39.597382719004024 ], [ -86.655220869089078, 39.597572256480369 ], [ -86.655414265745506, 39.597766553752741 ], [ -86.655652223451426, 39.597929446373222 ], [ -86.655778348239167, 39.598037944863989 ], [ -86.655867438001223, 39.598128312738488 ], [ -86.655896815109728, 39.59822300891998 ], [ -86.656112224503261, 39.59853000017079 ], [ -86.656237972486309, 39.598715085414881 ], [ -86.656408920272341, 39.598886788591088 ], [ -86.656617899905996, 39.599022562326553 ], [ -86.656796395651682, 39.59914022485291 ], [ -86.656937633449303, 39.599284808292978 ], [ -86.656959355207576, 39.599456069954101 ], [ -86.656913111087221, 39.599681193313899 ], [ -86.65687476297785, 39.599928865952592 ], [ -86.656850801540571, 39.600063951118514 ], [ -86.656938917295349, 39.600352543956191 ], [ -86.657020659913414, 39.60060507632403 ], [ -86.65696799690005, 39.600803149530535 ], [ -86.656861708859822, 39.600951507185748 ], [ -86.656744300738396, 39.601140378659167 ], [ -86.650895220023074, 39.601100425842667 ], [ -86.6320812125511, 39.601006332765124 ], [ -86.631829504911437, 39.600973999095771 ], [ -86.613287236021705, 39.600855197577886 ], [ -86.613107480486875, 39.60084558877945 ], [ -86.594376394693356, 39.600786213154336 ], [ -86.575646328552423, 39.600804914933633 ], [ -86.55966260320622, 39.600754449603564 ], [ -86.559274604696455, 39.600752978518507 ], [ -86.540716775036444, 39.600708135102202 ], [ -86.521990889575292, 39.600758750267055 ], [ -86.503193391996803, 39.600742968511874 ], [ -86.502862015437401, 39.600764077030107 ], [ -86.502439485503501, 39.600764837132871 ], [ -86.512328835788551, 39.579017099088297 ], [ -86.512311887150943, 39.564445216530622 ], [ -86.516923861595203, 39.564438032881085 ], [ -86.516956289732263, 39.557154364798023 ], [ -86.521610498015349, 39.557189969279477 ], [ -86.521653958100217, 39.549913228272352 ], [ -86.528891663290153, 39.549979927949686 ], [ -86.535884049383469, 39.550032778713025 ], [ -86.540628866885001, 39.542761405540908 ], [ -86.540636305521218, 39.535433265662881 ], [ -86.544083838179859, 39.53550505945767 ], [ -86.558935223216025, 39.521058893084259 ], [ -86.559002853172572, 39.506131979398944 ], [ -86.549575811977292, 39.50605308449191 ], [ -86.549547714572924, 39.500532048273165 ], [ -86.549370831610801, 39.500384716517452 ], [ -86.547271909896253, 39.500301009282332 ], [ -86.547109727580747, 39.499634715960816 ], [ -86.54661227828214, 39.499405180288875 ], [ -86.546651576478027, 39.498176279708119 ], [ -86.542970900251021, 39.49497005645415 ], [ -86.549566160732383, 39.491466126107497 ], [ -86.549556573800515, 39.479425065613775 ], [ -86.554727262771237, 39.480356128012971 ], [ -86.554843453839254, 39.483725169466403 ], [ -86.555971503761313, 39.483996149871047 ], [ -86.556510160545088, 39.486771292982809 ], [ -86.557785822308588, 39.48729164497427 ], [ -86.562469771323663, 39.488345667447248 ], [ -86.566967121396857, 39.489977689144581 ], [ -86.568799252371591, 39.491251651106673 ], [ -86.563896860763222, 39.469454795499956 ], [ -86.575425760530592, 39.462591700221061 ], [ -86.584824833283236, 39.462532509890032 ], [ -86.584908722555596, 39.459026425873731 ], [ -86.589564570555297, 39.458982534041283 ], [ -86.589555185869855, 39.455375106030033 ], [ -86.603781893565511, 39.455537031086898 ], [ -86.605841445814505, 39.453235015247074 ], [ -86.608561086205199, 39.452799796926243 ], [ -86.608441474790936, 39.448299266776544 ], [ -86.608375394722145, 39.443995480145446 ], [ -86.608701329163821, 39.441054561464718 ], [ -86.612862135914114, 39.441095156134821 ], [ -86.613128892427298, 39.428101525257318 ], [ -86.61490782167651, 39.426531599704987 ], [ -86.622387681631437, 39.426552471781484 ], [ -86.622450164965741, 39.433769260467848 ], [ -86.631677411476957, 39.43377968039961 ] ] ] } },
{ "type": "Feature", "properties": { "Id": 4, "Name": "Highland Creek Hills", "Alt_Name": "Morgan Hills", "longitude": null, "Region_Description": "This region is very hilly, with a relief of 245 ft. It is bounded by siltstone and shale hills to the east, and sandy loam and till to the west. No high-capacity wells are in this region due to most of the unconsolidated sediment being till. The west side of Brooklyn Township is on the eastern border of this region. Several karst features have developed along the transition between the Tipton Till and Morgan Hills." }, "geometry": { "type": "Polygon", "coordinates": [ [ [ -86.416273997919916, 39.578475210046641 ], [ -86.415900103991476, 39.57650967903237 ], [ -86.411017994936756, 39.576787137470163 ], [ -86.403468015063112, 39.569498215173567 ], [ -86.398586355211478, 39.569775154990602 ], [ -86.39083446268792, 39.569323396131303 ], [ -86.388145683409405, 39.566829910341049 ], [ -86.379437511229469, 39.555467670865852 ], [ -86.380100105882931, 39.550226393676859 ], [ -86.3696336523561, 39.551312930504572 ], [ -86.36959749281651, 39.551083323465519 ], [ -86.371167974994876, 39.551091831077791 ], [ -86.371207355045996, 39.546729311650516 ], [ -86.375663894115505, 39.546773664028279 ], [ -86.375544298445163, 39.543626130051372 ], [ -86.378721369292023, 39.543700371732434 ], [ -86.378813119831733, 39.541698293713139 ], [ -86.372679822998904, 39.541665353551068 ], [ -86.372764533619616, 39.540464269597507 ], [ -86.371582232858785, 39.540457883506178 ], [ -86.371522787658236, 39.538855506970307 ], [ -86.372275623684018, 39.537314735747472 ], [ -86.373539990742927, 39.536406096402892 ], [ -86.375838252609057, 39.535560215687291 ], [ -86.376352913333434, 39.535849059639744 ], [ -86.380193615073267, 39.536041251571923 ], [ -86.380801324190941, 39.535943885094213 ], [ -86.380467342337383, 39.530220471740471 ], [ -86.37724773833709, 39.528772858522871 ], [ -86.377655415906716, 39.526212224577328 ], [ -86.379514383603848, 39.524369582147393 ], [ -86.381091885043006, 39.523519745220682 ], [ -86.382706339188388, 39.523707130845153 ], [ -86.384728783695138, 39.524754900665506 ], [ -86.385748137156128, 39.52501359335907 ], [ -86.386731494568195, 39.525209506757683 ], [ -86.387842174032642, 39.524929278818405 ], [ -86.389381707603405, 39.524889695526284 ], [ -86.390976556982153, 39.5255655871049 ], [ -86.391093857599444, 39.526233726606364 ], [ -86.390528928087619, 39.527470455140524 ], [ -86.390026797840349, 39.528564469166035 ], [ -86.391620488875347, 39.529383386624822 ], [ -86.392645334735647, 39.527653181500256 ], [ -86.393579209659762, 39.526466048267373 ], [ -86.394996470346555, 39.52633039204143 ], [ -86.395667083000077, 39.527096766089159 ], [ -86.39578153832791, 39.528098648455703 ], [ -86.39540262253081, 39.529193326171637 ], [ -86.395703851853781, 39.529957777894303 ], [ -86.396924922813028, 39.531156127575372 ], [ -86.396972881130807, 39.532729826894041 ], [ -86.39857086375757, 39.533071868069605 ], [ -86.399994406456003, 39.532220979086333 ], [ -86.399078648366341, 39.531310322409865 ], [ -86.39866784153115, 39.529503497334083 ], [ -86.398725430221717, 39.528180665606833 ], [ -86.399607080540193, 39.527684578896263 ], [ -86.401129640157549, 39.527835473922337 ], [ -86.402417650149971, 39.528414266712652 ], [ -86.403617000136606, 39.528563467191034 ], [ -86.403988548349815, 39.528315050928292 ], [ -86.404224928470512, 39.527672577771376 ], [ -86.405082169294118, 39.52702533642789 ], [ -86.406399088072234, 39.526018860662781 ], [ -86.407943294563097, 39.525430730965766 ], [ -86.408337181542507, 39.524359927533943 ], [ -86.408045045638673, 39.522510824533256 ], [ -86.407671923184111, 39.521138111892128 ], [ -86.406069132349387, 39.519580320182776 ], [ -86.405076407444142, 39.518681235865202 ], [ -86.404855732506448, 39.517488095220898 ], [ -86.406056050151165, 39.516598735421802 ], [ -86.410458345939247, 39.514690084542487 ], [ -86.412400066887201, 39.514378071784655 ], [ -86.412906094511484, 39.51459519055468 ], [ -86.412899773268009, 39.515346126242527 ], [ -86.412616444790743, 39.516095662550498 ], [ -86.413722068058604, 39.516387326434689 ], [ -86.415335851096685, 39.516645776227683 ], [ -86.415570887432679, 39.516146313047926 ], [ -86.415715981848948, 39.515360314433053 ], [ -86.415120004367026, 39.514856672461541 ], [ -86.415044565008131, 39.512841791947778 ], [ -86.415433869526339, 39.510459724410659 ], [ -86.416400426693812, 39.508970590438139 ], [ -86.418409773866998, 39.507907847388573 ], [ -86.421427140000432, 39.505896478725006 ], [ -86.424068522045502, 39.502810355323611 ], [ -86.425240432875583, 39.500900586164569 ], [ -86.42658059365246, 39.499591218298661 ], [ -86.428727900699741, 39.498915187716605 ], [ -86.429557093336967, 39.496859454915182 ], [ -86.430098793528018, 39.493829620707338 ], [ -86.430716592989214, 39.490819227194692 ], [ -86.432583959053119, 39.488205915264459 ], [ -86.435121847253242, 39.486358723283345 ], [ -86.436418234772944, 39.485840525661281 ], [ -86.438744902577383, 39.487282202168416 ], [ -86.439162986540893, 39.488857684046792 ], [ -86.442548846208126, 39.488683243059178 ], [ -86.442761227468537, 39.485203565639885 ], [ -86.441907046114792, 39.484293534253212 ], [ -86.4403206590233, 39.482617081916402 ], [ -86.43970988890301, 39.478217970064208 ], [ -86.439154220142186, 39.475202339243943 ], [ -86.439097898843556, 39.472639221382792 ], [ -86.440297702164429, 39.466863693760274 ], [ -86.442431443721631, 39.459650279498902 ], [ -86.442258409969313, 39.456092485157953 ], [ -86.442597279189357, 39.45409150700003 ], [ -86.4434460743268, 39.451771121365347 ], [ -86.444053385526402, 39.450808484677324 ], [ -86.44652263935177, 39.447709071776984 ], [ -86.446801772096521, 39.446241822157454 ], [ -86.447195250945242, 39.44314442081982 ], [ -86.448133829899064, 39.441098589229988 ], [ -86.450345756519653, 39.438725750429036 ], [ -86.453909317955734, 39.435166447028351 ], [ -86.456386834115847, 39.43285359314708 ], [ -86.459167450462772, 39.431078508841487 ], [ -86.461725388981961, 39.430398614372351 ], [ -86.464883644692577, 39.429459561181069 ], [ -86.468273274523725, 39.428402276581949 ], [ -86.469746083791634, 39.426740154725579 ], [ -86.472139187984467, 39.425320599896075 ], [ -86.472126117117341, 39.425388218938025 ], [ -86.479415948493966, 39.423484023355904 ], [ -86.479603830047083, 39.422863022428849 ], [ -86.48201197163678, 39.421443330078205 ], [ -86.48349791693137, 39.420019496413843 ], [ -86.484064885033547, 39.418162438745142 ], [ -86.485006957369976, 39.415448773571867 ], [ -86.487970038755904, 39.413745322063086 ], [ -86.493690684486566, 39.413198182886781 ], [ -86.49885599331914, 39.41293445989708 ], [ -86.502186411393367, 39.411375270793862 ], [ -86.506260308601767, 39.408960876591046 ], [ -86.51014053336425, 39.407832923587577 ], [ -86.510095449979531, 39.418343977532587 ], [ -86.509854077125866, 39.419892606671226 ], [ -86.509063917814103, 39.422988565175089 ], [ -86.509442711657726, 39.423764985552786 ], [ -86.510447130218694, 39.422994394532921 ], [ -86.51076367810407, 39.42168448813068 ], [ -86.512007724077463, 39.419603652157583 ], [ -86.513925862727618, 39.420028895103307 ], [ -86.512448011253198, 39.422585585742482 ], [ -86.513210653897204, 39.423423203866236 ], [ -86.514359615921379, 39.423964421752935 ], [ -86.514816974083175, 39.424502745727345 ], [ -86.514963231068307, 39.425576186495533 ], [ -86.515884582782149, 39.425699227991984 ], [ -86.516998740448315, 39.425353202761691 ], [ -86.519947243759461, 39.42572301834813 ], [ -86.522065324666741, 39.426160872362161 ], [ -86.523547152306222, 39.425237164347344 ], [ -86.525856462746646, 39.424674423402656 ], [ -86.528817508544947, 39.423184490860876 ], [ -86.530946053128233, 39.422058275439177 ], [ -86.531088226604595, 39.422859896366319 ], [ -86.531675717460431, 39.423262786876251 ], [ -86.532269334357551, 39.422750215984067 ], [ -86.532645451495569, 39.421664591348502 ], [ -86.53213785854696, 39.420346543583989 ], [ -86.533694246830066, 39.419265655966832 ], [ -86.535022825154641, 39.419156538469075 ], [ -86.536418723822649, 39.420020375547843 ], [ -86.53767392215201, 39.419853717625699 ], [ -86.538562914657035, 39.419285069958953 ], [ -86.539599803415939, 39.418659783088536 ], [ -86.539382267903321, 39.418086744454918 ], [ -86.53895168988042, 39.417193395406123 ], [ -86.539725568162538, 39.416362034127374 ], [ -86.54341535775599, 39.416138166996618 ], [ -86.544793014857589, 39.416977991779177 ], [ -86.545243205162109, 39.418648603950921 ], [ -86.544773631680016, 39.419958007438247 ], [ -86.546770757051078, 39.420085009154498 ], [ -86.548468210847304, 39.419018777321824 ], [ -86.547489975257733, 39.415230376869644 ], [ -86.545036769448885, 39.414362541717409 ], [ -86.542963640383178, 39.411779614278991 ], [ -86.54470517081694, 39.408639461907455 ], [ -86.546680040103467, 39.407407453497534 ], [ -86.54791231524473, 39.409379634024802 ], [ -86.549200767019215, 39.409742245352099 ], [ -86.550125956532014, 39.409245170484404 ], [ -86.551880896497167, 39.408751287221669 ], [ -86.553351469165321, 39.409472165619754 ], [ -86.554627211189526, 39.411837292741879 ], [ -86.555721356113978, 39.413772578069938 ], [ -86.557280206093992, 39.415137443933773 ], [ -86.559928486106983, 39.417271702989424 ], [ -86.561950779735326, 39.418280646844856 ], [ -86.563359291087849, 39.419144208850831 ], [ -86.564034902214289, 39.419242105722034 ], [ -86.565326433643421, 39.419151575775984 ], [ -86.567665067296545, 39.418731157247201 ], [ -86.56846686058897, 39.418305000840739 ], [ -86.570558681336848, 39.41802665267894 ], [ -86.573946333131829, 39.416942434255624 ], [ -86.574938323966975, 39.416566995018982 ], [ -86.575343053204577, 39.416757369445108 ], [ -86.578682877951664, 39.414879277988007 ], [ -86.578046122212641, 39.412936830265977 ], [ -86.578457931554354, 39.408348972060416 ], [ -86.578995381741166, 39.408410520193101 ], [ -86.580296844790311, 39.409190048395963 ], [ -86.581295644442477, 39.409193647374011 ], [ -86.581146261871694, 39.408477885826819 ], [ -86.578394022301438, 39.406203068584425 ], [ -86.578788557238084, 39.404476039159427 ], [ -86.582201953252337, 39.398945355566831 ], [ -86.583067281506814, 39.397233927622679 ], [ -86.584202326580851, 39.392374455449691 ], [ -86.586240310767565, 39.390665178088732 ], [ -86.589176412070813, 39.392964305356131 ], [ -86.593045296725037, 39.393407037164963 ], [ -86.600985496558934, 39.391145814323338 ], [ -86.604463047791114, 39.395592090028799 ], [ -86.603937471232399, 39.39072676434656 ], [ -86.609693628506619, 39.38330785495436 ], [ -86.613568426376105, 39.382605560172784 ], [ -86.625386619027708, 39.378638931197806 ], [ -86.630793561083124, 39.376159239649027 ], [ -86.630834767329546, 39.38458233011427 ], [ -86.630964131974096, 39.399013396902554 ], [ -86.631163284591381, 39.413570798666747 ], [ -86.630791223684852, 39.426572013774205 ], [ -86.631618813257603, 39.426615185505469 ], [ -86.631677411476929, 39.433779680399653 ], [ -86.622450164965741, 39.433769260467848 ], [ -86.622387681631409, 39.426552471781484 ], [ -86.61490782167651, 39.426531599705015 ], [ -86.613128892427298, 39.428101525257318 ], [ -86.612862135914114, 39.441095156134821 ], [ -86.608701329163807, 39.441054561464753 ], [ -86.608375394722117, 39.443995480145503 ], [ -86.60844147479088, 39.448299266776544 ], [ -86.608561086205199, 39.452799796926271 ], [ -86.605841445814505, 39.453235015247074 ], [ -86.603781893565511, 39.455537031086898 ], [ -86.589555185869855, 39.455375106030068 ], [ -86.589564570555297, 39.458982534041283 ], [ -86.584908722555596, 39.459026425873759 ], [ -86.584824833283236, 39.462532509890032 ], [ -86.575425760530592, 39.462591700221061 ], [ -86.563896860763222, 39.469454795499956 ], [ -86.568799252371576, 39.491251651106708 ], [ -86.566967121396857, 39.489977689144581 ], [ -86.562469771323663, 39.488345667447248 ], [ -86.55778582230856, 39.48729164497427 ], [ -86.556510160545059, 39.486771292982844 ], [ -86.555971503761285, 39.483996149871047 ], [ -86.554843453839254, 39.483725169466403 ], [ -86.554727262771237, 39.480356128013007 ], [ -86.549556573800487, 39.47942506561381 ], [ -86.549566160732368, 39.491466126107497 ], [ -86.542970900250992, 39.49497005645415 ], [ -86.546651576478027, 39.498176279708147 ], [ -86.54661227828214, 39.49940518028891 ], [ -86.547109727580747, 39.499634715960816 ], [ -86.547271909896253, 39.500301009282374 ], [ -86.549370831610744, 39.500384716517452 ], [ -86.549547714572924, 39.500532048273165 ], [ -86.549575811977263, 39.506053084491931 ], [ -86.559002853172544, 39.50613197939898 ], [ -86.558935223216025, 39.521058893084309 ], [ -86.54408383817983, 39.535505059457755 ], [ -86.540636305521218, 39.535433265662952 ], [ -86.540628866885001, 39.542761405540908 ], [ -86.535884049383412, 39.550032778713074 ], [ -86.528891663290153, 39.549979927949686 ], [ -86.521769914427722, 39.549914300430913 ], [ -86.521215304468228, 39.549571611703172 ], [ -86.512432188518048, 39.549988253318354 ], [ -86.512201112345451, 39.555123026973121 ], [ -86.501858400189249, 39.555230209116914 ], [ -86.498341793426604, 39.555819288136682 ], [ -86.498139047245388, 39.556875770628011 ], [ -86.484282612568393, 39.557117213338614 ], [ -86.48444505953664, 39.56431462121099 ], [ -86.473974794100542, 39.564029301113614 ], [ -86.469358422242379, 39.563531512941033 ], [ -86.460116640133691, 39.563727348879468 ], [ -86.442127845771509, 39.563856950824707 ], [ -86.441332520169553, 39.573150748373294 ], [ -86.435911033132996, 39.573124558611667 ], [ -86.436360648608201, 39.578466903043697 ], [ -86.423050788754239, 39.578592303054947 ], [ -86.416273997919916, 39.578475210046641 ] ] ] } },
{ "type": "Feature", "properties": { "Id": 2, "Name": "South Morgan Upland", "Alt_Name": "Norman Upland", "longitude": null, "Region_Description": "This region makes up the southern edge of the county and is bounded by the alluvial floodplains of the White River to the north. The region is distinguishable from surrounding regions by high hilly relief of 143 ft with lots of drainageways. The lithology of the area is mainly exposed Borden siltstone and shale with areas of sandy loam and terra rosa in the southwest corner of the county. No townships or high-capacity wells are in this region." }, "geometry": { "type": "Polygon", "coordinates": [ [ [ -86.251516380613538, 39.365249038186974 ], [ -86.251474829932889, 39.356521359123938 ], [ -86.251534423694011, 39.341825350683983 ], [ -86.27014873427926, 39.341587644950152 ], [ -86.270281543044419, 39.341579467013936 ], [ -86.288869206261907, 39.341383652801866 ], [ -86.289242785762127, 39.341376924069799 ], [ -86.307637286882397, 39.341122867861749 ], [ -86.308580339425177, 39.341101441869462 ], [ -86.326340943430864, 39.340836156079789 ], [ -86.327395413383428, 39.340842254531651 ], [ -86.344902851023619, 39.34049157581925 ], [ -86.346125181232665, 39.340462406375302 ], [ -86.362362367222289, 39.340128989585203 ], [ -86.36236228535806, 39.340137999855635 ], [ -86.381327496616777, 39.339830365959635 ], [ -86.381484789390754, 39.33984021266096 ], [ -86.400191930344391, 39.339501100275143 ], [ -86.418511998986872, 39.33911649894074 ], [ -86.418855750902239, 39.339118215791373 ], [ -86.437075937308293, 39.338775246698823 ], [ -86.437527128636873, 39.338763911850869 ], [ -86.455645050871084, 39.338399519499013 ], [ -86.456228986350752, 39.338384227507667 ], [ -86.464972835292926, 39.338240028367288 ], [ -86.483003804904527, 39.338420632960897 ], [ -86.483544583741349, 39.338454571384531 ], [ -86.499512340594151, 39.338636961708751 ], [ -86.502586388390853, 39.338672666266298 ], [ -86.512600561293738, 39.338773601368118 ], [ -86.518227009867346, 39.338878123028302 ], [ -86.518222026075108, 39.338864586246849 ], [ -86.521306853894274, 39.338917862549621 ], [ -86.536669151837998, 39.339115190799625 ], [ -86.53974122127471, 39.3391273792801 ], [ -86.555747390200139, 39.339365282314724 ], [ -86.558780032824799, 39.339421871687783 ], [ -86.574565530097644, 39.339714920361168 ], [ -86.592903308885383, 39.340014783095704 ], [ -86.593416729001135, 39.340025588475896 ], [ -86.611915024118062, 39.340314005869729 ], [ -86.612097836449024, 39.340305604478189 ], [ -86.612128271967805, 39.340310211300029 ], [ -86.630226131616439, 39.340783610171748 ], [ -86.630867304026921, 39.340776634572158 ], [ -86.630812745798707, 39.346423448014576 ], [ -86.628812692478007, 39.346604419413524 ], [ -86.624571570977707, 39.347306048517176 ], [ -86.621615373751837, 39.348869985633399 ], [ -86.618374125623305, 39.352006422070517 ], [ -86.615609679030086, 39.352140370866827 ], [ -86.610622375395351, 39.354412531788235 ], [ -86.606282055496465, 39.356257529710049 ], [ -86.603517016330102, 39.356462711904804 ], [ -86.60158152024205, 39.356599148132936 ], [ -86.600286837914638, 39.357452985321714 ], [ -86.599169435712213, 39.359523310092605 ], [ -86.596394369895094, 39.361444840174251 ], [ -86.594175283982949, 39.362796059602871 ], [ -86.592332563906794, 39.362789619087579 ], [ -86.587750572047057, 39.358553621927271 ], [ -86.58518488115773, 39.356184245514243 ], [ -86.581696416617561, 39.354097591120969 ], [ -86.579574554072209, 39.354590606681136 ], [ -86.575976489396808, 39.355435829592317 ], [ -86.572927618380248, 39.356855141672717 ], [ -86.570892692429865, 39.358820802152273 ], [ -86.568348098901026, 39.360599466020638 ], [ -86.565886796807348, 39.361305540244864 ], [ -86.564023742998216, 39.36457670921601 ], [ -86.562095640762138, 39.365940325145075 ], [ -86.558245219942592, 39.36771384390272 ], [ -86.556322954102527, 39.368123747509941 ], [ -86.554864787129432, 39.367998974233892 ], [ -86.55226702725038, 39.365962527944788 ], [ -86.550056381735047, 39.363450701417527 ], [ -86.548594487083392, 39.363921859224817 ], [ -86.547136037190796, 39.363856590497342 ], [ -86.546686141055588, 39.362185971701628 ], [ -86.545971234802565, 39.361674080844516 ], [ -86.544823815707517, 39.36101397210696 ], [ -86.543519373139716, 39.360889657983364 ], [ -86.542913699850885, 39.359576027413354 ], [ -86.541921062265558, 39.358737690451967 ], [ -86.54092922860498, 39.35778014323482 ], [ -86.540783875297834, 39.356527918340973 ], [ -86.539483045490144, 39.355867151188434 ], [ -86.537869265657065, 39.356099164115172 ], [ -86.537172024272309, 39.357050032567635 ], [ -86.53870121554975, 39.358009743007614 ], [ -86.540304098798387, 39.359446543807401 ], [ -86.54068173236675, 39.36040167359667 ], [ -86.539980575983833, 39.361948566738221 ], [ -86.536295995719314, 39.361814738917538 ], [ -86.535221888937329, 39.36169124935406 ], [ -86.529381149160926, 39.362502209559928 ], [ -86.528532973563443, 39.363035197811087 ], [ -86.527434200567498, 39.363608884118158 ], [ -86.524670113486579, 39.363597627052819 ], [ -86.523376317702756, 39.364164517937596 ], [ -86.522724057120968, 39.365234686853015 ], [ -86.520786219692638, 39.365655859925354 ], [ -86.518095514159086, 39.368362614058405 ], [ -86.518358183931511, 39.370366338355034 ], [ -86.518797799180632, 39.373443633772311 ], [ -86.513417409382527, 39.378570891229955 ], [ -86.510748887829038, 39.377987520934376 ], [ -86.508348344734074, 39.378621106529472 ], [ -86.499132269130769, 39.37865332451674 ], [ -86.49719751401409, 39.378573457900927 ], [ -86.494345853918389, 39.377845875031412 ], [ -86.493154568971846, 39.376910898493122 ], [ -86.492245470965727, 39.37519039260075 ], [ -86.491033010301962, 39.374008945953896 ], [ -86.489009546687512, 39.373475578738478 ], [ -86.489392380951784, 39.371522306948087 ], [ -86.487126420008977, 39.370558706678715 ], [ -86.487087664138897, 39.367459219649099 ], [ -86.486047652867555, 39.366483665814542 ], [ -86.488071421986149, 39.362737642417116 ], [ -86.489164559980566, 39.360239148725746 ], [ -86.488337850694663, 39.357791821044827 ], [ -86.488120579586862, 39.356002794796098 ], [ -86.485212888987633, 39.354678717278119 ], [ -86.482655303854372, 39.357945505807798 ], [ -86.481713761860206, 39.360683023386564 ], [ -86.482232715688767, 39.363188629927322 ], [ -86.481531126604438, 39.36461596096801 ], [ -86.480348937088181, 39.368723243022188 ], [ -86.477567864181637, 39.374057107565541 ], [ -86.477303148969128, 39.372482421428835 ], [ -86.477421420125353, 39.3689783432974 ], [ -86.477079520842622, 39.36540067334446 ], [ -86.476269510468228, 39.362822212899559 ], [ -86.47453074528201, 39.361240874518749 ], [ -86.472601881582406, 39.360445398915637 ], [ -86.470576072515854, 39.360293155141328 ], [ -86.465780899266861, 39.360843423836435 ], [ -86.462643488571828, 39.36147268386798 ], [ -86.460326966309083, 39.363178509261459 ], [ -86.458277901448923, 39.36602989568236 ], [ -86.456966914357068, 39.368741645573884 ], [ -86.455660822844862, 39.370809698847694 ], [ -86.454073755616193, 39.373448599154095 ], [ -86.454610060427129, 39.377951311319663 ], [ -86.454068147543225, 39.381267413043425 ], [ -86.452258008177509, 39.38646573843824 ], [ -86.451197074657145, 39.390122684309148 ], [ -86.448140544886144, 39.394342348015869 ], [ -86.447098243110332, 39.395596191567982 ], [ -86.445958560444581, 39.396725589845282 ], [ -86.443133130035207, 39.399630207670825 ], [ -86.442167596880822, 39.400483848670817 ], [ -86.440226671059719, 39.400683481623219 ], [ -86.437530274260638, 39.399716847858457 ], [ -86.434581238025899, 39.399603375884233 ], [ -86.433257981130666, 39.399081977769924 ], [ -86.432378603223952, 39.398391077763399 ], [ -86.428928009170306, 39.396486005928516 ], [ -86.423123095061058, 39.393939786679269 ], [ -86.42091894620178, 39.392956134969268 ], [ -86.419802441123878, 39.394209363818923 ], [ -86.41913830740792, 39.394263267849446 ], [ -86.417300520110814, 39.393567465071257 ], [ -86.414125906749547, 39.394009264793247 ], [ -86.412954224341675, 39.393030656867566 ], [ -86.41274691860562, 39.391370295144249 ], [ -86.41282784893896, 39.390512436732024 ], [ -86.411214795076219, 39.38941714707034 ], [ -86.41089810332474, 39.387617951184474 ], [ -86.409905961086025, 39.385038121370854 ], [ -86.410287853838142, 39.383466566600426 ], [ -86.411766026200354, 39.383044914797566 ], [ -86.409841506749913, 39.381747767620524 ], [ -86.410037865373695, 39.380318316322551 ], [ -86.40848327872871, 39.378879976609731 ], [ -86.407573219760536, 39.377516421556706 ], [ -86.407864179332037, 39.375801364940401 ], [ -86.408886278965625, 39.374805247732169 ], [ -86.409910155676826, 39.373594562991521 ], [ -86.409325624239187, 39.372876295074981 ], [ -86.406306121937902, 39.372517621082409 ], [ -86.406100967262333, 39.370628381329333 ], [ -86.403543337368504, 39.367983272719428 ], [ -86.403412419898245, 39.367101444423611 ], [ -86.4054540330729, 39.365395352643283 ], [ -86.406444090483689, 39.364542136208193 ], [ -86.408727224237367, 39.363314034612152 ], [ -86.409467910828496, 39.36288866014803 ], [ -86.409169235143608, 39.361885828063073 ], [ -86.408371158160122, 39.361834091775073 ], [ -86.406768554423977, 39.362493477370371 ], [ -86.405845608738559, 39.36267949570658 ], [ -86.403807328045872, 39.364004158887539 ], [ -86.402565456748178, 39.365571285663513 ], [ -86.400895177333382, 39.366945467185026 ], [ -86.399785022795356, 39.367464244803877 ], [ -86.398924646386945, 39.367507485605053 ], [ -86.397336579351148, 39.366450275504619 ], [ -86.397288678984125, 39.364876532274472 ], [ -86.398100287461503, 39.363354918994418 ], [ -86.399059679930616, 39.362323992303203 ], [ -86.400627463257777, 39.362153271200931 ], [ -86.401643971422203, 39.361800889374948 ], [ -86.402848386559199, 39.361020327528252 ], [ -86.403502428317324, 39.359950842970449 ], [ -86.402392607294686, 39.360445807262785 ], [ -86.400820283260771, 39.361152948233169 ], [ -86.399531366272981, 39.361039020978446 ], [ -86.398109781860953, 39.360280690238589 ], [ -86.398024711680364, 39.359457740562874 ], [ -86.398497623718214, 39.358029733935474 ], [ -86.398869503085095, 39.357638281087617 ], [ -86.398644092532237, 39.357064935650101 ], [ -86.398696593329007, 39.356314219414486 ], [ -86.398515410402808, 39.355955670007653 ], [ -86.39698552248781, 39.357092114857345 ], [ -86.395739052648665, 39.357407501293814 ], [ -86.394453918215063, 39.35686440193728 ], [ -86.394142290405028, 39.35561113429803 ], [ -86.394702130388609, 39.35479153720599 ], [ -86.395012125309179, 39.353920572902958 ], [ -86.395579644276339, 39.352206977947233 ], [ -86.395708630769008, 39.351492421046402 ], [ -86.394240912998072, 39.350769564203169 ], [ -86.393940857353826, 39.349957411635394 ], [ -86.391674030360292, 39.349325721917275 ], [ -86.391809250634964, 39.347895974611276 ], [ -86.390717965480718, 39.346269085224989 ], [ -86.390176899919268, 39.344931160479 ], [ -86.38757511391735, 39.342243342917087 ], [ -86.386186016216342, 39.343094298493874 ], [ -86.386990614123036, 39.345887925795857 ], [ -86.388264577589538, 39.347682696631999 ], [ -86.388060389738669, 39.349970349229608 ], [ -86.387122358063394, 39.351896525127572 ], [ -86.384546904718448, 39.352900144862595 ], [ -86.381164966383352, 39.353359028597573 ], [ -86.379692302697165, 39.353208143404423 ], [ -86.378900681099537, 39.352441013486199 ], [ -86.378623371698438, 39.351102457445855 ], [ -86.378936761703642, 39.350388903841171 ], [ -86.377408360951776, 39.349605909023353 ], [ -86.37618545305169, 39.349003338586492 ], [ -86.37473599944758, 39.34798232290126 ], [ -86.373058438218592, 39.346721651652196 ], [ -86.371362248371796, 39.347546933410676 ], [ -86.369003140773415, 39.349969433452067 ], [ -86.367446824224814, 39.350933692663503 ], [ -86.364517216795434, 39.348915099873636 ], [ -86.361368793128463, 39.34666636015772 ], [ -86.359759118231466, 39.345398717858501 ], [ -86.358514272256116, 39.344533591464234 ], [ -86.356602086922138, 39.344122509581972 ], [ -86.357693242309267, 39.345673425755948 ], [ -86.35966924405254, 39.347171984950052 ], [ -86.360396230527002, 39.348263126354418 ], [ -86.360592273421986, 39.351010671551585 ], [ -86.357499760023799, 39.350707549759754 ], [ -86.356011712909066, 39.352244212820239 ], [ -86.353638188015552, 39.353890377841282 ], [ -86.351358355459681, 39.353362731327138 ], [ -86.350042429826971, 39.352211029031466 ], [ -86.349217455839678, 39.35375130552255 ], [ -86.342572988945506, 39.354972756661375 ], [ -86.3379511527814, 39.355833434611696 ], [ -86.335091017096843, 39.354329461484383 ], [ -86.331251694547973, 39.355051296520976 ], [ -86.328005717353719, 39.355375906546016 ], [ -86.324909310255151, 39.355472421874921 ], [ -86.31893312350185, 39.356124216638847 ], [ -86.315425754008686, 39.353013869545649 ], [ -86.312995497082341, 39.352827894986461 ], [ -86.309683170231381, 39.352407769231718 ], [ -86.306443446978861, 39.352102417843518 ], [ -86.303182237626956, 39.351531102180907 ], [ -86.300477077950049, 39.353362535777805 ], [ -86.297318334782261, 39.354475944102617 ], [ -86.295084181838561, 39.357286572029466 ], [ -86.288985145596982, 39.359109048554934 ], [ -86.287310882015703, 39.360672297081194 ], [ -86.284643536643316, 39.360226797743543 ], [ -86.282978656384984, 39.360860251895403 ], [ -86.281791971810904, 39.359780100554374 ], [ -86.279586799003354, 39.359194292338977 ], [ -86.278292615201764, 39.359615406979394 ], [ -86.276267301657938, 39.359459784652174 ], [ -86.274234596516834, 39.360019303273951 ], [ -86.271471522308474, 39.359930516301688 ], [ -86.270269405150458, 39.360352117786547 ], [ -86.267411955588528, 39.360477209157757 ], [ -86.265565566099951, 39.359776097220902 ], [ -86.264321044616196, 39.358967187745691 ], [ -86.264262949348392, 39.357479158430557 ], [ -86.263391781038592, 39.35621485635204 ], [ -86.262143736335346, 39.355749207822221 ], [ -86.26084552512458, 39.353051733048659 ], [ -86.259444730081668, 39.35310004558935 ], [ -86.25972199707445, 39.354761125822357 ], [ -86.260878224103308, 39.356942750682485 ], [ -86.262557044629816, 39.358498280864112 ], [ -86.262674970406977, 39.361302697853034 ], [ -86.265024471960928, 39.362175826450446 ], [ -86.26464095274801, 39.363603846767091 ], [ -86.263082315992477, 39.364623905913845 ], [ -86.261389478152424, 39.364384302798108 ], [ -86.259023625401923, 39.365055874789974 ], [ -86.257095123536899, 39.36618793277416 ], [ -86.254592701299316, 39.365828624176729 ], [ -86.25275610921058, 39.365244668555363 ], [ -86.251516380613538, 39.365249038186974 ] ] ] } },
{ "type": "Feature", "properties": { "Id": 1, "Name": "Lower White River Outwash", "Alt_Name": "Paragon Outwash", "longitude": null, "Region_Description": "This region is the most uniform of the regions, marked by the alluvium and outwash in the White River flood plain. Three high-capacity wells operate in the area: 100 GPM is produced in Paragon Township; 2500 GPM is produced in the two wells on the eastern side of the region." }, "geometry": { "type": "Polygon", "coordinates": [ [ [ -86.578682877951664, 39.414879277988007 ], [ -86.575343053204563, 39.416757369445108 ], [ -86.574938323966975, 39.416566995019025 ], [ -86.573946333131829, 39.416942434255624 ], [ -86.570558681336848, 39.41802665267894 ], [ -86.56846686058897, 39.418305000840739 ], [ -86.567665067296545, 39.418731157247201 ], [ -86.565326433643421, 39.419151575775984 ], [ -86.564034902214289, 39.419242105722034 ], [ -86.563359291087849, 39.419144208850831 ], [ -86.561950779735326, 39.418280646844856 ], [ -86.559928486106983, 39.417271702989424 ], [ -86.557280206093992, 39.415137443933773 ], [ -86.555721356113978, 39.413772578069938 ], [ -86.554627211189526, 39.411837292741879 ], [ -86.553351469165321, 39.409472165619754 ], [ -86.551880896497167, 39.408751287221669 ], [ -86.550125956532014, 39.409245170484404 ], [ -86.549200767019215, 39.409742245352099 ], [ -86.54791231524473, 39.409379634024802 ], [ -86.546680040103467, 39.407407453497534 ], [ -86.54470517081694, 39.408639461907455 ], [ -86.542963640383178, 39.411779614278991 ], [ -86.545036769448885, 39.414362541717409 ], [ -86.547489975257733, 39.415230376869644 ], [ -86.548468210847304, 39.419018777321824 ], [ -86.546770757051078, 39.420085009154498 ], [ -86.544773631680016, 39.419958007438247 ], [ -86.545243205162109, 39.418648603950921 ], [ -86.544793014857589, 39.416977991779177 ], [ -86.54341535775599, 39.416138166996618 ], [ -86.539725568162538, 39.416362034127374 ], [ -86.53895168988042, 39.417193395406123 ], [ -86.539382267903321, 39.418086744454918 ], [ -86.539599803415939, 39.418659783088536 ], [ -86.538562914657049, 39.419285069958953 ], [ -86.53767392215201, 39.419853717625699 ], [ -86.536418723822649, 39.420020375547843 ], [ -86.535022825154641, 39.419156538469075 ], [ -86.533694246830066, 39.419265655966832 ], [ -86.53213785854696, 39.420346543583989 ], [ -86.532645451495569, 39.421664591348502 ], [ -86.532269334357551, 39.422750215984067 ], [ -86.531675717460431, 39.423262786876251 ], [ -86.531088226604595, 39.422859896366319 ], [ -86.530946053128233, 39.422058275439177 ], [ -86.528817508544947, 39.423184490860876 ], [ -86.525856462746646, 39.424674423402656 ], [ -86.523547152306222, 39.425237164347344 ], [ -86.522065324666741, 39.426160872362161 ], [ -86.519947243759461, 39.42572301834813 ], [ -86.516998740448315, 39.425353202761691 ], [ -86.515884582782149, 39.425699227991984 ], [ -86.514963231068307, 39.425576186495533 ], [ -86.514816974083175, 39.424502745727345 ], [ -86.514359615921379, 39.423964421752935 ], [ -86.513210653897204, 39.423423203866236 ], [ -86.512448011253198, 39.422585585742482 ], [ -86.513925862727618, 39.420028895103307 ], [ -86.512007724077463, 39.419603652157583 ], [ -86.51076367810407, 39.42168448813068 ], [ -86.510447130218694, 39.422994394532921 ], [ -86.509442711657726, 39.423764985552786 ], [ -86.509063917814103, 39.422988565175089 ], [ -86.509854077125866, 39.419892606671226 ], [ -86.510095449979531, 39.418343977532587 ], [ -86.51014053336425, 39.407832923587577 ], [ -86.506260308601767, 39.408960876591046 ], [ -86.502186411393367, 39.411375270793862 ], [ -86.49885599331914, 39.41293445989708 ], [ -86.493690684486566, 39.413198182886781 ], [ -86.487970038755904, 39.413745322063086 ], [ -86.485006957369976, 39.415448773571867 ], [ -86.484064885033547, 39.418162438745142 ], [ -86.48349791693137, 39.420019496413843 ], [ -86.48201197163678, 39.421443330078205 ], [ -86.479603830047083, 39.422863022428849 ], [ -86.479415948493966, 39.423484023355904 ], [ -86.472126117117355, 39.425388218938025 ], [ -86.472139187984467, 39.425320599896075 ], [ -86.472084314787296, 39.425353151075669 ], [ -86.472168135765074, 39.425209158851338 ], [ -86.442421245029493, 39.400259597668835 ], [ -86.443133130035179, 39.399630207670846 ], [ -86.445958560444581, 39.396725589845282 ], [ -86.447098243110318, 39.395596191567982 ], [ -86.44814054488613, 39.394342348015869 ], [ -86.451197074657145, 39.390122684309148 ], [ -86.452258008177523, 39.386465738438254 ], [ -86.454068147543239, 39.381267413043425 ], [ -86.454610060427129, 39.377951311319677 ], [ -86.454073755616179, 39.373448599154095 ], [ -86.455660822844862, 39.370809698847715 ], [ -86.456966914357068, 39.368741645573927 ], [ -86.458277901448923, 39.366029895682381 ], [ -86.460326966309083, 39.363178509261495 ], [ -86.462643488571828, 39.361472683867966 ], [ -86.465780899266846, 39.360843423836457 ], [ -86.470576072515854, 39.36029315514137 ], [ -86.472601881582378, 39.360445398915623 ], [ -86.47453074528201, 39.361240874518749 ], [ -86.476269510468228, 39.362822212899559 ], [ -86.477079520842622, 39.365400673344475 ], [ -86.477421420125339, 39.3689783432974 ], [ -86.477303148969128, 39.37248242142887 ], [ -86.477567864181637, 39.374057107565534 ], [ -86.480348937088181, 39.368723243022188 ], [ -86.481531126604423, 39.36461596096801 ], [ -86.482232715688752, 39.363188629927322 ], [ -86.481713761860192, 39.360683023386549 ], [ -86.482655303854372, 39.357945505807812 ], [ -86.485212888987633, 39.354678717278134 ], [ -86.488120579586862, 39.356002794796098 ], [ -86.488337850694663, 39.357791821044827 ], [ -86.489164559980566, 39.360239148725753 ], [ -86.488071421986149, 39.362737642417123 ], [ -86.486047652867555, 39.36648366581457 ], [ -86.487087664138897, 39.367459219649142 ], [ -86.487126420008977, 39.370558706678715 ], [ -86.48939238095177, 39.37152230694808 ], [ -86.489009546687512, 39.373475578738486 ], [ -86.491033010301962, 39.374008945953904 ], [ -86.492245470965727, 39.37519039260075 ], [ -86.493154568971846, 39.376910898493108 ], [ -86.494345853918389, 39.377845875031426 ], [ -86.497197514014076, 39.378573457900913 ], [ -86.499132269130769, 39.378653324516733 ], [ -86.508348344734046, 39.378621106529494 ], [ -86.510748887829038, 39.377987520934376 ], [ -86.513417409382512, 39.37857089122997 ], [ -86.518797799180618, 39.373443633772347 ], [ -86.518358183931511, 39.370366338355019 ], [ -86.518095514159086, 39.368362614058412 ], [ -86.520786219692638, 39.365655859925397 ], [ -86.522724057120939, 39.365234686853007 ], [ -86.523376317702756, 39.364164517937603 ], [ -86.524670113486565, 39.363597627052819 ], [ -86.527434200567484, 39.3636088841182 ], [ -86.528532973563443, 39.363035197811065 ], [ -86.529381149160926, 39.362502209559928 ], [ -86.535221888937329, 39.361691249354053 ], [ -86.536295995719328, 39.361814738917538 ], [ -86.539980575983819, 39.361948566738256 ], [ -86.54068173236675, 39.360401673596691 ], [ -86.540304098798387, 39.359446543807444 ], [ -86.53870121554975, 39.358009743007628 ], [ -86.537172024272309, 39.357050032567635 ], [ -86.537869265657065, 39.356099164115186 ], [ -86.53948304549013, 39.355867151188434 ], [ -86.540783875297819, 39.356527918340994 ], [ -86.54092922860498, 39.357780143234841 ], [ -86.541921062265558, 39.358737690451989 ], [ -86.542913699850871, 39.359576027413354 ], [ -86.543519373139702, 39.360889657983364 ], [ -86.544823815707531, 39.361013972106967 ], [ -86.54597123480255, 39.361674080844537 ], [ -86.546686141055574, 39.362185971701628 ], [ -86.547136037190782, 39.36385659049737 ], [ -86.548594487083363, 39.363921859224824 ], [ -86.550056381735018, 39.363450701417555 ], [ -86.55226702725038, 39.365962527944816 ], [ -86.554864787129446, 39.367998974233913 ], [ -86.556322954102527, 39.368123747509962 ], [ -86.558245219942592, 39.367713843902742 ], [ -86.562095640762138, 39.365940325145075 ], [ -86.564023742998216, 39.36457670921601 ], [ -86.565886796807348, 39.361305540244835 ], [ -86.568348098901026, 39.360599466020666 ], [ -86.570892692429865, 39.358820802152266 ], [ -86.572927618380248, 39.356855141672725 ], [ -86.575976489396794, 39.355435829592309 ], [ -86.579574554072209, 39.354590606681157 ], [ -86.581696416617547, 39.35409759112099 ], [ -86.58518488115773, 39.356184245514257 ], [ -86.587750572047042, 39.358553621927292 ], [ -86.592332563906794, 39.362789619087607 ], [ -86.594175283982949, 39.3627960596029 ], [ -86.596394369895066, 39.361444840174258 ], [ -86.599169435712213, 39.359523310092605 ], [ -86.600286837914638, 39.357452985321714 ], [ -86.60158152024205, 39.356599148132936 ], [ -86.603517016330102, 39.356462711904811 ], [ -86.606282055496465, 39.356257529710049 ], [ -86.610622375395351, 39.354412531788235 ], [ -86.615609679030086, 39.352140370866842 ], [ -86.618374125623305, 39.352006422070517 ], [ -86.621615373751837, 39.348869985633399 ], [ -86.624571570977707, 39.347306048517197 ], [ -86.628812692477993, 39.346604419413538 ], [ -86.630812745798679, 39.34642344801459 ], [ -86.630798833382102, 39.347863400686968 ], [ -86.630798667432188, 39.347894937892647 ], [ -86.630784145765475, 39.355202630302706 ], [ -86.630772850859913, 39.369335968955362 ], [ -86.630762449590719, 39.369795484053952 ], [ -86.630793561083124, 39.376159239649027 ], [ -86.625386619027708, 39.378638931197806 ], [ -86.613568426376105, 39.382605560172784 ], [ -86.609693628506619, 39.38330785495436 ], [ -86.603937471232399, 39.39072676434656 ], [ -86.604463047791114, 39.395592090028799 ], [ -86.600985496558934, 39.391145814323338 ], [ -86.593045296725037, 39.393407037164963 ], [ -86.589176412070813, 39.392964305356131 ], [ -86.586240310767565, 39.390665178088732 ], [ -86.584202326580851, 39.392374455449691 ], [ -86.583067281506814, 39.397233927622679 ], [ -86.582201953252337, 39.398945355566831 ], [ -86.578788557238084, 39.404476039159427 ], [ -86.578394022301438, 39.406203068584425 ], [ -86.581146261871694, 39.408477885826819 ], [ -86.581295644442477, 39.409193647374011 ], [ -86.580296844790311, 39.409190048395963 ], [ -86.578995381741166, 39.408410520193101 ], [ -86.578457931554354, 39.408348972060416 ], [ -86.578046122212641, 39.412936830265977 ], [ -86.578682877951664, 39.414879277988007 ] ] ] } },
{ "type": "Feature", "properties": { "Id": 3, "Name": "Indian Creek Hills", "Alt_Name": "Morgantown Hills", "longitude": null, "Region_Description": "This hilly region is marked by a hilly relief of 179 ft, with a high elevation of 950 ft. It is bounded by hilly till to the north, outwash to the northwest, and Indian Creek to the south. In addition to the till, a region of exposed shale bedrock appears in the center of the region along ridgetops and alluvium deposits along Indian Creek. 15 high-capacity wells operate in the region, ranging from 50 GPM in the outwash to 1000 GPM in alluvial sediment. The Morgantown Township is in this region." }, "geometry": { "type": "Polygon", "coordinates": [ [ [ -86.251466264840403, 39.400823633545805 ], [ -86.251476527709187, 39.400592304410203 ], [ -86.251560468425581, 39.386284018523156 ], [ -86.251532351867297, 39.386130657345284 ], [ -86.251562682088419, 39.38607678880733 ], [ -86.25154532731095, 39.371326295241502 ], [ -86.251516380613538, 39.365249038186974 ], [ -86.25275610921058, 39.365244668555363 ], [ -86.254592701299316, 39.365828624176729 ], [ -86.257095123536899, 39.36618793277416 ], [ -86.259023625401923, 39.365055874789974 ], [ -86.261389478152424, 39.364384302798108 ], [ -86.263082315992477, 39.364623905913845 ], [ -86.26464095274801, 39.363603846767091 ], [ -86.265024471960928, 39.362175826450446 ], [ -86.262674970406977, 39.361302697853034 ], [ -86.262557044629816, 39.358498280864112 ], [ -86.260878224103308, 39.356942750682485 ], [ -86.25972199707445, 39.354761125822357 ], [ -86.259444730081668, 39.35310004558935 ], [ -86.26084552512458, 39.353051733048659 ], [ -86.262143736335346, 39.355749207822221 ], [ -86.263391781038592, 39.35621485635204 ], [ -86.264262949348392, 39.357479158430557 ], [ -86.264321044616196, 39.358967187745691 ], [ -86.265565566099951, 39.359776097220902 ], [ -86.267411955588528, 39.360477209157757 ], [ -86.270269405150458, 39.360352117786547 ], [ -86.271471522308474, 39.359930516301688 ], [ -86.274234596516834, 39.360019303273951 ], [ -86.276267301657938, 39.359459784652174 ], [ -86.278292615201764, 39.359615406979394 ], [ -86.279586799003354, 39.359194292338977 ], [ -86.281791971810904, 39.359780100554374 ], [ -86.282978656384984, 39.360860251895403 ], [ -86.284643536643316, 39.360226797743543 ], [ -86.287310882015703, 39.360672297081194 ], [ -86.288985145596982, 39.359109048554934 ], [ -86.295084181838561, 39.357286572029466 ], [ -86.297318334782261, 39.354475944102617 ], [ -86.300477077950049, 39.353362535777805 ], [ -86.303182237626956, 39.351531102180907 ], [ -86.306443446978861, 39.352102417843518 ], [ -86.309683170231381, 39.352407769231718 ], [ -86.312995497082341, 39.352827894986461 ], [ -86.315425754008686, 39.353013869545649 ], [ -86.31893312350185, 39.356124216638847 ], [ -86.324909310255151, 39.355472421874921 ], [ -86.328005717353719, 39.355375906546016 ], [ -86.331251694547973, 39.355051296520976 ], [ -86.335091017096843, 39.354329461484383 ], [ -86.3379511527814, 39.355833434611696 ], [ -86.342572988945506, 39.354972756661375 ], [ -86.349217455839678, 39.35375130552255 ], [ -86.350042429826971, 39.352211029031466 ], [ -86.351358355459681, 39.353362731327138 ], [ -86.353638188015552, 39.353890377841282 ], [ -86.356011712909066, 39.352244212820239 ], [ -86.357499760023799, 39.350707549759754 ], [ -86.360592273421986, 39.351010671551585 ], [ -86.360396230527002, 39.348263126354418 ], [ -86.35966924405254, 39.347171984950052 ], [ -86.357693242309267, 39.345673425755948 ], [ -86.356602086922138, 39.344122509581972 ], [ -86.358514272256116, 39.344533591464234 ], [ -86.359759118231466, 39.345398717858501 ], [ -86.361368793128463, 39.34666636015772 ], [ -86.364517216795434, 39.348915099873636 ], [ -86.367446824224814, 39.350933692663503 ], [ -86.369003140773415, 39.349969433452067 ], [ -86.371362248371796, 39.347546933410676 ], [ -86.373058438218592, 39.346721651652196 ], [ -86.37473599944758, 39.34798232290126 ], [ -86.37618545305169, 39.349003338586492 ], [ -86.377408360951776, 39.349605909023353 ], [ -86.378936761703642, 39.350388903841171 ], [ -86.378623371698438, 39.351102457445855 ], [ -86.378900681099537, 39.352441013486199 ], [ -86.379692302697165, 39.353208143404423 ], [ -86.381164966383352, 39.353359028597573 ], [ -86.384546904718448, 39.352900144862595 ], [ -86.387122358063394, 39.351896525127572 ], [ -86.388060389738669, 39.349970349229608 ], [ -86.388264577589538, 39.347682696631999 ], [ -86.386990614123036, 39.345887925795857 ], [ -86.386186016216342, 39.343094298493874 ], [ -86.38757511391735, 39.342243342917087 ], [ -86.390176899919268, 39.344931160479 ], [ -86.390717965480718, 39.346269085224989 ], [ -86.391809250634964, 39.347895974611276 ], [ -86.391674030360292, 39.349325721917275 ], [ -86.393940857353826, 39.349957411635394 ], [ -86.394240912998072, 39.350769564203169 ], [ -86.395708630769008, 39.351492421046402 ], [ -86.395579644276339, 39.352206977947233 ], [ -86.395012125309179, 39.353920572902958 ], [ -86.394702130388609, 39.35479153720599 ], [ -86.394142290405028, 39.35561113429803 ], [ -86.394453918215063, 39.35686440193728 ], [ -86.395739052648665, 39.357407501293814 ], [ -86.39698552248781, 39.357092114857345 ], [ -86.398515410402808, 39.355955670007653 ], [ -86.398696593329007, 39.356314219414486 ], [ -86.398644092532237, 39.357064935650101 ], [ -86.398869503085095, 39.357638281087617 ], [ -86.398497623718214, 39.358029733935474 ], [ -86.398024711680364, 39.359457740562874 ], [ -86.398109781860953, 39.360280690238589 ], [ -86.399531366272981, 39.361039020978446 ], [ -86.400820283260771, 39.361152948233169 ], [ -86.402392607294686, 39.360445807262785 ], [ -86.403502428317324, 39.359950842970449 ], [ -86.402848386559199, 39.361020327528252 ], [ -86.401643971422203, 39.361800889374948 ], [ -86.400627463257777, 39.362153271200931 ], [ -86.399059679930616, 39.362323992303203 ], [ -86.398100287461503, 39.363354918994418 ], [ -86.397288678984125, 39.364876532274472 ], [ -86.397336579351148, 39.366450275504619 ], [ -86.398924646386945, 39.367507485605053 ], [ -86.399785022795356, 39.367464244803877 ], [ -86.400895177333382, 39.366945467185026 ], [ -86.402565456748178, 39.365571285663513 ], [ -86.403807328045872, 39.364004158887539 ], [ -86.405845608738559, 39.36267949570658 ], [ -86.406768554423977, 39.362493477370371 ], [ -86.408371158160122, 39.361834091775073 ], [ -86.409169235143608, 39.361885828063073 ], [ -86.409467910828496, 39.36288866014803 ], [ -86.408727224237367, 39.363314034612152 ], [ -86.406444090483689, 39.364542136208193 ], [ -86.4054540330729, 39.365395352643283 ], [ -86.403412419898245, 39.367101444423611 ], [ -86.403543337368504, 39.367983272719428 ], [ -86.406100967262333, 39.370628381329333 ], [ -86.406306121937902, 39.372517621082409 ], [ -86.409325624239187, 39.372876295074981 ], [ -86.409910155676826, 39.373594562991521 ], [ -86.408886278965625, 39.374805247732169 ], [ -86.407864179332037, 39.375801364940401 ], [ -86.407573219760536, 39.377516421556706 ], [ -86.40848327872871, 39.378879976609731 ], [ -86.410037865373695, 39.380318316322551 ], [ -86.409841506749913, 39.381747767620524 ], [ -86.411766026200354, 39.383044914797566 ], [ -86.410287853838142, 39.383466566600426 ], [ -86.409905961086025, 39.385038121370854 ], [ -86.41089810332474, 39.387617951184474 ], [ -86.411214795076219, 39.38941714707034 ], [ -86.41282784893896, 39.390512436732024 ], [ -86.41274691860562, 39.391370295144249 ], [ -86.412954224341675, 39.393030656867566 ], [ -86.413485826747603, 39.393474664630389 ], [ -86.40990945311394, 39.39718965243744 ], [ -86.408734989451816, 39.397938963679017 ], [ -86.391597641166399, 39.398454828597906 ], [ -86.391606054564747, 39.401716755913469 ], [ -86.389072407366598, 39.402005588128752 ], [ -86.382838211415034, 39.402425848043251 ], [ -86.381456667582043, 39.404533273743091 ], [ -86.381251288536646, 39.405740617062634 ], [ -86.37677175289781, 39.405867760804469 ], [ -86.376316410585815, 39.41326698075018 ], [ -86.367357714053625, 39.413369660619601 ], [ -86.361836564538478, 39.420892204976759 ], [ -86.353070234771508, 39.421145890668747 ], [ -86.344113351530595, 39.420944679815847 ], [ -86.337483448701391, 39.421813431861068 ], [ -86.328131248487992, 39.422212952802525 ], [ -86.323647670652889, 39.422640131176657 ], [ -86.314296777154183, 39.422887493163877 ], [ -86.307871554241046, 39.422698387090925 ], [ -86.307711175130564, 39.419223200205792 ], [ -86.284513084122509, 39.41956225077935 ], [ -86.283926125764623, 39.4206016613389 ], [ -86.279887464652845, 39.421023739571943 ], [ -86.280171513248789, 39.412085303169825 ], [ -86.270756759688595, 39.412324673196999 ], [ -86.270800216740213, 39.408152852078906 ], [ -86.265993944866565, 39.408569636733795 ], [ -86.266076721347318, 39.400672976052526 ], [ -86.251466264840403, 39.400823633545805 ] ] ] } },
{ "type": "Feature", "properties": { "Id": 6, "Name": "Scotts Creek Till Plain", "Alt_Name": "Cope Till Plain", "longitude": null, "Region_Description": "This region is bounded by the White River floodplain to the north and the Morgantown Hills to the south. It exhibits high and flat till plains, with some outwash along Stotts Creek. There are no high-capacity wells or townships in this area." }, "geometry": { "type": "Polygon", "coordinates": [ [ [ -86.350210454110012, 39.421081722513172 ], [ -86.349669958904599, 39.479204946219717 ], [ -86.336442356497898, 39.479130215141339 ], [ -86.336632202574776, 39.491528251836478 ], [ -86.33742190707288, 39.498722066894501 ], [ -86.333231267482375, 39.500342132171632 ], [ -86.33213007778474, 39.499649213029279 ], [ -86.323655828160099, 39.49975637826045 ], [ -86.322299476145986, 39.500791489730723 ], [ -86.322232901207613, 39.507645160585199 ], [ -86.319551944073993, 39.508877157058691 ], [ -86.316991943815296, 39.511430018365871 ], [ -86.312088737445407, 39.514271082160832 ], [ -86.30623411515603, 39.514689444363761 ], [ -86.300949305048789, 39.516621450356048 ], [ -86.296223336204221, 39.521124465807247 ], [ -86.293242882819968, 39.526544214440754 ], [ -86.292220155873508, 39.531220564143261 ], [ -86.28526597768888, 39.54052341561956 ], [ -86.274625036389125, 39.545970495512172 ], [ -86.265689426945514, 39.553811373382253 ], [ -86.260988071062329, 39.561529550885432 ], [ -86.253827793892697, 39.565059783065358 ], [ -86.250567304829232, 39.567633612346519 ], [ -86.250552159882886, 39.561296946841544 ], [ -86.250537317035395, 39.560512951591967 ], [ -86.250491971891307, 39.546744843538718 ], [ -86.250486924893778, 39.545929373260229 ], [ -86.250382407186876, 39.531980641933359 ], [ -86.250364562083547, 39.531273211696757 ], [ -86.250213558070982, 39.516779016329707 ], [ -86.251515867892238, 39.516701809764257 ], [ -86.251467771643036, 39.505397933222781 ], [ -86.25145413856994, 39.50314523885983 ], [ -86.251405590563309, 39.490255494868968 ], [ -86.25137661338087, 39.488552333433113 ], [ -86.251341022700117, 39.475468915907321 ], [ -86.251337480302922, 39.473833492514082 ], [ -86.251309603002014, 39.460569882173687 ], [ -86.251309121905265, 39.459326430904746 ], [ -86.251282753620586, 39.444630125597712 ], [ -86.251251145508007, 39.430555477195028 ], [ -86.25128113513837, 39.429992511531303 ], [ -86.251284393501962, 39.429213120765802 ], [ -86.251383781652905, 39.415648375440227 ], [ -86.251391854177285, 39.415436679185895 ], [ -86.251463139803562, 39.400894072853198 ], [ -86.251466264840417, 39.400823633545805 ], [ -86.266076721347318, 39.400672976052526 ], [ -86.265993944866565, 39.408569636733823 ], [ -86.270800216740213, 39.408152852078913 ], [ -86.270756759688595, 39.412324673196999 ], [ -86.280171513248789, 39.412085303169846 ], [ -86.279887464652816, 39.421023739571943 ], [ -86.283926125764609, 39.4206016613389 ], [ -86.284513084122509, 39.419562250779371 ], [ -86.307711175130564, 39.41922320020582 ], [ -86.307871554241032, 39.422698387090932 ], [ -86.314296777154183, 39.422887493163906 ], [ -86.323647670652875, 39.422640131176657 ], [ -86.328131248487978, 39.422212952802532 ], [ -86.337483448701391, 39.421813431861089 ], [ -86.344113351530595, 39.420944679815847 ], [ -86.350210454110012, 39.421081722513172 ] ] ] } },
{ "type": "Feature", "properties": { "Id": 5, "Name": "Middle White River Outwash", "Alt_Name": "Martinsville Outwash", "longitude": null, "Region_Description": "This region is hilly, ranging from 550-950 ft of elevation with more relief to the west and more rolling hills to the east. This region has the thickest amount of unconsolidated material over bedrock, with mostly outwash, alluvium, and drift. A portion shale bedrock is exposed in the middle of this region. 43 high-capacity wells operate in the region ranging from 170 GPM in till areas to 1400 GPM in outwash along the White River. This region includes the township of Martinsville." }, "geometry": { "type": "Polygon", "coordinates": [ [ [ -86.337408693958864, 39.498601715110375 ], [ -86.336632202574776, 39.491528251836463 ], [ -86.336442356497898, 39.479130215141353 ], [ -86.349669958904599, 39.479204946219731 ], [ -86.350210454109998, 39.4210817225132 ], [ -86.353070234771508, 39.421145890668747 ], [ -86.36183656453845, 39.420892204976759 ], [ -86.367357714053639, 39.413369660619644 ], [ -86.376316410585815, 39.41326698075018 ], [ -86.37677175289781, 39.405867760804526 ], [ -86.381251288536617, 39.405740617062683 ], [ -86.381456667582015, 39.404533273743134 ], [ -86.382838211415006, 39.402425848043286 ], [ -86.389072407366569, 39.402005588128787 ], [ -86.391606054564733, 39.401716755913469 ], [ -86.391597641166385, 39.398454828597927 ], [ -86.408734989451816, 39.397938963679017 ], [ -86.409909453113912, 39.39718965243744 ], [ -86.413485826747603, 39.393474664630389 ], [ -86.414125906749518, 39.394009264793247 ], [ -86.417300520110814, 39.393567465071257 ], [ -86.41913830740792, 39.394263267849446 ], [ -86.419802441123878, 39.394209363818923 ], [ -86.42091894620178, 39.392956134969303 ], [ -86.423123095061058, 39.393939786679297 ], [ -86.428928009170278, 39.396486005928516 ], [ -86.432378603223924, 39.398391077763399 ], [ -86.433257981130652, 39.399081977769924 ], [ -86.434581238025899, 39.399603375884233 ], [ -86.437530274260638, 39.399716847858492 ], [ -86.440226671059719, 39.400683481623219 ], [ -86.442167596880822, 39.400483848670817 ], [ -86.442421245029493, 39.400259597668843 ], [ -86.472168135765074, 39.425209158851345 ], [ -86.472084314787281, 39.425353151075669 ], [ -86.469746083791634, 39.426740154725586 ], [ -86.468273274523725, 39.428402276581977 ], [ -86.464883644692563, 39.429459561181069 ], [ -86.461725388981947, 39.430398614372351 ], [ -86.459167450462772, 39.431078508841495 ], [ -86.456386834115847, 39.432853593147101 ], [ -86.453909317955734, 39.435166447028351 ], [ -86.450345756519653, 39.438725750429043 ], [ -86.448133829899064, 39.441098589229988 ], [ -86.447195250945242, 39.443144420819849 ], [ -86.446801772096507, 39.446241822157447 ], [ -86.44652263935177, 39.447709071776991 ], [ -86.444053385526402, 39.450808484677324 ], [ -86.4434460743268, 39.451771121365333 ], [ -86.442597279189357, 39.454091507000037 ], [ -86.442258409969313, 39.456092485157967 ], [ -86.442431443721631, 39.459650279498902 ], [ -86.440297702164429, 39.466863693760281 ], [ -86.439097898843556, 39.472639221382771 ], [ -86.439154220142171, 39.475202339243964 ], [ -86.43970988890301, 39.478217970064208 ], [ -86.4403206590233, 39.482617081916423 ], [ -86.441907046114778, 39.484293534253212 ], [ -86.442761227468523, 39.485203565639885 ], [ -86.442548846208126, 39.488683243059171 ], [ -86.439162986540893, 39.488857684046799 ], [ -86.438744902577383, 39.487282202168402 ], [ -86.436418234772944, 39.485840525661281 ], [ -86.435121847253228, 39.486358723283331 ], [ -86.432583959053119, 39.488205915264466 ], [ -86.430716592989185, 39.490819227194699 ], [ -86.430098793528018, 39.493829620707338 ], [ -86.429557093336967, 39.496859454915196 ], [ -86.428727900699755, 39.498915187716619 ], [ -86.426580593652432, 39.499591218298661 ], [ -86.425240432875583, 39.500900586164576 ], [ -86.424068522045502, 39.502810355323597 ], [ -86.421427140000432, 39.505896478725028 ], [ -86.418695936535357, 39.507717100382095 ], [ -86.399444529086267, 39.507437362177761 ], [ -86.370819901904426, 39.507762778409592 ], [ -86.347440170752961, 39.506680290458362 ], [ -86.337408693958864, 39.498601715110375 ] ] ] } },
{ "type": "Feature", "properties": { "Id": 8, "Name": "White Lick Till Plain", "Alt_Name": "Mooresville Till Plain", "longitude": null, "Region_Description": "This region is bounded on the southeast side by White Lick Creek, including the entirety of Mooresville. Till, alluvium, and outwash is deposited along the creek to the east of the region. 17 high-capacity wells operate in the outwash system, ranging from 100-1000 GPM. This region also includes the township of Monrovia." }, "geometry": { "type": "Polygon", "coordinates": [ [ [ -86.3696336523561, 39.551312930504572 ], [ -86.380100105882931, 39.550226393676859 ], [ -86.379437511229469, 39.555467670865852 ], [ -86.388145683409405, 39.566829910341049 ], [ -86.39083446268792, 39.569323396131303 ], [ -86.398586355211478, 39.569775154990602 ], [ -86.403468015063112, 39.569498215173567 ], [ -86.411017994936756, 39.576787137470163 ], [ -86.415900103991476, 39.57650967903237 ], [ -86.416273997919916, 39.578475210046641 ], [ -86.423050788754239, 39.578592303054947 ], [ -86.436360648608201, 39.578466903043697 ], [ -86.435911033132996, 39.573124558611667 ], [ -86.441332520169553, 39.573150748373294 ], [ -86.442127845771509, 39.563856950824707 ], [ -86.460116640133691, 39.563727348879446 ], [ -86.469358422242365, 39.563531512941033 ], [ -86.473974794100542, 39.564029301113614 ], [ -86.48444505953664, 39.56431462121099 ], [ -86.484282612568393, 39.557117213338614 ], [ -86.498139047245388, 39.556875770628011 ], [ -86.498341793426604, 39.555819288136682 ], [ -86.501858400189249, 39.555230209116914 ], [ -86.512201112345451, 39.555123026973121 ], [ -86.512432188518048, 39.549988253318354 ], [ -86.521215304468228, 39.549571611703172 ], [ -86.521769914427722, 39.549914300430913 ], [ -86.521653958100188, 39.549913228272388 ], [ -86.521610498015349, 39.557189969279477 ], [ -86.516956289732235, 39.557154364798059 ], [ -86.516923861595203, 39.564438032881085 ], [ -86.512311887150943, 39.564445216530672 ], [ -86.512328835788523, 39.579017099088297 ], [ -86.502439485503501, 39.600764837132871 ], [ -86.48433570968443, 39.600795961211823 ], [ -86.484083112903562, 39.600794839876812 ], [ -86.465555610230965, 39.600792187799023 ], [ -86.465715961756587, 39.615259024871683 ], [ -86.465709064081949, 39.615493261674843 ], [ -86.46590221576264, 39.629676388458968 ], [ -86.46592645901822, 39.630027901837643 ], [ -86.456073768806093, 39.630103825626847 ], [ -86.436969812698734, 39.630265092706232 ], [ -86.417825563640562, 39.630445541412136 ], [ -86.398824095371651, 39.630695655891984 ], [ -86.379710529083439, 39.630680765031371 ], [ -86.360847189629581, 39.631096599078681 ], [ -86.36085269507528, 39.631448029959053 ], [ -86.347878390636609, 39.631745340412614 ], [ -86.345608368468774, 39.631804527102688 ], [ -86.336080436113406, 39.624594826263817 ], [ -86.335596690986975, 39.617154060452812 ], [ -86.335848606618029, 39.610146607443639 ], [ -86.345353534413647, 39.602333416170445 ], [ -86.357297888252731, 39.586919825624072 ], [ -86.363025848721591, 39.587237445187938 ], [ -86.365322223566807, 39.588823444441864 ], [ -86.365559074482334, 39.593258957820723 ], [ -86.366546571536404, 39.59648272901147 ], [ -86.371154422243706, 39.598081190392541 ], [ -86.372447989085614, 39.598159703879887 ], [ -86.374940759455953, 39.598530738892855 ], [ -86.37531888894253, 39.597603017478342 ], [ -86.37312023924396, 39.595374067411441 ], [ -86.371554573309936, 39.594721932973464 ], [ -86.371485400896447, 39.592146850976007 ], [ -86.374268127829652, 39.591089074521932 ], [ -86.374387578018982, 39.588085889613922 ], [ -86.372181510326897, 39.586715116076299 ], [ -86.371875250900203, 39.58480388344428 ], [ -86.371427335593054, 39.583228026253124 ], [ -86.367287119011749, 39.581131482718483 ], [ -86.36720770576683, 39.579700654093415 ], [ -86.360882844305578, 39.579373592274735 ], [ -86.360333669179568, 39.558677470576882 ], [ -86.36205830518108, 39.558686950076627 ], [ -86.370271881812982, 39.558238992569983 ], [ -86.370302275522008, 39.554877712127187 ], [ -86.36994696365916, 39.55330234345476 ], [ -86.3696336523561, 39.551312930504572 ] ] ] } }
]
}
